,Record Sequence Number,EQID,Earthquake Name,YEAR,MODY,HRMN,Station Name,Station Sequence Number,Station ID  No.,Earthquake Magnitude,Magnitude Type,Magnitude Uncertainty: Kagan Model,Magnitude Uncertainty: Statistical,Magnitude Sample Size,Magnitude Uncertainty: Study Class,Mo (dyne.cm),Strike (deg),Dip (deg),Rake Angle (deg),Mechanism Based on Rake Angle,P-plunge (deg),P-trend (deg),T-plunge (deg),T-trend (deg),Hypocenter Latitude (deg),Hypocenter Longitude (deg),Hypocenter Depth (km),Coseismic Surface Rupture: 1=Yes; 0=No;    -999=Unknown,Coseismic Surface Rupture (Including Inferred),Basis for Inference of Surface Rupture,Finite Rupture Model: 1=Yes;  0=No,Depth to Top Of Fault Rupture Model,Fault Rupture Length for Calculation of Ry (km),Fault Rupture Width (km),Fault Rupture Area (km^2),Avg Fault Disp (cm),Rise Time (s),Avg Slip Velocity (cm/s),Static Stress Drop (bars),Preferred Rupture Velocity (km/s),Average Vr/Vs,Percent of Moment Release in the Top 5 Km of Crust,Existence of Shallow Asperity: 0=No; 1=Yes,Depth to Top of Shallowest Asperity (km),Earthquake in Extensional Regime: 1=Yes; 0=No,Fault Name,Slip Rate (mm/Yr),EpiD (km),HypD (km),Joyner-Boore Dist. (km),Campbell R Dist. (km),RmsD (km),ClstD (km),Rx,FW/HW Indicator,Source to Site Azimuth (deg),X,Theta.D (deg),SSGA (Strike Slip),Y,Phi.D (deg),SSGA (Dip Slip),s,d,ctildepr,D,Rfn.Hyp,Rfp.Hyp,T,GMX's C1,GMX's C2,GMX's C3,Campbell's GEOCODE,Bray and Rodriguez-Marek SGS,Depth,Preferred NEHRP Based on Vs30,Vs30 (m/s) selected for analysis,Measured/Inferred Class,Sigma of Vs30 (in natural log Units),NEHRP Classification from CGS's Site Condition Map,Geological Unit,Geology,Owner,Station Latitude,Station Longitude,STORIES,INSTLOC,Depth to Basement Rock,Site Visited,NGA Type,Age,Grain Size,Depositional History,Basin,h (m),hnorm (m),Rsbe (m),Rcebe (m),Rebe (m),Rsbe1 (m),File Name (Horizontal 1),File Name (Horizontal 2),File Name (Vertical),H1 azimth (degrees),H2 azimith (degrees),Type of Recording,Instrument Model,PEA Processing Flag,Type of Filter,npass,nroll,HP-H1 (Hz),HP-H2 (Hz),LP-H1 (Hz),LP-H2 (Hz),Factor,Lowest Usable Freq - H1 (Hz),Lowest Usable Freq - H2 (H2),Lowest Usable Freq - Ave. Component (Hz),PGA (g),PGV (cm/sec),PGD (cm)
91,92.0,30.0,San Fernando,1971.0,209.0,1400.0,Wheeler Ridge - Ground,149.0,1102,6.61,Mw,0.22199999999999998,0.112,15.0,0.2,9.225714271547769e+25,288.0,50.0,83.0,2.0,4.77,21.96,82.82,153.42,34.44,-118.41,13.0,1.0,1.0,-999,1.0,0.0,20.0,27.4,438.4,58.76887479247924,1.0166666666666666,57.805450615553355,24.476452295850915,2.525,0.7777777777777777,49.0,1.0,2.5,0.0,Sierra Madre-San Fernando,2.0,74.03,75.16,68.38,-999.0,80.21,70.23,56.87,nu,49.08,0.36,45.62,0.25,0.14,68.7,0.05,5.7,-999.0,1.9009,6.81,-0.6204,-0.0591,61.925791,I,H,D,A,D,D,D,347.67,0,0.1,D,"Qal, deep (incl LA)",-999,CDWR,35.027,-118.791,0.0,GROUND LEVEL,-999.0,-999,-999,-999,-999,-999,-999,-999.0,-999.0,-999.0,-999.0,-999.0,-999.0,RSN92_AAD_WRP090.AT2,RSN92_AAD_WRP180.AT2,SFERN_WRP-UP.AT2,90.0,180.0,A,-999,PEA,A,1.0,2.5,0.1,0.1,23.0,23.0,1.25,0.125,0.125,0.125,0.028018,2.0252,2.2169
92,93.0,30.0,San Fernando,1971.0,209.0,1400.0,Whittier Narrows Dam,96.0,289,6.61,Mw,0.22199999999999998,0.112,15.0,0.2,9.225714271547769e+25,288.0,50.0,83.0,2.0,4.77,21.96,82.82,153.42,34.44,-118.41,13.0,1.0,1.0,-999,1.0,0.0,20.0,27.4,438.4,58.76887479247924,1.0166666666666666,57.805450615553355,24.476452295850915,2.525,0.7777777777777777,49.0,1.0,2.5,0.0,Sierra Madre-San Fernando,2.0,57.12,58.58,39.45,-999.0,51.47,39.45,-22.94,nu,-144.43,0.64,35.47,0.52,0.86,31.43,0.74,10.3,-999.0,2.6194,16.1,0.3879,-0.221,-24.000668,I,H,D,A,D,D,D,298.68,1,0.25,D,"Qal, deep (incl LA)",Holocene medium alluvium,USGS,34.02,-118.053,0.0,BASEYARD,2.5,-999,5,Holocene,Coarse,Alluvial Fan,-999,-999.0,-999.0,-999.0,-999.0,-999.0,-999.0,RSN93_AAD_WND143.AT2,RSN93_AAD_WND233.AT2,SFERN_WNDDWN.AT2,143.0,233.0,A,-999,PEA,A,1.0,2.5,0.1,0.1,20.0,20.0,1.25,0.125,0.125,0.125,0.1122,10.19,6.8725
93,94.0,30.0,San Fernando,1971.0,209.0,1400.0,Wrightwood - 6074 Park Dr,99.0,290,6.61,Mw,0.22199999999999998,0.112,15.0,0.2,9.225714271547769e+25,288.0,50.0,83.0,2.0,4.77,21.96,82.82,153.42,34.44,-118.41,13.0,1.0,1.0,-999,1.0,0.0,20.0,27.4,438.4,58.76887479247924,1.0166666666666666,57.805450615553355,24.476452295850915,2.525,0.7777777777777777,49.0,1.0,2.5,0.0,Sierra Madre-San Fernando,2.0,72.17,73.33,61.64,-999.0,70.68,62.23,23.83,nu,158.22,0.64,12.95,0.63,0.03,87.59,0.0,10.3,-999.0,3.313,10.34,-0.2716,0.1222,23.764175,B,H,A,B,C,S,C,486.0,0,0.2,C,"Qal, coarse",Holocene coarse alluvium ,USGS,34.36,-117.63,2.0,GROUND LEVEL,0.068,-999,1a,Holocene/Mesozoic ?,-999,-999,-999,-999.0,-999.0,-999.0,-999.0,-999.0,-999.0,RSN94_AAD_WTW025.AT2,RSN94_AAD_WTW295.AT2,SFERN_WTWDWN.AT2,25.0,295.0,A,-999,PEA,A,1.0,2.5,0.2,0.2,30.0,30.0,1.25,0.25,0.25,0.25,0.048565,4.5564,2.381
94,95.0,31.0,"Managua, Nicaragua-01",1972.0,1223.0,629.0,"Managua, ESSO",199.0,3501,6.24,Mw,0.2064,0.065,3.0,0.3,2.570395782768879e+25,40.0,80.0,0.0,0.0,7.05,355.44,7.05,264.56,12.15,-86.27,5.0,0.0,0.0,-999,1.0,2.05,11.5,6.0,69.0,104.05618098813372,-999.0,-999.0,109.25195830433174,-999.0,-999.0,-999.0,-999.0,-999,1.0,-999,-999.0,5.68,7.57,3.51,-999.0,8.33,4.06,-3.46,na,-99.26,0.3,44.39,0.22,0.5,28.49,0.44,3.5,-999.0,2.0495,4.6,-0.4213,-0.293,-3.4600309,A,Q,D,A,D,-999,D,288.77,0,0.1,D,-999,-999,-999,12.145,-86.322,1.0,GROUND LEVEL,2.0,-999,-999,-999,-999,-999,-999,-999.0,-999.0,-999.0,-999.0,-999.0,-999.0,RSN95_AAD_A-MAN090.AT2,RSN95_AAD_A-MAN180.AT2,MANAGUA_A-ESODWN.AT2,90.0,180.0,A,-999,PEA,A,1.0,2.5,0.3,0.1,18.0,18.0,1.25,0.375,0.125,0.375,0.354,28.413,6.0968
95,96.0,32.0,"Managua, Nicaragua-02",1972.0,1223.0,719.0,"Managua, ESSO",199.0,3501,5.2,U,0.2064,-999.0,-999.0,0.3,7.079457843841426e+23,40.0,80.0,0.0,0.0,7.05,355.44,7.05,264.56,12.15,-86.27,5.0,-999.0,0.0,M<6,0.0,2.449,3.6,3.6,13.1,-999.0,-999.0,-999.0,-999.0,-999.0,-999.0,-999.0,-999.0,-999,1.0,-999,-999.0,5.68,7.57,4.33,-999.0,7.06,4.98,-3.52,na,-125.61,0.43,44.35,0.3,0.72,28.47,0.63,-999.0,-999.0,-999.0,-999.0,-999.0,-999.0,-999.0,A,Q,D,A,D,-999,D,288.77,0,0.1,D,-999,-999,-999,12.145,-86.322,1.0,GROUND LEVEL,2.0,-999,-999,-999,-999,-999,-999,-999.0,-999.0,-999.0,-999.0,-999.0,-999.0,RSN96_AAD_B-MAN090.AT2,RSN96_AAD_B-MAN180.AT2,MANAGUA_B-ESODWN.AT2,90.0,180.0,A,-999,PEA,A,1.0,2.5,0.1,0.09,23.0,18.0,1.25,0.125,0.1125,0.125,0.22911,21.997,7.6989
97,98.0,34.0,Hollister-03,1974.0,1128.0,2301.0,Gilroy Array #1,424.0,47379,5.14,Mw,0.1752,0.089,5.0,0.3,5.7543993733715714e+23,272.0,90.0,0.0,0.0,0.0,227.0,0.0,137.0,36.9202,-121.4663,6.11,-999.0,0.0,M<6,0.0,3.116,2.9,3.3,9.5,-999.0,-999.0,-999.0,-999.0,-999.0,-999.0,-999.0,-999.0,-999,0.0,-999,-999.0,11.09,12.66,9.99,-999.0,12.16,10.46,5.55,na,33.78,0.44,30.07,0.38,0.92,42.28,0.68,-999.0,-999.0,-999.0,-999.0,-999.0,-999.0,-999.0,I,F,A,D,B,S,B,1428.14,1,0.4,B,KJf,-999,CDMG,36.973,-121.572,0.0,GROUND LEVEL,0.0,-999,-999,Mesozoic,-999,-999,-999,-999.0,-999.0,-999.0,-999.0,-999.0,-999.0,RSN98_AAD_A-G01157.AT2,RSN98_AAD_A-G01247.AT2,HOLLISTR_A-G01XXX.AT2,157.0,247.0,A,-999,PEA,A,1.0,2.5,1.3,1.2,30.0,30.0,1.25,1.625,1.5,1.625,0.10529,2.958,0.16733
99,100.0,34.0,Hollister-03,1974.0,1128.0,2301.0,"San Juan Bautista, 24 Polk St",418.0,47126,5.14,Mw,0.1752,0.089,5.0,0.3,5.7543993733715714e+23,272.0,90.0,0.0,0.0,0.0,227.0,0.0,137.0,36.9202,-121.4663,6.11,-999.0,0.0,M<6,0.0,3.116,2.9,3.3,9.5,-999.0,-999.0,-999.0,-999.0,-999.0,-999.0,-999.0,-999.0,-999,0.0,-999,-999.0,9.38,11.19,8.56,-999.0,10.6,9.11,-6.92,na,-53.94,0.44,47.55,0.3,0.92,48.55,0.61,-999.0,-999.0,-999.0,-999.0,-999.0,-999.0,-999.0,A,Q,D,B,D,D,D,335.5,2a_3a_4b_4c,-999.0,C,Qoa,-999,CDMG,36.86,-121.54,-999.0,-999,-999.0,-999,-999,Pleistocene,-999,-999,-999,-999.0,-999.0,-999.0,-999.0,-999.0,-999.0,RSN100_AAD_A-SJB033.AT2,RSN100_AAD_A-SJB123.AT2,HOLLISTR_A-SJBDWN.AT2,33.0,123.0,A,-999,PEA,A,1.0,2.5,0.3,0.3,20.0,14.0,1.25,0.375,0.375,0.375,0.082199,5.628,0.54948
100,101.0,35.0,Northern Calif-07,1975.0,607.0,846.0,Cape Mendocino,501.0,89005,5.2,Mw,0.1596,-999.0,-999.0,0.2,7.079457843841426e+23,75.0,72.0,0.0,0.0,12.62,31.44,12.62,298.56,40.57,-124.14,21.0,-999.0,0.0,M<6,0.0,18.134,4.1,4.3,17.5,-999.0,-999.0,-999.0,-999.0,-999.0,-999.0,-999.0,-999.0,-999,0.0,-999,-999.0,30.54,37.06,28.73,-999.0,36.75,34.73,20.11,na,137.22,0.5,38.91,0.39,0.7,60.4,0.35,-999.0,-999.0,-999.0,-999.0,-999.0,-999.0,-999.0,I,F,A,D,B,S,C,567.78,2a_3a_4b_4c,0.33,B,Kss,-999,CDMG,40.348,-124.352,0.0,GROUND LEVEL,0.0,-999,-999,Mesozoic,-999,-999,-999,-999.0,-999.0,-999.0,-999.0,-999.0,-999.0,RSN101_AAD_D-CPM030.AT2,RSN101_AAD_D-CPM120.AT2,NCALIF.AG_D-CPMDWN.AT2,30.0,120.0,A,-999,PEA,A,1.0,2.5,1.3,1.0,30.0,22.0,1.25,1.625,1.25,1.625,0.15879,4.5391,0.26854
101,102.0,35.0,Northern Calif-07,1975.0,607.0,846.0,Ferndale City Hall,133.0,1023,5.2,Mw,0.1596,-999.0,-999.0,0.2,7.079457843841426e+23,75.0,72.0,0.0,0.0,12.62,31.44,12.62,298.56,40.57,-124.14,21.0,-999.0,0.0,M<6,0.0,18.134,4.1,4.3,17.5,-999.0,-999.0,-999.0,-999.0,-999.0,-999.0,-999.0,-999.0,-999,0.0,-999,-999.0,10.42,23.44,8.2,-999.0,22.61,19.9,-2.41,na,-162.91,0.5,18.74,0.47,0.7,8.95,0.69,-999.0,-999.0,-999.0,-999.0,-999.0,-999.0,-999.0,B,Q,D,A,D,S,D,219.31,0,0.1,D,"Qal, thin",-999,USGS,40.576,-124.263,2.0,GROUND LEVEL,-999.0,-999,-999,Pleistocene,-999,Alluvial Valley,-999,-999.0,-999.0,-999.0,-999.0,-999.0,-999.0,RSN102_AAD_D-FRN224.AT2,RSN102_AAD_D-FRN314.AT2,NCALIF.AG_D-FRN-UP.AT2,224.0,314.0,A,-999,PEA,A,1.0,2.5,0.4,0.2,13.0,13.0,1.25,0.5,0.25,0.5,0.090045,5.4043,0.67988
102,103.0,35.0,Northern Calif-07,1975.0,607.0,846.0,"Petrolia, General Store",161.0,1398,5.2,Mw,0.1596,-999.0,-999.0,0.2,7.079457843841426e+23,75.0,72.0,0.0,0.0,12.62,31.44,12.62,298.56,40.57,-124.14,21.0,-999.0,0.0,M<6,0.0,18.134,4.1,4.3,17.5,-999.0,-999.0,-999.0,-999.0,-999.0,-999.0,-999.0,-999.0,-999,0.0,-999,-999.0,30.04,36.65,28.48,-999.0,36.38,34.67,24.15,na,125.19,0.5,50.62,0.31,0.7,65.87,0.29,-999.0,-999.0,-999.0,-999.0,-999.0,-999.0,-999.0,I,Q,D,A,D,S,C,368.72,2a_3a_4b_4c,0.25,D,"Qal, thin",-999,CDMG,40.324,-124.286,0.0,GROUND LEVEL,-999.0,-999,-999,Holocene,-999,-999,-999,-999.0,-999.0,-999.0,-999.0,-999.0,-999.0,RSN103_AAD_D-PGS075.AT2,RSN103_AAD_D-PGS345.AT2,NCALIF.AG_D-PGSDWN.AT2,75.0,345.0,A,-999,PEA,A,1.0,2.5,0.3,0.33,30.0,32.0,1.25,0.375,0.4125,0.4125,0.14983,7.7346,1.0065
103,104.0,35.0,Northern Calif-07,1975.0,607.0,846.0,"Shelter Cove, Sta A",158.0,1277,5.2,Mw,0.1596,-999.0,-999.0,0.2,7.079457843841426e+23,75.0,72.0,0.0,0.0,12.62,31.44,12.62,298.56,40.57,-124.14,21.0,-999.0,0.0,M<6,0.0,18.134,4.1,4.3,17.5,-999.0,-999.0,-999.0,-999.0,-999.0,-999.0,-999.0,-999.0,-999,0.0,-999,-999.0,59.44,63.04,58.78,-999.0,63.05,62.76,59.68,na,96.73,0.5,81.23,0.08,0.42,88.33,0.01,-999.0,-999.0,-999.0,-999.0,-999.0,-999.0,-999.0,I,F,A,E,B,S,C,594.83,2a_3a_4b_4c,0.33,C,Tss,-999,CDMG,40.039,-124.064,-999.0,-999,-999.0,-999,-999,Mesozoic,-999,-999,-999,-999.0,-999.0,-999.0,-999.0,-999.0,-999.0,RSN104_AAD_D-SCA200.AT2,RSN104_AAD_D-SCA290.AT2,NCALIF.AG_D-SCAXXX.AT2,200.0,290.0,A,-999,PEA,A,1.0,2.5,0.5,1.0,20.0,20.0,1.25,0.625,1.25,1.25,0.030089,1.3527,0.27156
104,105.0,35.0,Northern Calif-07,1975.0,607.0,846.0,"Shelter Cove, Sta B",159.0,1278,5.2,Mw,0.1596,-999.0,-999.0,0.2,7.079457843841426e+23,75.0,72.0,0.0,0.0,12.62,31.44,12.62,298.56,40.57,-124.14,21.0,-999.0,0.0,M<6,0.0,18.134,4.1,4.3,17.5,-999.0,-999.0,-999.0,-999.0,-999.0,-999.0,-999.0,-999.0,-999,0.0,-999,-999.0,60.38,63.93,59.7,-999.0,63.94,63.64,60.51,na,97.34,0.5,80.65,0.08,0.36,88.58,0.01,-999.0,-999.0,-999.0,-999.0,-999.0,-999.0,-999.0,I,H,B,E,C,S,C,518.98,2a_3a_4b_4c,0.33,C,Tss,-999,CDMG,40.03,-124.07,-999.0,-999,-999.0,-999,-999,Mesozoic,-999,-999,-999,-999.0,-999.0,-999.0,-999.0,-999.0,-999.0,RSN105_AAD_D-SCP070.AT2,RSN105_AAD_D-SCP160.AT2,NCALIF.AG_D-SCPXXX.AT2,70.0,160.0,A,-999,PEA,A,1.0,2.5,0.8,0.8,33.0,22.0,1.25,1.0,1.0,1.0,0.081286,2.3069,0.097135
105,106.0,36.0,Oroville-01,1975.0,801.0,2020.0,Oroville Seismograph Station,141.0,1051,5.89,Mw,0.1596,0.225,4.0,0.2,7.673614893618219e+24,180.0,65.0,-70.0,1.0,64.3,123.89,17.66,255.3,39.439,-121.528,5.5,1.0,1.0,-999,0.0,1.801,6.3,5.0,31.4,-999.0,-999.0,-999.0,-999.0,-999.0,-999.0,-999.0,-999.0,-999,1.0,-999,-999.0,12.58,13.73,7.79,-999.0,11.46,7.99,-0.68,nu,-175.01,0.72,11.02,-999.0,0.82,1.38,-999.0,-999.0,-999.0,-999.0,-999.0,-999.0,-999.0,-999.0,A,J,A,D,B,S,C,680.37,2a_3a_4b_4c,0.4,B,J metamorphic,-999,CDWR,39.55,-121.5,1.0,GROUND LEVEL,0.0,-999,-999,Mesozoic,-999,-999,-999,-999.0,-999.0,-999.0,-999.0,-999.0,-999.0,RSN106_AAD_A-ORV037.AT2,RSN106_AAD_A-ORV307.AT2,OROVILLE_A-ORVXXX.AT2,37.0,307.0,A,-999,PEA,A,1.0,2.5,3.0,2.3,13.0,13.0,1.25,3.75,2.875,3.75,0.080076,2.2919,0.10226
106,107.0,37.0,Oroville-02,1975.0,802.0,2022.0,Oroville Airport,168.0,1545,4.79,Mw,0.1596,0.339,3.0,0.2,1.7179083871575974e+23,166.0,50.0,-69.0,1.0,73.78,141.15,2.93,241.3,39.44,-121.46,3.6,-999.0,0.0,M<6,0.0,0.585,3.1,4.2,12.8,-999.0,-999.0,-999.0,-999.0,-999.0,-999.0,-999.0,-999.0,-999,1.0,-999,-999.0,14.62,15.06,13.55,-999.0,15.69,14.07,13.85,nu,118.97,0.52,50.74,-999.0,0.06,67.64,-999.0,-999.0,-999.0,-999.0,-999.0,-999.0,-999.0,-999.0,A,Q,D,B,D,S,C,391.76,2a_3a_4b_4c,0.33,C,Qtv (tuff),-999,CIT,39.496,-121.614,1.0,GROUND LEVEL,-999.0,-999,-999,Pleistocene,-999,-999,-999,-999.0,-999.0,-999.0,-999.0,-999.0,-999.0,RSN107_AAD_B-OAP180.AT2,RSN107_AAD_B-OAP270.AT2,OROVILLE_B-OAPDWN.AT2,180.0,270.0,A,-999,PEA,A,1.0,2.5,0.1,0.23,23.0,23.0,1.25,0.125,0.2875,0.2875,0.028533,2.2188,0.66294
107,108.0,37.0,Oroville-02,1975.0,802.0,2022.0,Up & Down Cafe (OR1),169.0,1546,4.79,Mw,0.1596,0.339,3.0,0.2,1.7179083871575974e+23,166.0,50.0,-69.0,1.0,73.78,141.15,2.93,241.3,39.44,-121.46,3.6,-999.0,0.0,M<6,0.0,0.585,3.1,4.2,12.8,-999.0,-999.0,-999.0,-999.0,-999.0,-999.0,-999.0,-999.0,-999,1.0,-999,-999.0,12.4,12.92,12.07,-999.0,13.77,12.65,14.74,hw,92.36,0.52,79.83,0.09,0.06,66.43,0.02,-999.0,-999.0,-999.0,-999.0,-999.0,-999.0,-999.0,A,Q,D,A,D,S,C,377.25,2a_3a_4b_4c,0.33,D,Qtv (tuff),-999,CDMG,39.4325,-121.604,1.0,GROUND LEVEL,-999.0,-999,-999,-999,-999,-999,-999,-999.0,-999.0,-999.0,-999.0,-999.0,-999.0,RSN108_AAD_B-OR1000.AT2,RSN108_AAD_B-OR1270.AT2,OROVILLE_B-OR1DWN.AT2,0.0,270.0,A,-999,PEA,A,1.0,2.5,0.43,0.2,23.0,23.0,1.25,0.5375,0.25,0.5375,0.033619,2.1144,0.45071
108,109.0,38.0,Oroville-04,1975.0,802.0,2059.0,Medical Center,167.0,1544,4.37,Mw,0.1596,0.035,2.0,0.2,4.027170343254608e+22,180.0,58.0,-59.0,4.0,62.71,142.6,8.01,248.42,39.433,-121.475,5.1,-999.0,0.0,M<6,0.0,3.906,1.8,1.6,2.9,-999.0,-999.0,-999.0,-999.0,-999.0,-999.0,-999.0,-999.0,-999,1.0,-999,-999.0,9.95,11.18,9.22,-999.0,11.19,10.5,6.33,nu,139.52,0.45,34.11,-999.0,0.86,79.57,-999.0,-999.0,-999.0,-999.0,-999.0,-999.0,-999.0,-999.0,A,Q,B,B,C,S,C,519.15,2a_3a_4b_4c,0.33,C,Qtv (tuff),-999,CIT,39.507,-121.54,1.0,GROUND LEVEL,-999.0,-999,-999,Tertiary,-999,-999,-999,-999.0,-999.0,-999.0,-999.0,-999.0,-999.0,RSN109_AAD_C-OMC246.AT2,RSN109_AAD_C-OMC336.AT2,OROVILLE_C-OMCDWN.AT2,246.0,336.0,A,-999,PEA,A,1.0,2.5,0.25,0.23,30.0,30.0,1.25,0.3125,0.2875,0.3125,0.063741,2.8329,0.31635
109,110.0,38.0,Oroville-04,1975.0,802.0,2059.0,Oroville Airport,168.0,1545,4.37,Mw,0.1596,0.035,2.0,0.2,4.027170343254608e+22,180.0,58.0,-59.0,4.0,62.71,142.6,8.01,248.42,39.433,-121.475,5.1,-999.0,0.0,M<6,0.0,3.906,1.8,1.6,2.9,-999.0,-999.0,-999.0,-999.0,-999.0,-999.0,-999.0,-999.0,-999,1.0,-999,-999.0,13.85,14.76,13.37,-999.0,14.91,14.36,12.68,hw,116.04,0.45,59.53,0.23,0.11,81.14,0.02,-999.0,-999.0,-999.0,-999.0,-999.0,-999.0,-999.0,A,Q,D,B,D,S,C,391.76,2a_3a_4b_4c,0.33,C,Qtv (tuff),-999,CIT,39.496,-121.614,1.0,GROUND LEVEL,-999.0,-999,-999,Pleistocene,-999,-999,-999,-999.0,-999.0,-999.0,-999.0,-999.0,-999.0,RSN110_AAD_C-OAP180.AT2,RSN110_AAD_C-OAP270.AT2,OROVILLE_C-OAPDWN.AT2,180.0,270.0,A,-999,PEA,A,1.0,2.5,0.1,0.2,30.0,30.0,1.25,0.125,0.25,0.25,0.023574,1.6573,0.45964
110,111.0,38.0,Oroville-04,1975.0,802.0,2059.0,Up & Down Cafe (OR1),169.0,1546,4.37,Mw,0.1596,0.035,2.0,0.2,4.027170343254608e+22,180.0,58.0,-59.0,4.0,62.71,142.6,8.01,248.42,39.433,-121.475,5.1,-999.0,0.0,M<6,0.0,3.906,1.8,1.6,2.9,-999.0,-999.0,-999.0,-999.0,-999.0,-999.0,-999.0,-999.0,-999,1.0,-999,-999.0,11.09,12.2,11.0,-999.0,12.32,12.18,11.83,hw,90.0,0.03,89.76,0.0,0.11,82.7,0.01,-999.0,-999.0,-999.0,-999.0,-999.0,-999.0,-999.0,A,Q,D,A,D,S,C,377.25,2a_3a_4b_4c,0.33,D,Qtv (tuff),-999,CDMG,39.4325,-121.604,1.0,GROUND LEVEL,-999.0,-999,-999,-999,-999,-999,-999,-999.0,-999.0,-999.0,-999.0,-999.0,-999.0,RSN111_AAD_C-OR1000.AT2,RSN111_AAD_C-OR1090.AT2,OROVILLE_C-OR1DWN.AT2,0.0,90.0,A,-999,PEA,A,1.0,2.5,0.33,0.2,30.0,30.0,1.25,0.4125,0.25,0.4125,0.05879,2.3182,0.43249
111,112.0,39.0,Oroville-03,1975.0,808.0,700.0,Broadbeck Residence,165.0,1542,4.7,Mw,0.1596,0.007,2.0,0.2,1.2589254117941756e+23,177.1,46.0,-91.0,1.0,88.77,51.95,1.0,267.81,39.502,-121.512,7.6,-999.0,0.0,M<6,0.0,5.955,2.5,2.4,6.2,-999.0,-999.0,-999.0,-999.0,-999.0,-999.0,-999.0,-999.0,-999,1.0,-999,-999.0,7.03,10.36,5.95,-999.0,10.14,9.25,5.17,nu,46.9,0.48,30.6,-999.0,0.93,69.23,-999.0,-999.0,-999.0,-999.0,-999.0,-999.0,-999.0,-999.0,A,Q,C,A,D,S,C,427.38,2a_3a_4b_4c,0.33,D,Qtv (tuff),-999,CIT,39.446,-121.55,1.0,GROUND LEVEL,-999.0,-999,-999,-999,-999,-999,-999,-999.0,-999.0,-999.0,-999.0,-999.0,-999.0,RSN112_AAD_D-EBH000.AT2,RSN112_AAD_D-EBH090.AT2,OROVILLE_D-EBHDWN.AT2,0.0,90.0,A,-999,PEA,A,1.0,2.5,0.7,0.6,33.0,40.0,1.25,0.875,0.75,0.875,0.14414,2.9395,0.18361
112,113.0,39.0,Oroville-03,1975.0,808.0,700.0,DWR Garage,166.0,1543,4.7,Mw,0.1596,0.007,2.0,0.2,1.2589254117941756e+23,177.1,46.0,-91.0,1.0,88.77,51.95,1.0,267.81,39.502,-121.512,7.6,-999.0,0.0,M<6,0.0,5.955,2.5,2.4,6.2,-999.0,-999.0,-999.0,-999.0,-999.0,-999.0,-999.0,-999.0,-999,1.0,-999,-999.0,1.07,7.68,0.0,-999.0,6.89,6.03,0.94,hw,90.0,0.34,36.96,0.27,0.93,39.14,0.72,-999.0,-999.0,-999.0,-999.0,-999.0,-999.0,-999.0,A,J,A,D,B,S,C,634.85,2a_3a_4b_4c,0.4,B,J metamorphic,-999,CIT,39.51,-121.505,1.0,GROUND LEVEL,0.0,-999,-999,Mesozoic,-999,-999,-999,-999.0,-999.0,-999.0,-999.0,-999.0,-999.0,RSN113_AAD_D-DWR090.AT2,RSN113_AAD_D-DWR180.AT2,OROVILLE_D-DWRDWN.AT2,90.0,180.0,A,-999,PEA,A,1.0,2.5,1.5,3.3,33.0,40.0,1.25,1.875,4.125,4.125,0.18365,1.6855,0.032365
113,114.0,39.0,Oroville-03,1975.0,808.0,700.0,Duffy Residence (OR5),171.0,1550,4.7,Mw,0.1596,0.007,2.0,0.2,1.2589254117941756e+23,177.1,46.0,-91.0,1.0,88.77,51.95,1.0,267.81,39.502,-121.512,7.6,-999.0,0.0,M<6,0.0,5.955,2.5,2.4,6.2,-999.0,-999.0,-999.0,-999.0,-999.0,-999.0,-999.0,-999.0,-999,1.0,-999,-999.0,8.28,11.24,7.35,-999.0,11.18,10.52,7.23,nu,56.21,0.48,42.98,-999.0,0.63,80.61,-999.0,-999.0,-999.0,-999.0,-999.0,-999.0,-999.0,-999.0,A,Q,D,B,D,S,C,418.97,2a_3a_4b_4c,0.33,C,Qtv (tuff),-999,CDMG,39.445,-121.574,1.0,GROUND LEVEL,-999.0,-999,-999,Pleistocene,-999,-999,-999,-999.0,-999.0,-999.0,-999.0,-999.0,-999.0,RSN114_AAD_D-OR5090.AT2,RSN114_AAD_D-OR5180.AT2,OROVILLE_D-OR5DWN.AT2,90.0,180.0,A,-999,PEA,A,1.0,2.5,0.53,0.7,50.0,40.0,1.25,0.6625,0.875,0.875,0.069623,2.3768,0.17152
114,115.0,39.0,Oroville-03,1975.0,808.0,700.0,Johnson Ranch,163.0,1493,4.7,Mw,0.1596,0.007,2.0,0.2,1.2589254117941756e+23,177.1,46.0,-91.0,1.0,88.77,51.95,1.0,267.81,39.502,-121.512,7.6,-999.0,0.0,M<6,0.0,5.955,2.5,2.4,6.2,-999.0,-999.0,-999.0,-999.0,-999.0,-999.0,-999.0,-999.0,-999,1.0,-999,-999.0,8.6,11.48,7.38,-999.0,11.11,9.83,2.8,nu,20.99,0.48,8.1,-999.0,0.93,53.06,-999.0,-999.0,-999.0,-999.0,-999.0,-999.0,-999.0,-999.0,I,V,A,C,C,S,C,589.8,2a_3a_4b_4c,0.33,C,Qtv (tuff),-999,CDMG,39.425,-121.521,-999.0,-999,-999.0,-999,-999,Tertiary,-999,-999,-999,-999.0,-999.0,-999.0,-999.0,-999.0,-999.0,RSN115_AAD_D-DJR000.AT2,RSN115_AAD_D-DJR090.AT2,OROVILLE_D-DJRDWN.AT2,0.0,90.0,A,-999,PEA,A,1.0,2.5,1.0,1.0,40.0,40.0,1.25,1.25,1.25,1.25,0.1464,2.6038,0.05745
