,Record Sequence Number,EQID,Earthquake Name,YEAR,MODY,HRMN,Station Name,Station Sequence Number,Station ID  No.,Earthquake Magnitude,Magnitude Type,Magnitude Uncertainty: Kagan Model,Magnitude Uncertainty: Statistical,Magnitude Sample Size,Magnitude Uncertainty: Study Class,Mo (dyne.cm),Strike (deg),Dip (deg),Rake Angle (deg),Mechanism Based on Rake Angle,P-plunge (deg),P-trend (deg),T-plunge (deg),T-trend (deg),Hypocenter Latitude (deg),Hypocenter Longitude (deg),Hypocenter Depth (km),Coseismic Surface Rupture: 1=Yes; 0=No;    -999=Unknown,Coseismic Surface Rupture (Including Inferred),Basis for Inference of Surface Rupture,Finite Rupture Model: 1=Yes;  0=No,Depth to Top Of Fault Rupture Model,Fault Rupture Length for Calculation of Ry (km),Fault Rupture Width (km),Fault Rupture Area (km^2),Avg Fault Disp (cm),Rise Time (s),Avg Slip Velocity (cm/s),Static Stress Drop (bars),Preferred Rupture Velocity (km/s),Average Vr/Vs,Percent of Moment Release in the Top 5 Km of Crust,Existence of Shallow Asperity: 0=No; 1=Yes,Depth to Top of Shallowest Asperity (km),Earthquake in Extensional Regime: 1=Yes; 0=No,Fault Name,Slip Rate (mm/Yr),EpiD (km),HypD (km),Joyner-Boore Dist. (km),Campbell R Dist. (km),RmsD (km),ClstD (km),Rx,FW/HW Indicator,Source to Site Azimuth (deg),X,Theta.D (deg),SSGA (Strike Slip),Y,Phi.D (deg),SSGA (Dip Slip),s,d,ctildepr,D,Rfn.Hyp,Rfp.Hyp,T,GMX's C1,GMX's C2,GMX's C3,Campbell's GEOCODE,Bray and Rodriguez-Marek SGS,Depth,Preferred NEHRP Based on Vs30,Vs30 (m/s) selected for analysis,Measured/Inferred Class,Sigma of Vs30 (in natural log Units),NEHRP Classification from CGS's Site Condition Map,Geological Unit,Geology,Owner,Station Latitude,Station Longitude,STORIES,INSTLOC,Depth to Basement Rock,Site Visited,NGA Type,Age,Grain Size,Depositional History,Basin,h (m),hnorm (m),Rsbe (m),Rcebe (m),Rebe (m),Rsbe1 (m),File Name (Horizontal 1),File Name (Horizontal 2),File Name (Vertical),H1 azimth (degrees),H2 azimith (degrees),Type of Recording,Instrument Model,PEA Processing Flag,Type of Filter,npass,nroll,HP-H1 (Hz),HP-H2 (Hz),LP-H1 (Hz),LP-H2 (Hz),Factor,Lowest Usable Freq - H1 (Hz),Lowest Usable Freq - H2 (H2),Lowest Usable Freq - Ave. Component (Hz),PGA (g),PGV (cm/sec),PGD (cm)
115,116.0,39.0,Oroville-03,1975.0,808.0,700.0,Nelson Ranch (OR7),164.0,1496,4.7,Mw,0.1596,0.007,2.0,0.2,1.2589254117941756e+23,177.1,46.0,-91.0,1.0,88.77,51.95,1.0,267.81,39.502,-121.512,7.6,-999.0,0.0,M<6,0.0,5.955,2.5,2.4,6.2,-999.0,-999.0,-999.0,-999.0,-999.0,-999.0,-999.0,-999.0,-999,1.0,-999,-999.0,1.99,7.86,0.77,-999.0,7.17,6.19,1.52,nu,63.14,0.48,2.01,-999.0,0.93,43.47,-999.0,-999.0,-999.0,-999.0,-999.0,-999.0,-999.0,-999.0,A,Q,B,C,C,S,C,514.91,2a_3a_4b_4c,0.33,C,Qtv (tuff),-999,CDMG,39.4842,-121.51,1.0,GROUND LEVEL,-999.0,-999,-999,-999,-999,-999,-999,-999.0,-999.0,-999.0,-999.0,-999.0,-999.0,RSN116_AAD_D-OR7180.AT2,RSN116_AAD_D-OR7270.AT2,OROVILLE_D-OR7DWN.AT2,180.0,270.0,A,-999,PEA,A,1.0,2.5,0.8,1.0,40.0,50.0,1.25,1.0,1.25,1.25,0.090068,1.2737,0.051283
116,117.0,39.0,Oroville-03,1975.0,808.0,700.0,Oroville Airport,168.0,1545,4.7,Mw,0.1596,0.007,2.0,0.2,1.2589254117941756e+23,177.1,46.0,-91.0,1.0,88.77,51.95,1.0,267.81,39.502,-121.512,7.6,-999.0,0.0,M<6,0.0,5.955,2.5,2.4,6.2,-999.0,-999.0,-999.0,-999.0,-999.0,-999.0,-999.0,-999.0,-999,1.0,-999,-999.0,8.78,11.62,8.67,-999.0,11.76,11.61,10.37,hw,90.0,0.08,88.62,0.0,0.07,86.88,0.0,-999.0,-999.0,-999.0,-999.0,-999.0,-999.0,-999.0,A,Q,D,B,D,S,C,391.76,2a_3a_4b_4c,0.33,C,Qtv (tuff),-999,CIT,39.496,-121.614,1.0,GROUND LEVEL,-999.0,-999,-999,Pleistocene,-999,-999,-999,-999.0,-999.0,-999.0,-999.0,-999.0,-999.0,RSN117_AAD_D-OAP180.AT2,RSN117_AAD_D-OAP270.AT2,OROVILLE_D-OAPDWN.AT2,180.0,270.0,A,-999,PEA,A,1.0,2.5,0.5,0.3,40.0,30.0,1.25,0.625,0.375,0.625,0.069445,2.3387,0.25408
117,118.0,39.0,Oroville-03,1975.0,808.0,700.0,Pacific Heights Rd (OR4),170.0,1549,4.7,Mw,0.1596,0.007,2.0,0.2,1.2589254117941756e+23,177.1,46.0,-91.0,1.0,88.77,51.95,1.0,267.81,39.502,-121.512,7.6,-999.0,0.0,M<6,0.0,5.955,2.5,2.4,6.2,-999.0,-999.0,-999.0,-999.0,-999.0,-999.0,-999.0,-999.0,-999,1.0,-999,-999.0,9.36,12.05,8.7,-999.0,12.16,11.63,9.66,hw,70.03,0.48,59.64,0.24,0.06,89.27,0.0,-999.0,-999.0,-999.0,-999.0,-999.0,-999.0,-999.0,A,H,D,B,D,D,D,352.22,2a_3a_4b_4c,0.25,C,"Qal, coarse",-999,CDMG,39.4558,-121.603,1.0,GROUND LEVEL,-999.0,-999,-999,Pleistocene,-999,-999,-999,-999.0,-999.0,-999.0,-999.0,-999.0,-999.0,RSN118_AAD_D-OR4235.AT2,RSN118_AAD_D-OR4325.AT2,OROVILLE_D-OR4DWN.AT2,235.0,325.0,A,-999,PEA,A,1.0,2.5,0.5,0.5,40.0,40.0,1.25,0.625,0.625,0.625,0.060385,2.9751,0.24938
118,119.0,39.0,Oroville-03,1975.0,808.0,700.0,Summit Ave (OR6),172.0,1551,4.7,Mw,0.1596,0.007,2.0,0.2,1.2589254117941756e+23,177.1,46.0,-91.0,1.0,88.77,51.95,1.0,267.81,39.502,-121.512,7.6,-999.0,0.0,M<6,0.0,5.955,2.5,2.4,6.2,-999.0,-999.0,-999.0,-999.0,-999.0,-999.0,-999.0,-999.0,-999,1.0,-999,-999.0,6.21,9.82,4.79,-999.0,9.13,7.64,0.0,nu,0.05,0.48,14.77,-999.0,0.93,32.23,-999.0,-999.0,-999.0,-999.0,-999.0,-999.0,-999.0,-999.0,A,E,A,D,B,S,C,548.76,2a_3a_4b_4c,0.33,B,Tss,-999,CDMG,39.4488,-121.49,1.0,GROUND LEVEL,0.0,-999,-999,Tertiary,-999,-999,-999,-999.0,-999.0,-999.0,-999.0,-999.0,-999.0,RSN119_AAD_D-OR6035.AT2,RSN119_AAD_D-OR6125.AT2,OROVILLE_D-OR6DWN.AT2,35.0,125.0,A,-999,PEA,A,1.0,2.5,0.5,1.0,33.0,40.0,1.25,0.625,1.25,1.25,0.097019,1.8169,0.060591
119,120.0,39.0,Oroville-03,1975.0,808.0,700.0,Up & Down Cafe (OR1),169.0,1546,4.7,Mw,0.1596,0.007,2.0,0.2,1.2589254117941756e+23,177.1,46.0,-91.0,1.0,88.77,51.95,1.0,267.81,39.502,-121.512,7.6,-999.0,0.0,M<6,0.0,5.955,2.5,2.4,6.2,-999.0,-999.0,-999.0,-999.0,-999.0,-999.0,-999.0,-999.0,-999,1.0,-999,-999.0,11.06,13.42,10.2,-999.0,13.52,12.79,9.88,nu,58.33,0.48,48.59,-999.0,0.07,88.5,-999.0,-999.0,-999.0,-999.0,-999.0,-999.0,-999.0,-999.0,A,Q,D,A,D,S,C,377.25,2a_3a_4b_4c,0.33,D,Qtv (tuff),-999,CDMG,39.4325,-121.604,1.0,GROUND LEVEL,-999.0,-999,-999,-999,-999,-999,-999,-999.0,-999.0,-999.0,-999.0,-999.0,-999.0,RSN120_AAD_D-OR1000.AT2,RSN120_AAD_D-OR1090.AT2,OROVILLE_D-OR1DWN.AT2,0.0,90.0,A,-999,PEA,A,1.0,2.5,0.4,0.4,40.0,40.0,1.25,0.5,0.5,0.5,0.1094,3.3334,0.47053
120,121.0,40.0,"Friuli, Italy-01",1976.0,506.0,2000.0,Barcis,250.0,8002,6.5,Mw,0.144,0.006,3.0,0.2,6.309573444801992e+25,251.8,11.8,80.0,2.0,33.35,170.25,56.57,354.68,46.345,13.24,5.1,-999.0,0.0,-999,1.0,2.3,13.0,13.7,178.0,99.01408330930249,-999.0,-999.0,64.72511979866397,-999.0,-999.0,-999.0,-999.0,-999,0.0,-999,-999.0,55.62,55.86,49.13,-999.0,55.92,49.38,13.43,nu,15.29,0.5,0.02,-999.0,0.07,78.47,-999.0,6.5,-999.0,3.7713,6.58,-0.0473,-0.2026,13.433725,A,-999,B,C,C,-999,C,496.46,3b_4b_4c,0.37,C,-999,-999,-999,46.187,12.554,-999.0,-999,-999.0,-999,-999,-999,-999,-999,-999,-999.0,-999.0,-999.0,-999.0,-999.0,-999.0,RSN121_AAD_A-BCS000.AT2,RSN121_AAD_A-BCS270.AT2,FRIULI.A_A-BCS-UP.AT2,0.0,270.0,A,-999,PEA,A,1.0,2.5,0.12,0.1,30.0,30.0,1.25,0.15,0.125,0.15,0.029492,1.8512,0.97182
121,122.0,40.0,"Friuli, Italy-01",1976.0,506.0,2000.0,Codroipo,251.0,8004,6.5,Mw,0.144,0.006,3.0,0.2,6.309573444801992e+25,251.8,11.8,80.0,2.0,33.35,170.25,56.57,354.68,46.345,13.24,5.1,-999.0,0.0,-999,1.0,2.3,13.0,13.7,178.0,99.01408330930249,-999.0,-999.0,64.72511979866397,-999.0,-999.0,-999.0,-999.0,-999,0.0,-999,-999.0,47.27,47.54,33.32,-999.0,42.42,33.4,-21.18,nu,-39.47,0.5,47.03,-999.0,1.0,3.41,-999.0,6.5,-999.0,3.1548,15.16,0.7005,-0.4608,-21.177017,A,-999,D,A,D,-999,D,249.28,3b_4b_4c,0.37,D,-999,-999,-999,45.959,12.984,-999.0,-999,-999.0,-999,-999,-999,-999,-999,-999,-999.0,-999.0,-999.0,-999.0,-999.0,-999.0,RSN122_AAD_A-COD000.AT2,RSN122_AAD_A-COD270.AT2,FRIULI.A_A-COD-UP.AT2,0.0,270.0,A,-999,PEA,A,1.0,2.5,0.1,0.1,25.0,25.0,1.25,0.125,0.125,0.125,0.069294,9.3769,3.7287
122,123.0,40.0,"Friuli, Italy-01",1976.0,506.0,2000.0,Conegliano,252.0,8005,6.5,Mw,0.144,0.006,3.0,0.2,6.309573444801992e+25,251.8,11.8,80.0,2.0,33.35,170.25,56.57,354.68,46.345,13.24,5.1,-999.0,0.0,-999,1.0,2.3,13.0,13.7,178.0,99.01408330930249,-999.0,-999.0,64.72511979866397,-999.0,-999.0,-999.0,-999.0,-999,0.0,-999,-999.0,89.64,89.79,80.37,-999.0,87.91,80.41,-11.97,nu,-8.57,0.5,16.45,-999.0,1.0,0.44,-999.0,6.5,-999.0,1.5843,15.16,0.2114,-0.3975,-11.972335,A,-999,D,A,D,-999,D,352.05,3b_4b_4c,0.37,D,-999,-999,-999,45.883,12.288,-999.0,-999,-999.0,-999,-999,-999,-999,-999,-999,-999.0,-999.0,-999.0,-999.0,-999.0,-999.0,RSN123_AAD_A-CLV000.AT2,RSN123_AAD_A-CLV270.AT2,FRIULI.A_A-CLV-UP.AT2,0.0,270.0,A,-999,PEA,A,1.0,2.5,0.4,0.33,20.0,20.0,1.25,0.5,0.4125,0.5,0.058179,3.662,0.60399
123,124.0,40.0,"Friuli, Italy-01",1976.0,506.0,2000.0,Feltre,253.0,8007,6.5,Mw,0.144,0.006,3.0,0.2,6.309573444801992e+25,251.8,11.8,80.0,2.0,33.35,170.25,56.57,354.68,46.345,13.24,5.1,-999.0,0.0,-999,1.0,2.3,13.0,13.7,178.0,99.01408330930249,-999.0,-999.0,64.72511979866397,-999.0,-999.0,-999.0,-999.0,-999,0.0,-999,-999.0,108.56,108.68,102.05,-999.0,108.61,102.15,11.82,nu,6.61,0.5,0.84,-999.0,0.19,60.88,-999.0,6.5,-999.0,3.1445,7.0,0.0019,-0.2009,11.818878,B,-999,D,A,B,-999,D,356.39,3b_4b_4c,0.37,D,-999,-999,-999,46.019,11.912,-999.0,-999,-999.0,-999,-999,-999,-999,-999,-999,-999.0,-999.0,-999.0,-999.0,-999.0,-999.0,RSN124_AAD_A-FLT000.AT2,RSN124_AAD_A-FLT270.AT2,FRIULI.A_A-FLT-UP.AT2,0.0,270.0,A,-999,PEA,A,1.0,2.5,0.9,0.7,30.0,30.0,1.25,1.125,0.875,1.125,0.035653,1.237,0.097091
124,125.0,40.0,"Friuli, Italy-01",1976.0,506.0,2000.0,Tolmezzo,254.0,8012,6.5,Mw,0.144,0.006,3.0,0.2,6.309573444801992e+25,251.8,11.8,80.0,2.0,33.35,170.25,56.57,354.68,46.345,13.24,5.1,-999.0,0.0,-999,1.0,2.3,13.0,13.7,178.0,99.01408330930249,-999.0,-999.0,64.72511979866397,-999.0,-999.0,-999.0,-999.0,-999,0.0,-999,-999.0,20.24,20.87,14.97,-999.0,24.04,15.82,23.54,nu,64.91,0.5,30.04,-999.0,0.0,38.53,-999.0,6.5,-999.0,2.1158,6.5,-0.2324,0.3176,23.538096,A,-999,B,C,C,-999,C,505.23,3b_4b_4c,0.37,C,-999,-999,-999,46.382,12.982,-999.0,-999,-999.0,-999,-999,-999,-999,-999,-999,-999.0,-999.0,-999.0,-999.0,-999.0,-999.0,RSN125_AAD_A-TMZ000.AT2,RSN125_AAD_A-TMZ270.AT2,FRIULI.A_A-TMZ-UP.AT2,0.0,270.0,A,-999,PEA,A,1.0,2.5,0.11,0.13,30.0,30.0,1.25,0.1375,0.1625,0.1625,0.32489,24.783,5.0207
125,126.0,41.0,"Gazli, USSR",1976.0,517.0,-999.0,Karakyr,260.0,9201,6.8,Mw,0.144,0.058,7.0,0.1,1.7782794100389316e+26,267.0,58.0,90.0,2.0,13.0,357.0,77.0,177.0,40.465,63.462,18.2,0.0,0.0,-999,1.0,3.8,22.5,17.0,382.6,129.8290883924845,2.2,59.013221996583866,57.88758315500647,2.375,0.6870548806032677,-999.0,-999.0,-999,0.0,-999,-999.0,12.81,22.26,3.92,-999.0,13.03,5.46,-3.92,fw,-90.0,0.0,89.96,0.0,1.0,3.15,0.99,0.01,-999.0,3.8841,16.93,0.994,0.0001,-3.9199916,A,-999,C,A,B,-999,D,259.59,3b_4b_4c,0.37,D,-999,-999,-999,40.35,63.47,1.0,GROUND LEVEL,1.4,-999,-999,-999,-999,-999,-999,-999.0,-999.0,-999.0,-999.0,-999.0,-999.0,RSN126_AAD_GAZ000.AT2,RSN126_AAD_GAZ090.AT2,GAZLI_GAZ-UP.AT2,0.0,90.0,A,-999,PEA,A,1.0,2.5,0.13,0.2,38.0,38.0,1.25,0.1625,0.25,0.25,0.70178,64.769,24.08
126,127.0,42.0,"Fruili, Italy-03",1976.0,911.0,1631.0,Buia,257.0,8023,5.5,Mw,0.144,-999.0,-999.0,0.2,1.9952623149688984e+24,233.0,16.0,75.0,2.0,29.44,155.13,60.22,344.63,46.3,13.23,6.0,-999.0,0.0,M<6,0.0,5.06,4.0,7.3,29.6,-999.0,-999.0,-999.0,-999.0,-999.0,-999.0,-999.0,-999.0,-999,0.0,-999,-999.0,13.83,15.08,10.56,-999.0,14.02,11.98,2.85,nu,15.11,0.81,1.78,-999.0,0.28,69.91,-999.0,-999.0,-999.0,-999.0,-999.0,-999.0,-999.0,-999.0,A,-999,C,A,D,-999,D,310.68,3b_4b_4c,0.37,D,-999,-999,-999,46.222,13.09,-999.0,-999,-999.0,-999,-999,-999,-999,-999,-999,-999.0,-999.0,-999.0,-999.0,-999.0,-999.0,RSN127_AAD_BUI-NS.AT2,RSN127_AAD_BUI-WE.AT2,FRIULI_BUI-UP.AT2,0.0,270.0,A,-999,PEA,A,1.0,2.5,0.4,0.25,26.0,20.0,1.25,0.5,0.3125,0.5,0.045916,2.8466,0.26546
127,128.0,42.0,"Fruili, Italy-03",1976.0,911.0,1631.0,Forgaria Cornino,255.0,8014,5.5,Mw,0.144,-999.0,-999.0,0.2,1.9952623149688984e+24,233.0,16.0,75.0,2.0,29.44,155.13,60.22,344.63,46.3,13.23,6.0,-999.0,0.0,M<6,0.0,5.06,4.0,7.3,29.6,-999.0,-999.0,-999.0,-999.0,-999.0,-999.0,-999.0,-999.0,-999,0.0,-999,-999.0,19.97,20.85,16.33,-999.0,19.68,17.7,7.09,nu,23.46,0.81,11.0,-999.0,0.27,73.59,-999.0,-999.0,-999.0,-999.0,-999.0,-999.0,-999.0,-999.0,A,-999,B,C,D,-999,C,412.37,0,0.2,C,-999,-999,-999,46.221,12.997,-999.0,-999,-999.0,-999,-999,-999,-999,-999,-999,-999.0,-999.0,-999.0,-999.0,-999.0,-999.0,RSN128_AAD_FOC-NS.AT2,RSN128_AAD_FOC-WE.AT2,FRIULI_FOC-UP.AT2,0.0,270.0,A,-999,PEA,A,1.0,2.5,0.3,0.3,26.0,26.0,1.25,0.375,0.375,0.375,0.096891,3.7615,0.23006
128,129.0,42.0,"Fruili, Italy-03",1976.0,911.0,1631.0,San Rocco,256.0,8022,5.5,Mw,0.144,-999.0,-999.0,0.2,1.9952623149688984e+24,233.0,16.0,75.0,2.0,29.44,155.13,60.22,344.63,46.3,13.23,6.0,-999.0,0.0,M<6,0.0,5.06,4.0,7.3,29.6,-999.0,-999.0,-999.0,-999.0,-999.0,-999.0,-999.0,-999.0,-999,0.0,-999,-999.0,20.01,20.89,16.26,-999.0,19.72,17.68,7.72,nu,25.42,0.81,12.82,-999.0,0.36,69.51,-999.0,-999.0,-999.0,-999.0,-999.0,-999.0,-999.0,-999.0,A,-999,A,C,B,-999,C,649.67,3b_4b_4c,0.37,C,-999,-999,-999,46.226,12.993,-999.0,-999,-999.0,-999,-999,-999,-999,-999,-999,-999.0,-999.0,-999.0,-999.0,-999.0,-999.0,RSN129_AAD_SRO-NS.AT2,RSN129_AAD_SRO-WE.AT2,FRIULI_SRO-UP.AT2,0.0,270.0,A,-999,PEA,A,1.0,2.5,0.3,0.4,25.0,30.0,1.25,0.375,0.5,0.5,0.054682,1.705,0.12232
129,130.0,43.0,"Friuli, Italy-02",1976.0,915.0,315.0,Buia,257.0,8023,5.91,Mw,0.144,0.093,3.0,0.2,8.222426499470741e+24,215.1,18.9,70.0,2.0,26.98,140.85,62.16,336.28,46.375,13.067,3.69,-999.0,0.0,M<6,1.0,1.0,4.9,8.3,40.7,56.431626010395874,-999.0,-999.0,77.14561624393524,-999.0,-999.0,-999.0,-999.0,-999,0.0,-999,-999.0,17.12,17.51,10.99,-999.0,14.88,11.03,-3.4,nu,-18.03,0.5,41.03,-999.0,1.0,0.72,-999.0,2.46,-999.0,1.9977,8.64,0.7301,-0.5032,-3.4018213,A,-999,C,A,D,-999,D,310.68,3b_4b_4c,0.37,D,-999,-999,-999,46.222,13.09,-999.0,-999,-999.0,-999,-999,-999,-999,-999,-999,-999.0,-999.0,-999.0,-999.0,-999.0,-999.0,RSN130_AAD_B-BUI000.AT2,RSN130_AAD_B-BUI270.AT2,FRIULI.B_B-BUI-UP.AT2,0.0,270.0,A,-999,PEA,A,1.0,2.5,0.2,0.2,30.0,33.0,1.25,0.25,0.25,0.25,0.11053,11.371,2.156
130,131.0,43.0,"Friuli, Italy-02",1976.0,915.0,315.0,Codroipo,251.0,8004,5.91,Mw,0.144,0.093,3.0,0.2,8.222426499470741e+24,215.1,18.9,70.0,2.0,26.98,140.85,62.16,336.28,46.375,13.067,3.69,-999.0,0.0,M<6,1.0,1.0,4.9,8.3,40.7,56.431626010395874,-999.0,-999.0,77.14561624393524,-999.0,-999.0,-999.0,-999.0,-999,0.0,-999,-999.0,46.73,46.88,41.37,-999.0,45.1,41.39,-13.52,nu,-19.07,0.5,27.19,-999.0,1.0,9.1,-999.0,2.46,-999.0,1.6271,8.64,0.5401,-0.4882,-13.520267,A,-999,D,A,D,-999,D,249.28,3b_4b_4c,0.37,D,-999,-999,-999,45.959,12.984,-999.0,-999,-999.0,-999,-999,-999,-999,-999,-999,-999.0,-999.0,-999.0,-999.0,-999.0,-999.0,RSN131_AAD_B-COD000.AT2,RSN131_AAD_B-COD270.AT2,FRIULI.B_B-COD-UP.AT2,0.0,270.0,A,-999,PEA,A,1.0,2.5,0.2,0.2,28.0,25.0,1.25,0.25,0.25,0.25,0.024401,2.8458,1.1212
131,132.0,43.0,"Friuli, Italy-02",1976.0,915.0,315.0,Forgaria Cornino,255.0,8014,5.91,Mw,0.144,0.093,3.0,0.2,8.222426499470741e+24,215.1,18.9,70.0,2.0,26.98,140.85,62.16,336.28,46.375,13.067,3.69,-999.0,0.0,M<6,1.0,1.0,4.9,8.3,40.7,56.431626010395874,-999.0,-999.0,77.14561624393524,-999.0,-999.0,-999.0,-999.0,-999,0.0,-999,-999.0,17.96,18.34,14.65,-999.0,17.32,14.75,2.39,nu,9.28,0.5,17.63,-999.0,0.76,15.25,-999.0,2.46,-999.0,1.3823,6.8,0.3125,-0.5582,2.3942423,A,-999,B,C,D,-999,C,412.37,0,0.2,C,-999,-999,-999,46.221,12.997,-999.0,-999,-999.0,-999,-999,-999,-999,-999,-999,-999.0,-999.0,-999.0,-999.0,-999.0,-999.0,RSN132_AAD_B-FOC000.AT2,RSN132_AAD_B-FOC270.AT2,FRIULI.B_B-FOC-UP.AT2,0.0,270.0,A,-999,PEA,A,1.0,2.5,0.22,0.15,40.0,42.0,1.25,0.275,0.1875,0.275,0.22448,9.4961,1.4905
132,133.0,43.0,"Friuli, Italy-02",1976.0,915.0,315.0,San Rocco,256.0,8022,5.91,Mw,0.144,0.093,3.0,0.2,8.222426499470741e+24,215.1,18.9,70.0,2.0,26.98,140.85,62.16,336.28,46.375,13.067,3.69,-999.0,0.0,M<6,1.0,1.0,4.9,8.3,40.7,56.431626010395874,-999.0,-999.0,77.14561624393524,-999.0,-999.0,-999.0,-999.0,-999,0.0,-999,-999.0,17.53,17.91,14.37,-999.0,17.01,14.5,2.97,nu,11.66,0.5,16.12,-999.0,0.7,18.26,-999.0,2.46,-999.0,1.4113,6.3,0.2786,-0.5546,2.9657984,A,-999,A,C,B,-999,C,649.67,3b_4b_4c,0.37,C,-999,-999,-999,46.226,12.993,-999.0,-999,-999.0,-999,-999,-999,-999,-999,-999,-999.0,-999.0,-999.0,-999.0,-999.0,-999.0,RSN133_AAD_B-SRO000.AT2,RSN133_AAD_B-SRO270.AT2,FRIULI.B_B-SRO-UP.AT2,0.0,270.0,A,-999,PEA,A,1.0,2.5,0.23,0.13,32.0,33.0,1.25,0.2875,0.1625,0.2875,0.11489,6.5788,1.4014
133,134.0,44.0,"Izmir, Turkey",1977.0,1216.0,737.0,Izmir,833.0,-999,5.3,U,0.1284,-999.0,-999.0,0.2,1e+24,310.2,53.0,-90.0,1.0,82.0,220.2,8.0,40.2,38.41,27.19,5.0,-999.0,0.0,M<6,0.0,3.124,3.4,2.7,9.2,-999.0,-999.0,-999.0,-999.0,-999.0,-999.0,-999.0,-999.0,-999,1.0,-999,-999.0,2.29,5.5,0.74,-999.0,4.73,3.21,-0.73,fw,-82.99,0.21,69.21,0.08,0.87,13.79,0.85,-999.0,-999.0,-999.0,-999.0,-999.0,-999.0,-999.0,B,V,A,C,B,-999,C,535.24,3b_4b_4c,0.37,C,-999,-999,ERD,38.4,27.167,-999.0,-999,-999.0,-999,-999,-999,-999,-999,-999,-999.0,-999.0,-999.0,-999.0,-999.0,-999.0,RSN134_AAD_IZM--L.AT2,RSN134_AAD_IZM--T.AT2,IZMIR_IZM--V.AT2,-999.0,-999.0,A,-999,PEA,A,1.0,2.5,1.0,1.0,25.0,22.0,1.25,1.25,1.25,1.25,0.32346,9.0452,0.40431
134,135.0,45.0,Santa Barbara,1978.0,813.0,-999.0,Cachuma Dam Toe,70.0,106,5.92,Mw,0.11280000000000001,0.089,8.0,0.1,8.511380382023794e+24,295.0,30.0,57.0,3.0,18.41,228.95,65.35,92.44,34.3987,-119.6813,12.7,0.0,0.0,-999,1.0,11.6,10.0,5.0,50.0,47.54961107275862,0.9,52.83290119195402,58.64727798849002,2.3,0.7419354838709676,-999.0,-999.0,-999,0.0,North Channel Slope fault,2.0,34.02,36.32,23.75,-999.0,31.54,27.42,8.67,nu,20.37,1.0,11.45,-999.0,0.1,88.0,-999.0,10.0,-999.0,2.7667,10.01,-0.1714,-0.4744,8.668048,H,Q,B,C,B,S,C,465.51,2a_3a_4b_4c,0.4,C,QT,-999,USGS,34.58,-119.98,0.0,TOE,1.4,-999,-999,Miocene/Pleistocene ?,-999,-999,-999,-999.0,-999.0,-999.0,-999.0,-999.0,-999.0,RSN135_AAD_CAD250.AT2,RSN135_AAD_CAD340.AT2,SBARB_CAD-UP.AT2,250.0,340.0,A,-999,PEA,A,1.0,2.5,0.2,0.1,36.0,30.0,1.25,0.25,0.125,0.25,0.053503,4.6558,0.95389
135,136.0,45.0,Santa Barbara,1978.0,813.0,-999.0,Santa Barbara Courthouse,92.0,283,5.92,Mw,0.11280000000000001,0.089,8.0,0.1,8.511380382023794e+24,295.0,30.0,57.0,3.0,18.41,228.95,65.35,92.44,34.3987,-119.6813,12.7,0.0,0.0,-999,1.0,11.6,10.0,5.0,50.0,47.54961107275862,0.9,52.83290119195402,58.64727798849002,2.3,0.7419354838709676,-999.0,-999.0,-999,0.0,North Channel Slope fault,2.0,3.2,13.1,0.0,-999.0,13.44,12.16,3.64,hw,90.0,0.27,32.59,0.23,0.44,67.74,0.17,2.7,-999.0,1.02,3.49,-0.5473,0.335,3.639998,C,Q,D,B,D,S,C,514.99,1,0.3,C,Qoa,-999,USGS,34.423,-119.7,2.0,BASEMENT,8.5,-999,-999,Holocene,Aggregate,-999,-999,-999.0,-999.0,-999.0,-999.0,-999.0,-999.0,RSN136_AAD_SBA132.AT2,RSN136_AAD_SBA222.AT2,SBARB_SBA-UP.AT2,132.0,222.0,A,-999,PEA,A,1.0,2.5,0.1,0.13,26.0,30.0,1.25,0.125,0.1625,0.1625,0.14991,13.847,2.5372
136,137.0,46.0,"Tabas, Iran",1978.0,916.0,-999.0,Bajestan,56.0,69,7.35,Mw,0.11280000000000001,0.092,8.0,0.1,1.1885022274370235e+27,330.0,25.0,110.0,2.0,21.1,224.98,67.17,21.44,33.215,57.323,5.75,1.0,1.0,-999,1.0,1.0,90.0,35.0,3149.7,105.40508712616726,3.215,32.78540812633508,16.380221256952826,2.51,0.7968253968253969,37.0,1.0,1,0.0,-999,-999.0,164.43,164.53,119.77,-999.0,148.05,120.81,150.5,nu,84.17,0.78,58.55,-999.0,0.68,27.35,-999.0,70.42,-999.0,1.5114,74.31,0.4016,0.5459,150.49749,A,H,C,E,D,-999,C,377.56,3b_4b_4c,0.37,C,-999,-999,-999,34.51,58.18,1.0,GROUND LEVEL,-999.0,-999,-999,Holocene,Coarse,-999,-999,-999.0,-999.0,-999.0,-999.0,-999.0,-999.0,RSN137_AAD_BAJ-L1.AT2,RSN137_AAD_BAJ-T1.AT2,TABAS_BAJ-V1.AT2,-999.0,-999.0,A,-999,PEA,A,1.0,2.5,0.125,0.125,20.0,20.0,1.25,0.15625,0.15625,0.15625,0.069571,5.4453,4.7312
