,Record Sequence Number,EQID,Earthquake Name,YEAR,MODY,HRMN,Station Name,Station Sequence Number,Station ID  No.,Earthquake Magnitude,Magnitude Type,Magnitude Uncertainty: Kagan Model,Magnitude Uncertainty: Statistical,Magnitude Sample Size,Magnitude Uncertainty: Study Class,Mo (dyne.cm),Strike (deg),Dip (deg),Rake Angle (deg),Mechanism Based on Rake Angle,P-plunge (deg),P-trend (deg),T-plunge (deg),T-trend (deg),Hypocenter Latitude (deg),Hypocenter Longitude (deg),Hypocenter Depth (km),Coseismic Surface Rupture: 1=Yes; 0=No;    -999=Unknown,Coseismic Surface Rupture (Including Inferred),Basis for Inference of Surface Rupture,Finite Rupture Model: 1=Yes;  0=No,Depth to Top Of Fault Rupture Model,Fault Rupture Length for Calculation of Ry (km),Fault Rupture Width (km),Fault Rupture Area (km^2),Avg Fault Disp (cm),Rise Time (s),Avg Slip Velocity (cm/s),Static Stress Drop (bars),Preferred Rupture Velocity (km/s),Average Vr/Vs,Percent of Moment Release in the Top 5 Km of Crust,Existence of Shallow Asperity: 0=No; 1=Yes,Depth to Top of Shallowest Asperity (km),Earthquake in Extensional Regime: 1=Yes; 0=No,Fault Name,Slip Rate (mm/Yr),EpiD (km),HypD (km),Joyner-Boore Dist. (km),Campbell R Dist. (km),RmsD (km),ClstD (km),Rx,FW/HW Indicator,Source to Site Azimuth (deg),X,Theta.D (deg),SSGA (Strike Slip),Y,Phi.D (deg),SSGA (Dip Slip),s,d,ctildepr,D,Rfn.Hyp,Rfp.Hyp,T,GMX's C1,GMX's C2,GMX's C3,Campbell's GEOCODE,Bray and Rodriguez-Marek SGS,Depth,Preferred NEHRP Based on Vs30,Vs30 (m/s) selected for analysis,Measured/Inferred Class,Sigma of Vs30 (in natural log Units),NEHRP Classification from CGS's Site Condition Map,Geological Unit,Geology,Owner,Station Latitude,Station Longitude,STORIES,INSTLOC,Depth to Basement Rock,Site Visited,NGA Type,Age,Grain Size,Depositional History,Basin,h (m),hnorm (m),Rsbe (m),Rcebe (m),Rebe (m),Rsbe1 (m),File Name (Horizontal 1),File Name (Horizontal 2),File Name (Vertical),H1 azimth (degrees),H2 azimith (degrees),Type of Recording,Instrument Model,PEA Processing Flag,Type of Filter,npass,nroll,HP-H1 (Hz),HP-H2 (Hz),LP-H1 (Hz),LP-H2 (Hz),Factor,Lowest Usable Freq - H1 (Hz),Lowest Usable Freq - H2 (H2),Lowest Usable Freq - Ave. Component (Hz),PGA (g),PGV (cm/sec),PGD (cm)
137,138.0,46.0,"Tabas, Iran",1978.0,916.0,-999.0,Boshrooyeh,57.0,70,7.35,Mw,0.11280000000000001,0.092,8.0,0.1,1.1885022274370235e+27,330.0,25.0,110.0,2.0,21.1,224.98,67.17,21.44,33.215,57.323,5.75,1.0,1.0,-999,1.0,1.0,90.0,35.0,3149.7,105.40508712616726,3.215,32.78540812633508,16.380221256952826,2.51,0.7968253968253969,37.0,1.0,1,0.0,-999,-999.0,74.66,74.88,24.07,-999.0,50.7,28.79,55.79,hw,90.0,0.66,37.61,0.52,0.68,32.19,0.57,59.15,-999.0,1.8987,63.73,-0.0039,0.6602,55.787101,A,Q,C,A,D,-999,D,324.57,3b_4b_4c,0.37,D,-999,-999,-999,33.88,57.43,1.0,GROUND LEVEL,-999.0,-999,-999,Holocene,Coarse,-999,-999,-999.0,-999.0,-999.0,-999.0,-999.0,-999.0,RSN138_AAD_BOS-L1.AT2,RSN138_AAD_BOS-T1.AT2,TABAS_BOS-V1.AT2,79.0,349.0,A,-999,PEA,A,1.0,2.5,0.125,0.125,20.0,20.0,1.25,0.15625,0.15625,0.15625,0.10362,14.581,7.9205
138,139.0,46.0,"Tabas, Iran",1978.0,916.0,-999.0,Dayhook,259.0,9102,7.35,Mw,0.11280000000000001,0.092,8.0,0.1,1.1885022274370235e+27,330.0,25.0,110.0,2.0,21.1,224.98,67.17,21.44,33.215,57.323,5.75,1.0,1.0,-999,1.0,1.0,90.0,35.0,3149.7,105.40508712616726,3.215,32.78540812633508,16.380221256952826,2.51,0.7968253968253969,37.0,1.0,1,0.0,-999,-999.0,20.63,21.41,0.0,-999.0,27.48,13.94,30.83,hw,90.0,0.01,87.35,0.0,0.46,40.59,0.35,0.95,-999.0,1.2651,16.27,0.1233,-0.2673,30.83012,A,K,A,D,B,-999,C,471.53,3b_4b_4c,0.37,B,-999,-999,-999,33.3,57.52,1.0,GROUND LEVEL,0.0,-999,-999,-999,-999,-999,-999,-999.0,-999.0,-999.0,-999.0,-999.0,-999.0,RSN139_AAD_DAY-LN.AT2,RSN139_AAD_DAY-TR.AT2,TABAS_DAY-V1.AT2,280.0,190.0,A,-999,PEA,A,1.0,2.5,0.014,0.2,15.0,15.0,1.25,0.0175,0.25,0.25,0.33337,25.872,12.177
139,140.0,46.0,"Tabas, Iran",1978.0,916.0,-999.0,Ferdows,58.0,71,7.35,Mw,0.11280000000000001,0.092,8.0,0.1,1.1885022274370235e+27,330.0,25.0,110.0,2.0,21.1,224.98,67.17,21.44,33.215,57.323,5.75,1.0,1.0,-999,1.0,1.0,90.0,35.0,3149.7,105.40508712616726,3.215,32.78540812633508,16.380221256952826,2.51,0.7968253968253969,37.0,1.0,1,0.0,-999,-999.0,117.66,117.8,89.76,-999.0,108.7,91.14,121.48,nu,90.0,0.43,71.01,-999.0,0.68,27.96,-999.0,38.28,-999.0,1.5195,45.04,0.532,0.2917,121.4779,A,H,D,A,B,-999,D,302.64,3b_4b_4c,0.37,D,-999,-999,-999,34.01,58.16,1.0,GROUND LEVEL,-999.0,-999,-999,Holocene,Coarse,-999,-999,-999.0,-999.0,-999.0,-999.0,-999.0,-999.0,RSN140_AAD_FER-L1.AT2,RSN140_AAD_FER-T1.AT2,TABAS_FER-V1.AT2,160.0,70.0,A,-999,PEA,A,1.0,2.5,0.125,0.125,20.0,20.0,1.25,0.15625,0.15625,0.15625,0.10113,6.0766,3.3086
140,141.0,46.0,"Tabas, Iran",1978.0,916.0,-999.0,Kashmar,59.0,72,7.35,Mw,0.11280000000000001,0.092,8.0,0.1,1.1885022274370235e+27,330.0,25.0,110.0,2.0,21.1,224.98,67.17,21.44,33.215,57.323,5.75,1.0,1.0,-999,1.0,1.0,90.0,35.0,3149.7,105.40508712616726,3.215,32.78540812633508,16.380221256952826,2.51,0.7968253968253969,37.0,1.0,1,0.0,-999,-999.0,247.04,247.11,193.91,-999.0,228.14,194.55,211.34,nu,70.93,0.78,54.5,-999.0,0.68,26.64,-999.0,70.42,-999.0,1.8426,74.31,0.3494,0.6122,211.34223,A,H,D,A,D,-999,D,280.26,3b_4b_4c,0.37,D,-999,-999,-999,35.23,58.45,1.0,GROUND LEVEL,-999.0,-999,-999,Holocene,Coarse,-999,-999,-999.0,-999.0,-999.0,-999.0,-999.0,-999.0,RSN141_AAD_KSH-L1.AT2,RSN141_AAD_KSH-T1.AT2,TABAS_KSH-V1.AT2,298.0,208.0,A,-999,PEA,A,1.0,2.5,0.125,0.125,20.0,20.0,1.25,0.15625,0.15625,0.15625,0.036176,9.1299,4.5803
141,142.0,46.0,"Tabas, Iran",1978.0,916.0,-999.0,Sedeh,60.0,73,7.35,Mw,0.11280000000000001,0.092,8.0,0.1,1.1885022274370235e+27,330.0,25.0,110.0,2.0,21.1,224.98,67.17,21.44,33.215,57.323,5.75,1.0,1.0,-999,1.0,1.0,90.0,35.0,3149.7,105.40508712616726,3.215,32.78540812633508,16.380221256952826,2.51,0.7968253968253969,37.0,1.0,1,0.0,-999,-999.0,177.9,177.99,150.33,-999.0,184.98,151.16,170.99,nu,108.31,0.22,64.65,-999.0,0.68,27.05,-999.0,19.58,-999.0,2.648,30.76,0.1719,-0.51,170.9922,A,Q,B,E,C,-999,D,354.37,3b_4b_4c,0.37,C,-999,-999,-999,33.33,59.23,1.0,GROUND LEVEL,-999.0,-999,-999,Holocene,Coarse,-999,-999,-999.0,-999.0,-999.0,-999.0,-999.0,-999.0,RSN142_AAD_SED-L1.AT2,RSN142_AAD_SED-T1.AT2,TABAS_SED-V1.AT2,20.0,290.0,A,-999,PEA,A,1.0,2.5,0.125,0.125,20.0,20.0,1.25,0.15625,0.15625,0.15625,0.027049,3.8075,2.5566
142,143.0,46.0,"Tabas, Iran",1978.0,916.0,-999.0,Tabas,258.0,9101,7.35,Mw,0.11280000000000001,0.092,8.0,0.1,1.1885022274370235e+27,330.0,25.0,110.0,2.0,21.1,224.98,67.17,21.44,33.215,57.323,5.75,1.0,1.0,-999,1.0,1.0,90.0,35.0,3149.7,105.40508712616726,3.215,32.78540812633508,16.380221256952826,2.51,0.7968253968253969,37.0,1.0,1,0.0,-999,-999.0,55.24,55.54,1.79,-999.0,21.13,2.05,-1.79,fw,-90.0,0.6,12.56,0.58,0.32,0.58,0.32,53.92,-999.0,3.5852,55.08,-0.0661,0.0839,-1.7863034,A,-999,A,A,C,-999,B,766.77,1,0.4,C,-999,-999,-999,33.58,56.92,1.0,GROUND LEVEL,2.0,-999,-999,Holocene,Coarse,-999,-999,-999.0,-999.0,-999.0,-999.0,-999.0,-999.0,RSN143_AAD_TAB-LN.AT2,RSN143_AAD_TAB-TR.AT2,TABAS_TAB-V1.AT2,74.0,344.0,A,-999,PEA,A,1.0,2.5,0.1,0.08,15.0,15.0,1.25,0.125,0.1,0.125,0.81245,113.53,72.006
143,144.0,47.0,"Dursunbey, Turkey",1979.0,718.0,1312.0,Dursunbey,708.0,-999,5.34,Mw,0.09720000000000001,-999.0,-999.0,0.2,1.1481536214968962e+24,111.0,34.0,-85.0,1.0,78.56,182.9,11.09,17.4,39.66,28.65,7.0,-999.0,0.0,M<6,0.0,5.853,4.8,2.5,12.2,-999.0,-999.0,-999.0,-999.0,-999.0,-999.0,-999.0,-999.0,-999,1.0,-999,-999.0,5.96,9.19,5.57,-999.0,9.56,9.15,7.66,hw,90.0,0.0,89.95,0.0,0.19,83.58,0.02,-999.0,-999.0,-999.0,-999.0,-999.0,-999.0,-999.0,B,V,A,C,B,-999,C,585.04,3b_4b_4c,0.37,C,-999,-999,ERD,39.61,28.625,-999.0,-999,-999.0,-999,-999,-999,-999,-999,-999,-999.0,-999.0,-999.0,-999.0,-999.0,-999.0,RSN144_AAD_DUR--L.AT2,RSN144_AAD_DUR--T.AT2,DURSUN.BEY_DUR--V.AT2,-999.0,-999.0,A,-999,PEA,A,1.0,2.5,1.0,0.7,30.0,23.0,1.25,1.25,0.875,1.25,0.22954,8.8297,0.67099
144,145.0,48.0,Coyote Lake,1979.0,806.0,1705.0,Coyote Lake Dam - Southwest Abutment,449.0,57217,5.74,Mw,0.09720000000000001,0.065,10.0,0.1,4.570881896148778e+24,336.0,80.0,176.0,0.0,4.26,200.98,9.87,291.72,37.065,-121.49,8.0,1.0,1.0,-999,1.0,3.08,6.6,7.0,46.2,27.635988150552482,0.43,64.26973988500578,35.46009567724593,2.68,0.7746397694524496,17.0,0.0,5,0.0,Calaveras fault south,15.0,7.95,11.28,5.3,-999.0,10.45,6.13,-1.6,na,-17.54,0.38,18.07,0.36,0.71,7.13,0.71,2.5,-999.0,3.0393,5.59,-0.6064,0.0918,-1.597379,H,F,A,D,B,S,C,561.43,2a_3a_4b_4c,-999.0,B,Tv,-999,CDMG,37.118,-121.55,0.0,"S.W. ABUTMENT, INST. SHELTER A",0.0,-999,-999,Holocene,Coarse,Landslide,-999,-999.0,-999.0,-999.0,-999.0,-999.0,-999.0,RSN145_AAD_CYC160.AT2,RSN145_AAD_CYC250.AT2,COYOTELK_CYC-UP.AT2,160.0,250.0,A,-999,PEA,A,1.0,2.5,0.13,0.2,40.0,40.0,1.25,0.1625,0.25,0.25,0.22575,16.785,2.2149
146,147.0,48.0,Coyote Lake,1979.0,806.0,1705.0,Gilroy Array #2,425.0,47380,5.74,Mw,0.09720000000000001,0.065,10.0,0.1,4.570881896148778e+24,336.0,80.0,176.0,0.0,4.26,200.98,9.87,291.72,37.065,-121.49,8.0,1.0,1.0,-999,1.0,3.08,6.6,7.0,46.2,27.635988150552482,0.43,64.26973988500578,35.46009567724593,2.68,0.7746397694524496,17.0,0.0,5,0.0,Calaveras fault south,15.0,10.94,13.55,8.47,-999.0,12.11,9.02,-8.25,na,-103.31,0.62,56.42,0.34,0.71,38.73,0.56,4.1,-999.0,1.8246,6.46,0.2794,0.4164,-8.2466273,I,Q,D,A,D,D,D,270.84,0,0.1,D,"Qal, deep (incl LA)",-999,CDMG,36.982,-121.556,0.0,GROUND LEVEL,0.18,-999,-999,Holocene,Coarse,Alluvium,-999,-999.0,-999.0,-999.0,-999.0,-999.0,-999.0,RSN147_AAD_G02050.AT2,RSN147_AAD_G02140.AT2,COYOTELK_G02-UP.AT2,50.0,140.0,A,-999,PEA,A,1.0,2.5,0.13,0.13,40.0,43.0,1.25,0.1625,0.1625,0.1625,0.24761,24.335,4.3741
147,148.0,48.0,Coyote Lake,1979.0,806.0,1705.0,Gilroy Array #3,426.0,47381,5.74,Mw,0.09720000000000001,0.065,10.0,0.1,4.570881896148778e+24,336.0,80.0,176.0,0.0,4.26,200.98,9.87,291.72,37.065,-121.49,8.0,1.0,1.0,-999,1.0,3.08,6.6,7.0,46.2,27.635988150552482,0.43,64.26973988500578,35.46009567724593,2.68,0.7746397694524496,17.0,0.0,5,0.0,Calaveras fault south,15.0,9.59,12.49,6.75,-999.0,10.86,7.42,-6.4,na,-108.71,0.62,49.22,0.41,0.71,32.24,0.6,4.1,-999.0,2.1474,6.46,0.391,0.3243,-6.3963719,I,H,D,A,D,D,D,349.85,0,0.1,D,"Qal, deep (incl LA)",-999,CDMG,36.987,-121.536,0.0,GROUND LEVEL,1.1,-999,-999,Holocene,Fine,Alluvial Fan,-999,-999.0,-999.0,-999.0,-999.0,-999.0,-999.0,RSN148_AAD_G03050.AT2,RSN148_AAD_G03140.AT2,COYOTELK_G03-UP.AT2,50.0,140.0,A,-999,PEA,A,1.0,2.5,0.0,0.13,40.0,33.0,1.25,0.0,0.1625,0.1625,0.2469,23.918,5.2485
149,150.0,48.0,Coyote Lake,1979.0,806.0,1705.0,Gilroy Array #6,451.0,57383,5.74,Mw,0.09720000000000001,0.065,10.0,0.1,4.570881896148778e+24,336.0,80.0,176.0,0.0,4.26,200.98,9.87,291.72,37.065,-121.49,8.0,1.0,1.0,-999,1.0,3.08,6.6,7.0,46.2,27.635988150552482,0.43,64.26973988500578,35.46009567724593,2.68,0.7746397694524496,17.0,0.0,5,0.0,Calaveras fault south,15.0,4.37,9.12,0.42,-999.0,6.77,3.11,-0.41,na,-101.3,0.62,16.99,0.59,0.71,0.93,0.71,4.1,-999.0,3.1225,6.46,0.5194,0.0116,-0.40977743,I,K,A,C,C,S,C,663.31,1,0.3,C,Kss,-999,CDMG,37.026,-121.484,0.0,GROUND LEVEL,0.5,-999,-999,Tertiary,-999,-999,-999,-999.0,-999.0,-999.0,-999.0,-999.0,-999.0,RSN150_AAD_G06230.AT2,RSN150_AAD_G06320.AT2,COYOTELK_G06-UP.AT2,230.0,320.0,A,-999,PEA,A,1.0,2.5,0.07,0.1,33.0,33.0,1.25,0.0875,0.125,0.125,0.37961,36.21,8.8667
151,152.0,48.0,Coyote Lake,1979.0,806.0,1705.0,"SJB Overpass, Bent 3 g.l.",421.0,47315,5.74,Mw,0.09720000000000001,0.065,10.0,0.1,4.570881896148778e+24,336.0,80.0,176.0,0.0,4.26,200.98,9.87,291.72,37.065,-121.49,8.0,1.0,1.0,-999,1.0,3.08,6.6,7.0,46.2,27.635988150552482,0.43,64.26973988500578,35.46009567724593,2.68,0.7746397694524496,17.0,0.0,5,0.0,Calaveras fault south,15.0,23.91,25.21,20.44,-999.0,24.02,20.67,-15.47,na,-130.78,0.62,43.12,0.45,0.71,53.92,0.42,4.1,-999.0,1.8277,6.46,0.3447,0.1851,-15.473345,B,Q,D,D,D,S,C,367.43,2a_3a_4b_4c,0.33,B,Qoa,-999,CDMG,36.862,-121.578,1.0,BASE OF COLUMN,0.0,-999,-999,Pleistocene,-999,-999,-999,-999.0,-999.0,-999.0,-999.0,-999.0,-999.0,RSN152_AAD_SJ3067.AT2,RSN152_AAD_SJ3337.AT2,COYOTELK_SJ3-UP.AT2,67.0,337.0,A,-999,PEA,A,1.0,2.5,0.1,0.2,40.0,50.0,1.25,0.125,0.25,0.25,0.10906,6.7232,1.0405
152,153.0,48.0,Coyote Lake,1979.0,806.0,1705.0,San Juan Bautista - Hwy 101/156 Overpass,422.0,47315,5.74,Mw,0.09720000000000001,0.065,10.0,0.1,4.570881896148778e+24,336.0,80.0,176.0,0.0,4.26,200.98,9.87,291.72,37.065,-121.49,8.0,1.0,1.0,-999,1.0,3.08,6.6,7.0,46.2,27.635988150552482,0.43,64.26973988500578,35.46009567724593,2.68,0.7746397694524496,17.0,0.0,5,0.0,Calaveras fault south,15.0,23.91,25.21,20.44,-999.0,24.02,20.67,-15.47,na,-130.78,0.62,43.12,0.45,0.71,53.92,0.42,4.1,-999.0,1.8277,6.46,0.3447,0.1851,-15.473345,B,Q,D,D,D,S,C,362.98,2a_3a_4b_4c,-999.0,B,Qoa,-999,CDMG,36.8619,-121.578,1.0,BASE OF COLUMN,0.0,-999,-999,Pleistocene,-999,-999,-999,-999.0,-999.0,-999.0,-999.0,-999.0,-999.0,RSN153_AAD_SJ5067.AT2,RSN153_AAD_SJ5337.AT2,COYOTELK_SJ5-UP.AT2,67.0,337.0,A,-999,PEA,A,1.0,2.5,0.1,0.2,50.0,60.0,1.25,0.125,0.25,0.25,0.095657,6.5117,1.12
154,155.0,49.0,"Norcia, Italy",1979.0,919.0,2136.0,Bevagna,609.0,-999,5.9,Mw,0.09720000000000001,-999.0,-999.0,0.2,7.943282347242901e+24,315.0,64.0,-100.0,1.0,69.37,204.61,18.42,52.44,42.73,12.96,6.0,0.0,0.0,-999,0.0,1.277,14.9,7.1,106.5,-999.0,-999.0,-999.0,-999.0,-999.0,-999.0,-999.0,-999.0,-999,1.0,-999,-999.0,35.97,36.47,31.43,-999.0,38.58,31.45,-1.45,nu,-2.64,0.29,5.99,-999.0,0.74,6.01,-999.0,-999.0,-999.0,-999.0,-999.0,-999.0,-999.0,-999.0,A,H,A,C,B,-999,C,401.34,3b_4b_4c,0.37,C,-999,-999,ENEL,42.933,12.617,-999.0,-999,-999.0,-999,-999,-999,-999,-999,-999,-999.0,-999.0,-999.0,-999.0,-999.0,-999.0,RSN155_AAD_F-BEV-EW.AT2,RSN155_AAD_F-BEV-NS.AT2,ITALY_F-BEV-UP.AT2,0.0,90.0,A,-999,PEA,A,1.0,2.5,0.5,0.23,20.0,20.0,1.25,0.625,0.2875,0.625,0.027994,2.1178,0.51704
155,156.0,49.0,"Norcia, Italy",1979.0,919.0,2136.0,Cascia,624.0,-999,5.9,Mw,0.09720000000000001,-999.0,-999.0,0.2,7.943282347242901e+24,315.0,64.0,-100.0,1.0,69.37,204.61,18.42,52.44,42.73,12.96,6.0,0.0,0.0,-999,0.0,1.277,14.9,7.1,106.5,-999.0,-999.0,-999.0,-999.0,-999.0,-999.0,-999.0,-999.0,-999,1.0,-999,-999.0,4.29,7.37,1.41,-999.0,6.63,4.64,4.54,hw,90.0,0.25,31.52,0.21,0.62,46.48,0.43,-999.0,-999.0,-999.0,-999.0,-999.0,-999.0,-999.0,A,E,A,C,B,-999,C,585.04,3b_4b_4c,0.37,C,-999,-999,ENEL,42.721,13.011,-999.0,-999,-999.0,-999,-999,-999,-999,-999,-999,-999.0,-999.0,-999.0,-999.0,-999.0,-999.0,RSN156_AAD_F-CSC-EW.AT2,RSN156_AAD_F-CSC-NS.AT2,ITALY_F-CSC-UP.AT2,0.0,90.0,A,-999,PEA,A,1.0,2.5,0.33,0.2,35.0,33.0,1.25,0.4125,0.25,0.4125,0.1819,11.845,2.4689
156,157.0,49.0,"Norcia, Italy",1979.0,919.0,2136.0,Spoleto,933.0,-999,5.9,Mw,0.09720000000000001,-999.0,-999.0,0.2,7.943282347242901e+24,315.0,64.0,-100.0,1.0,69.37,204.61,18.42,52.44,42.73,12.96,6.0,0.0,0.0,-999,0.0,1.277,14.9,7.1,106.5,-999.0,-999.0,-999.0,-999.0,-999.0,-999.0,-999.0,-999.0,-999,1.0,-999,-999.0,17.91,18.88,13.21,-999.0,19.67,13.28,-10.03,nu,-49.36,0.29,43.51,-999.0,0.74,38.05,-999.0,-999.0,-999.0,-999.0,-999.0,-999.0,-999.0,-999.0,A,Q,A,C,B,-999,C,535.24,3b_4b_4c,0.37,C,-999,-999,ENEL,42.734,12.741,-999.0,-999,-999.0,-999,-999,-999,-999,-999,-999,-999.0,-999.0,-999.0,-999.0,-999.0,-999.0,RSN157_AAD_F-SPO-EW.AT2,RSN157_AAD_F-SPO-NS.AT2,ITALY_F-SPO-UP.AT2,0.0,90.0,A,-999,PEA,A,1.0,2.5,0.9,0.4,30.0,30.0,1.25,1.125,0.5,1.125,0.041957,1.9045,0.19327
157,158.0,50.0,Imperial Valley-06,1979.0,1015.0,2316.0,Aeropuerto Mexicali,243.0,6616,6.53,Mw,0.09720000000000001,0.063,10.0,0.1,6.998419960022747e+25,323.0,80.0,180.0,0.0,7.05,187.56,7.05,278.44,32.644,-115.307,9.96,1.0,1.0,-999,1.0,0.0,50.0,13.0,649.9,30.07948777690228,0.865,34.77397430855755,10.290419057971832,2.6975,0.8690680388793597,56.0,-999.0,-999,1.0,Imperial fault,20.0,2.47,10.26,0.0,-999.0,7.09,0.34,0.35,na,90.0,0.04,34.6,0.03,0.77,1.99,0.77,2.03,-999.0,3.5371,10.26,-0.1983,-0.0292,0.34676019,I,Q,D,A,D,-999,D,259.86,3b_4c,0.37,D,-999,-999,UNAMUCSD,32.651,-115.332,0.0,GROUND LEVEL,4.8,-999,-999,-999,-999,-999,-999,-999.0,-999.0,-999.0,-999.0,-999.0,-999.0,RSN158_AAD_H-AEP045.AT2,RSN158_AAD_H-AEP315.AT2,IMPVALL.H_H-AEP-UP.AT2,45.0,315.0,A,-999,PEA,A,1.0,2.5,0.15,0.23,40.0,40.0,1.25,0.1875,0.2875,0.2875,0.29094,34.949,7.6005
158,159.0,50.0,Imperial Valley-06,1979.0,1015.0,2316.0,Agrarias,245.0,6618,6.53,Mw,0.09720000000000001,0.063,10.0,0.1,6.998419960022747e+25,323.0,80.0,180.0,0.0,7.05,187.56,7.05,278.44,32.644,-115.307,9.96,1.0,1.0,-999,1.0,0.0,50.0,13.0,649.9,30.07948777690228,0.865,34.77397430855755,10.290419057971832,2.6975,0.8690680388793597,56.0,-999.0,-999,1.0,Imperial fault,20.0,2.62,10.3,0.0,-999.0,7.82,0.65,0.66,na,90.0,0.05,24.61,0.04,0.77,3.75,0.77,2.38,-999.0,3.2158,10.28,0.2316,-0.0554,0.65745141,I,Q,D,A,D,-999,D,242.05,3b_4b_4c,0.37,D,-999,-999,UNAMUCSD,32.621,-115.301,0.0,GROUND LEVEL,5.0,-999,-999,Holocene,Aggregate,-999,-999,-999.0,-999.0,-999.0,-999.0,-999.0,-999.0,RSN159_AAD_H-AGR003.AT2,RSN159_AAD_H-AGR273.AT2,IMPVALL.H_H-AGRDWN.AT2,3.0,273.0,D,-999,PEA,A,1.0,2.5,0.12,0.13,20.0,20.0,1.25,0.15,0.1625,0.1625,0.23865,38.371,10.532
159,160.0,50.0,Imperial Valley-06,1979.0,1015.0,2316.0,Bonds Corner,210.0,5054,6.53,Mw,0.09720000000000001,0.063,10.0,0.1,6.998419960022747e+25,323.0,80.0,180.0,0.0,7.05,187.56,7.05,278.44,32.644,-115.307,9.96,1.0,1.0,-999,1.0,0.0,50.0,13.0,649.9,30.07948777690228,0.865,34.77397430855755,10.290419057971832,2.6975,0.8690680388793597,56.0,-999.0,-999,1.0,Imperial fault,20.0,6.19,11.72,0.44,-999.0,9.96,2.66,2.7,na,90.0,0.12,8.81,0.12,0.74,15.44,0.72,6.12,-999.0,2.1931,11.42,-0.4993,-0.135,2.7006415,A,Q,D,A,D,D,D,223.03,0,0.1,D,"Qal, deep, Imperial V.",-999,USGS,32.6931,-115.3382,1.0,GROUND LEVEL,4.8,-999,-999,Holocene,Aggregate,Lacustrine,-999,-999.0,-999.0,-999.0,-999.0,-999.0,-999.0,RSN160_AAD_H-BCR140.AT2,RSN160_AAD_H-BCR230.AT2,IMPVALL.H_H-BCR-UP.AT2,140.0,230.0,A,-999,PEA,A,1.0,2.5,0.0,0.1,40.0,40.0,1.25,0.0,0.125,0.125,0.68661,49.562,17.975
160,161.0,50.0,Imperial Valley-06,1979.0,1015.0,2316.0,Brawley Airport,216.0,5060,6.53,Mw,0.09720000000000001,0.063,10.0,0.1,6.998419960022747e+25,323.0,80.0,180.0,0.0,7.05,187.56,7.05,278.44,32.644,-115.307,9.96,1.0,1.0,-999,1.0,0.0,50.0,13.0,649.9,30.07948777690228,0.865,34.77397430855755,10.290419057971832,2.6975,0.8690680388793597,56.0,-999.0,-999,1.0,Imperial fault,20.0,43.15,44.29,8.54,-999.0,23.49,10.42,9.64,na,65.97,0.76,10.54,0.75,0.65,48.39,0.43,38.13,-999.0,2.6126,39.05,-0.8594,0.237,9.641112,A,Q,D,A,D,D,D,208.71,0,0.1,D,"Qal, deep, Imperial V.",-999,USGS,32.991,-115.513,1.0,GROUND LEVEL,5.2,-999,-999,Holocene,Aggregate,Lacustrine,-999,-999.0,-999.0,-999.0,-999.0,-999.0,-999.0,RSN161_AAD_H-BRA225.AT2,RSN161_AAD_H-BRA315.AT2,IMPVALL.H_H-BRA-UP.AT2,225.0,315.0,A,-999,PEA,A,1.0,2.5,0.032,0.043,40.0,40.0,1.25,0.04,0.05375,0.05375,0.17591,37.405,21.823
161,162.0,50.0,Imperial Valley-06,1979.0,1015.0,2316.0,Calexico Fire Station,209.0,5053,6.53,Mw,0.09720000000000001,0.063,10.0,0.1,6.998419960022747e+25,323.0,80.0,180.0,0.0,7.05,187.56,7.05,278.44,32.644,-115.307,9.96,1.0,1.0,-999,1.0,0.0,50.0,13.0,649.9,30.07948777690228,0.865,34.77397430855755,10.290419057971832,2.6975,0.8690680388793597,56.0,-999.0,-999,1.0,Imperial fault,20.0,17.66,20.27,10.45,-999.0,17.41,10.45,-10.45,na,-90.0,0.26,43.7,0.18,0.78,40.77,0.59,12.76,-999.0,1.5459,16.28,-0.4064,0.2837,-10.449671,A,Q,D,A,D,D,D,231.23,0,0.1,D,"Qal, deep, Imperial V.",-999,USGS,32.6695,-115.493,1.0,GROUND LEVEL,5.0,-999,-999,Holocene,Fine,Lacustrine,-999,-999.0,-999.0,-999.0,-999.0,-999.0,-999.0,RSN162_IMPVALL.H_H-CXO225.AT2,RSN162_IMPVALL.H_H-CXO315.AT2,IMPVALL.H_H-CXO-UP.AT2,225.0,315.0,A,-999,PEA,A,1.0,2.5,0.04,0.033,40.0,40.0,1.25,0.05,0.04125,0.05,0.23764,21.309,13.931
