,Record Sequence Number,EQID,Earthquake Name,YEAR,MODY,HRMN,Station Name,Station Sequence Number,Station ID  No.,Earthquake Magnitude,Magnitude Type,Magnitude Uncertainty: Kagan Model,Magnitude Uncertainty: Statistical,Magnitude Sample Size,Magnitude Uncertainty: Study Class,Mo (dyne.cm),Strike (deg),Dip (deg),Rake Angle (deg),Mechanism Based on Rake Angle,P-plunge (deg),P-trend (deg),T-plunge (deg),T-trend (deg),Hypocenter Latitude (deg),Hypocenter Longitude (deg),Hypocenter Depth (km),Coseismic Surface Rupture: 1=Yes; 0=No;    -999=Unknown,Coseismic Surface Rupture (Including Inferred),Basis for Inference of Surface Rupture,Finite Rupture Model: 1=Yes;  0=No,Depth to Top Of Fault Rupture Model,Fault Rupture Length for Calculation of Ry (km),Fault Rupture Width (km),Fault Rupture Area (km^2),Avg Fault Disp (cm),Rise Time (s),Avg Slip Velocity (cm/s),Static Stress Drop (bars),Preferred Rupture Velocity (km/s),Average Vr/Vs,Percent of Moment Release in the Top 5 Km of Crust,Existence of Shallow Asperity: 0=No; 1=Yes,Depth to Top of Shallowest Asperity (km),Earthquake in Extensional Regime: 1=Yes; 0=No,Fault Name,Slip Rate (mm/Yr),EpiD (km),HypD (km),Joyner-Boore Dist. (km),Campbell R Dist. (km),RmsD (km),ClstD (km),Rx,FW/HW Indicator,Source to Site Azimuth (deg),X,Theta.D (deg),SSGA (Strike Slip),Y,Phi.D (deg),SSGA (Dip Slip),s,d,ctildepr,D,Rfn.Hyp,Rfp.Hyp,T,GMX's C1,GMX's C2,GMX's C3,Campbell's GEOCODE,Bray and Rodriguez-Marek SGS,Depth,Preferred NEHRP Based on Vs30,Vs30 (m/s) selected for analysis,Measured/Inferred Class,Sigma of Vs30 (in natural log Units),NEHRP Classification from CGS's Site Condition Map,Geological Unit,Geology,Owner,Station Latitude,Station Longitude,STORIES,INSTLOC,Depth to Basement Rock,Site Visited,NGA Type,Age,Grain Size,Depositional History,Basin,h (m),hnorm (m),Rsbe (m),Rcebe (m),Rebe (m),Rsbe1 (m),File Name (Horizontal 1),File Name (Horizontal 2),File Name (Vertical),H1 azimth (degrees),H2 azimith (degrees),Type of Recording,Instrument Model,PEA Processing Flag,Type of Filter,npass,nroll,HP-H1 (Hz),HP-H2 (Hz),LP-H1 (Hz),LP-H2 (Hz),Factor,Lowest Usable Freq - H1 (Hz),Lowest Usable Freq - H2 (H2),Lowest Usable Freq - Ave. Component (Hz),PGA (g),PGV (cm/sec),PGD (cm)
184,185.0,50.0,Imperial Valley-06,1979.0,1015.0,2316.0,Holtville Post Office,211.0,5055,6.53,Mw,0.09720000000000001,0.063,10.0,0.1,6.998419960022747e+25,323.0,80.0,180.0,0.0,7.05,187.56,7.05,278.44,32.644,-115.307,9.96,1.0,1.0,-999,1.0,0.0,50.0,13.0,649.9,30.07948777690228,0.865,34.77397430855755,10.290419057971832,2.6975,0.8690680388793597,56.0,-999.0,-999,1.0,Imperial fault,20.0,19.8,22.16,5.35,-999.0,13.89,7.5,7.61,na,90.0,0.38,17.23,0.36,0.68,40.48,0.51,18.91,-999.0,1.8291,20.85,-0.7077,0.0888,7.6124046,A,Q,D,A,D,D,D,202.89,0,0.1,D,"Qal, deep, Imperial V.",-999,USGS,32.8114,-115.3786,1.0,GROUND LEVEL,5.3,-999,-999,Holocene,Aggregate,Lacustrine,-999,-999.0,-999.0,-999.0,-999.0,-999.0,-999.0,RSN185_AAD_H-HVP225.AT2,RSN185_AAD_H-HVP315.AT2,IMPVALL.H_H-HVP-UP.AT2,225.0,315.0,A,-999,PEA,A,1.0,2.5,0.05,0.06,40.0,40.0,1.25,0.0625,0.075,0.075,0.2378,52.292,37.919
185,186.0,50.0,Imperial Valley-06,1979.0,1015.0,2316.0,Niland Fire Station,263.0,11023,6.53,Mw,0.09720000000000001,0.063,10.0,0.1,6.998419960022747e+25,323.0,80.0,180.0,0.0,7.05,187.56,7.05,278.44,32.644,-115.307,9.96,1.0,1.0,-999,1.0,0.0,50.0,13.0,649.9,30.07948777690228,0.865,34.77397430855755,10.290419057971832,2.6975,0.8690680388793597,56.0,-999.0,-999,1.0,Imperial fault,20.0,68.92,69.64,35.64,-999.0,53.81,36.92,26.37,na,45.13,0.76,20.93,0.71,0.43,77.97,0.09,38.13,-999.0,2.495,38.53,-0.6475,0.3146,26.365938,A,Q,D,A,D,D,D,212.0,0,0.25,D,"Qal, deep, Imperial V.",-999,CDMG,33.239,-115.512,1.0,GROUND LEVEL,2.2,-999,-999,Holocene,Aggregate,-999,-999,-999.0,-999.0,-999.0,-999.0,-999.0,-999.0,RSN186_IMPVALL.H_H-NIL090.AT2,RSN186_IMPVALL.H_H-NIL360.AT2,IMPVALL.H_H-NIL-UP.AT2,90.0,0.0,A,-999,PEA,A,1.0,2.5,0.06,0.06,23.0,38.0,1.25,0.075,0.075,0.075,0.087609,9.7627,6.8699
186,187.0,50.0,Imperial Valley-06,1979.0,1015.0,2316.0,Parachute Test Site,207.0,5051,6.53,Mw,0.09720000000000001,0.063,10.0,0.1,6.998419960022747e+25,323.0,80.0,180.0,0.0,7.05,187.56,7.05,278.44,32.644,-115.307,9.96,1.0,1.0,-999,1.0,0.0,50.0,13.0,649.9,30.07948777690228,0.865,34.77397430855755,10.290419057971832,2.6975,0.8690680388793597,56.0,-999.0,-999,1.0,Imperial fault,20.0,48.62,49.63,12.69,-999.0,28.97,12.69,-8.52,na,-42.16,0.76,12.19,0.75,0.78,35.86,0.63,38.13,-999.0,3.1921,39.44,-0.916,0.0436,-8.5151009,A,Q,D,A,D,D,D,348.69,0,0.1,D,"Qal, coarse",-999,USGS,32.929,-115.701,1.0,GROUND LEVEL,4.8,-999,-999,Holocene,Aggregate,Alluvium,-999,-999.0,-999.0,-999.0,-999.0,-999.0,-999.0,RSN187_IMPVALL.H_H-PTS225.AT2,RSN187_IMPVALL.H_H-PTS315.AT2,IMPVALL.H_H-PTS-UP.AT2,225.0,315.0,A,-999,PEA,A,1.0,2.5,0.05,0.04,40.0,40.0,1.25,0.0625,0.05,0.0625,0.16742,19.797,12.52
187,188.0,50.0,Imperial Valley-06,1979.0,1015.0,2316.0,Plaster City,208.0,5052,6.53,Mw,0.09720000000000001,0.063,10.0,0.1,6.998419960022747e+25,323.0,80.0,180.0,0.0,7.05,187.56,7.05,278.44,32.644,-115.307,9.96,1.0,1.0,-999,1.0,0.0,50.0,13.0,649.9,30.07948777690228,0.865,34.77397430855755,10.290419057971832,2.6975,0.8690680388793597,56.0,-999.0,-999,1.0,Imperial fault,20.0,54.26,55.17,30.33,-999.0,42.71,30.33,-29.71,na,-78.42,0.76,35.43,0.62,0.78,62.43,0.36,38.13,-999.0,1.6125,39.44,-0.446,0.0478,-29.708484,A,Q,D,A,D,D,D,316.64,2a_3a_4b_4c,0.25,D,"Qal, coarse",-999,USGS,32.79,-115.86,1.0,GROUND LEVEL,0.8,-999,-999,Holocene,Aggregate,Alluvium,-999,-999.0,-999.0,-999.0,-999.0,-999.0,-999.0,RSN188_IMPVALL.H_H-PLS045.AT2,RSN188_IMPVALL.H_H-PLS135.AT2,IMPVALL.H_H-PLS-UP.AT2,45.0,135.0,A,-999,PEA,A,1.0,2.5,0.12,0.1,40.0,40.0,1.25,0.15,0.125,0.15,0.050964,4.6935,1.8795
188,189.0,50.0,Imperial Valley-06,1979.0,1015.0,2316.0,SAHOP Casa Flores,246.0,6619,6.53,Mw,0.09720000000000001,0.063,10.0,0.1,6.998419960022747e+25,323.0,80.0,180.0,0.0,7.05,187.56,7.05,278.44,32.644,-115.307,9.96,1.0,1.0,-999,1.0,0.0,50.0,13.0,649.9,30.07948777690228,0.865,34.77397430855755,10.290419057971832,2.6975,0.8690680388793597,56.0,-999.0,-999,1.0,Imperial fault,20.0,12.43,15.93,9.64,-999.0,17.01,9.64,-9.64,na,-90.0,0.1,66.43,0.04,0.78,38.84,0.61,4.97,-999.0,1.4444,11.27,-0.1675,0.5348,-9.6444172,A,Q,C,A,D,-999,D,259.59,3b_4b_4c,0.37,D,-999,-999,UNAMUCSD,32.618,-115.436,1.0,GROUND LEVEL,5.5,-999,-999,-999,-999,-999,-999,-999.0,-999.0,-999.0,-999.0,-999.0,-999.0,RSN189_AAD_H-SHP000.AT2,RSN189_AAD_H-SHP270.AT2,IMPVALL.H_H-SHP-UP.AT2,0.0,270.0,A,-999,PEA,A,1.0,2.5,0.25,0.05,30.0,30.0,1.25,0.3125,0.0625,0.3125,-999.0,-999.0,-999.0
189,190.0,50.0,Imperial Valley-06,1979.0,1015.0,2316.0,Superstition Mtn Camera,94.0,286,6.53,Mw,0.09720000000000001,0.063,10.0,0.1,6.998419960022747e+25,323.0,80.0,180.0,0.0,7.05,187.56,7.05,278.44,32.644,-115.307,9.96,1.0,1.0,-999,1.0,0.0,50.0,13.0,649.9,30.07948777690228,0.865,34.77397430855755,10.290419057971832,2.6975,0.8690680388793597,56.0,-999.0,-999,1.0,Imperial fault,20.0,59.54,60.37,24.61,-999.0,42.33,24.61,-15.98,na,-40.5,0.76,17.32,0.73,0.78,50.68,0.49,38.13,-999.0,2.9118,39.44,-0.8447,-0.0039,-15.982202,A,G,B,D,B,S,C,362.38,0,0.2,B,Kgr,-999,USGS,32.955,-115.825,1.0,GROUND LEVEL,0.0,-999,-999,Mesozoic,-999,-999,-999,-999.0,-999.0,-999.0,-999.0,-999.0,-999.0,RSN190_AAD_H-SUP045.AT2,RSN190_AAD_H-SUP135.AT2,IMPVALL.H_H-SUP-UP.AT2,45.0,135.0,A,-999,PEA,A,1.0,2.5,0.1,0.1,40.0,40.0,1.25,0.125,0.125,0.125,0.16371,6.685,2.326
190,191.0,50.0,Imperial Valley-06,1979.0,1015.0,2316.0,Victoria,242.0,6610,6.53,Mw,0.09720000000000001,0.063,10.0,0.1,6.998419960022747e+25,323.0,80.0,180.0,0.0,7.05,187.56,7.05,278.44,32.644,-115.307,9.96,1.0,1.0,-999,1.0,0.0,50.0,13.0,649.9,30.07948777690228,0.865,34.77397430855755,10.290419057971832,2.6975,0.8690680388793597,56.0,-999.0,-999,1.0,Imperial fault,20.0,43.9,45.02,31.92,-999.0,51.81,31.92,-6.69,na,-167.91,0.24,11.08,0.23,0.78,30.26,0.67,11.87,-999.0,2.4385,15.6,0.9251,0.0572,-6.6867669,I,Q,D,A,D,-999,D,242.05,3b_4b_4c,0.37,D,-999,-999,UNAMUCSD,32.289,-115.103,0.0,GROUND LEVEL,7.0,-999,-999,Holocene,Aggregate,-999,-999,-999.0,-999.0,-999.0,-999.0,-999.0,-999.0,RSN191_IMPVALL.H_H-VCT075.AT2,RSN191_IMPVALL.H_H-VCT345.AT2,IMPVALL.H_H-VCT-UP.AT2,75.0,345.0,D,-999,PEA,A,1.0,2.5,0.08,0.09,50.0,50.0,1.25,0.1,0.1125,0.1125,0.13406,7.373,1.9459
191,192.0,50.0,Imperial Valley-06,1979.0,1015.0,2316.0,Westmorland Fire Sta,264.0,11369,6.53,Mw,0.09720000000000001,0.063,10.0,0.1,6.998419960022747e+25,323.0,80.0,180.0,0.0,7.05,187.56,7.05,278.44,32.644,-115.307,9.96,1.0,1.0,-999,1.0,0.0,50.0,13.0,649.9,30.07948777690228,0.865,34.77397430855755,10.290419057971832,2.6975,0.8690680388793597,56.0,-999.0,-999,1.0,Imperial fault,20.0,52.78,53.71,14.75,-999.0,32.46,15.25,4.55,na,17.33,0.76,3.04,0.76,0.72,25.71,0.65,38.13,-999.0,3.7019,39.25,-0.9516,0.1932,4.5495425,A,H,D,A,D,D,D,193.67,0,0.1,D,"Qal, deep, Imperial V.",-999,CDMG,33.037,-115.623,1.0,GROUND LEVEL,5.2,-999,-999,Holocene,fine,-999,-999,-999.0,-999.0,-999.0,-999.0,-999.0,-999.0,RSN192_AAD_H-WSM090.AT2,RSN192_AAD_H-WSM180.AT2,IMPVALL.H_H-WSM-UP.AT2,90.0,180.0,A,-999,PEA,A,1.0,2.5,0.023,0.05,40.0,40.0,1.25,0.02875,0.0625,0.0625,0.08244,22.354,16.904
192,193.0,51.0,Imperial Valley-07,1979.0,1015.0,2319.0,Bonds Corner,210.0,5054,5.01,Mw,0.09720000000000001,0.227,6.0,0.1,3.672823004980881e+23,319.9,90.0,180.0,0.0,0.0,4.9,0.0,274.9,32.7667,-115.4413,9.5,-999.0,0.0,M<6,0.0,7.261,3.6,4.2,15.3,-999.0,-999.0,-999.0,-999.0,-999.0,-999.0,-999.0,-999.0,-999,1.0,-999,-999.0,12.66,15.83,10.83,-999.0,15.64,13.04,2.11,na,168.75,0.51,9.61,0.51,0.53,12.55,0.52,-999.0,-999.0,-999.0,-999.0,-999.0,-999.0,-999.0,A,Q,D,A,D,D,D,223.03,0,0.1,D,"Qal, deep, Imperial V.",-999,USGS,32.6931,-115.3382,1.0,GROUND LEVEL,4.8,-999,-999,Holocene,Aggregate,Lacustrine,-999,-999.0,-999.0,-999.0,-999.0,-999.0,-999.0,RSN193_AAD_A-BCR140.AT2,RSN193_AAD_A-BCR230.AT2,IMPVALL.A_A-BCR-UP.AT2,140.0,230.0,A,-999,PEA,A,1.0,2.5,0.6,0.4,30.0,30.0,1.25,0.75,0.5,0.75,0.1046,6.2258,1.013
193,194.0,51.0,Imperial Valley-07,1979.0,1015.0,2319.0,Brawley Airport,216.0,5060,5.01,Mw,0.09720000000000001,0.227,6.0,0.1,3.672823004980881e+23,319.9,90.0,180.0,0.0,0.0,4.9,0.0,274.9,32.7667,-115.4413,9.5,-999.0,0.0,M<6,0.0,7.261,3.6,4.2,15.3,-999.0,-999.0,-999.0,-999.0,-999.0,-999.0,-999.0,-999.0,-999,1.0,-999,-999.0,25.84,27.53,24.26,-999.0,27.51,25.32,10.94,na,26.81,0.49,25.05,0.44,0.53,49.04,0.35,-999.0,-999.0,-999.0,-999.0,-999.0,-999.0,-999.0,A,Q,D,A,D,D,D,208.71,0,0.1,D,"Qal, deep, Imperial V.",-999,USGS,32.991,-115.513,1.0,GROUND LEVEL,5.2,-999,-999,Holocene,Aggregate,Lacustrine,-999,-999.0,-999.0,-999.0,-999.0,-999.0,-999.0,RSN194_AAD_A-BRA225.AT2,RSN194_AAD_A-BRA315.AT2,IMPVALL.A_A-BRA-UP.AT2,225.0,315.0,A,-999,PEA,A,1.0,2.5,0.5,1.0,30.0,30.0,1.25,0.625,1.25,1.25,0.052831,2.4855,0.19199
194,195.0,51.0,Imperial Valley-07,1979.0,1015.0,2319.0,Calexico Fire Station,209.0,5053,5.01,Mw,0.09720000000000001,0.227,6.0,0.1,3.672823004980881e+23,319.9,90.0,180.0,0.0,0.0,4.9,0.0,274.9,32.7667,-115.4413,9.5,-999.0,0.0,M<6,0.0,7.261,3.6,4.2,15.3,-999.0,-999.0,-999.0,-999.0,-999.0,-999.0,-999.0,-999.0,-999,1.0,-999,-999.0,11.85,15.19,11.17,-999.0,15.09,13.32,-10.67,na,-107.19,0.51,64.18,0.22,0.53,48.31,0.35,-999.0,-999.0,-999.0,-999.0,-999.0,-999.0,-999.0,A,Q,D,A,D,D,D,231.23,0,0.1,D,"Qal, deep, Imperial V.",-999,USGS,32.6695,-115.493,1.0,GROUND LEVEL,5.0,-999,-999,Holocene,Fine,Lacustrine,-999,-999.0,-999.0,-999.0,-999.0,-999.0,-999.0,RSN195_AAD_A-CXO225.AT2,RSN195_AAD_A-CXO315.AT2,IMPVALL.A_A-CXO-UP.AT2,225.0,315.0,A,-999,PEA,A,1.0,2.5,0.4,0.43,30.0,30.0,1.25,0.5,0.5375,0.5375,0.088034,7.5029,0.84485
195,196.0,51.0,Imperial Valley-07,1979.0,1015.0,2319.0,Delta,241.0,6605,5.01,Mw,0.09720000000000001,0.227,6.0,0.1,3.672823004980881e+23,319.9,90.0,180.0,0.0,0.0,4.9,0.0,274.9,32.7667,-115.4413,9.5,-999.0,0.0,M<6,0.0,7.261,3.6,4.2,15.3,-999.0,-999.0,-999.0,-999.0,-999.0,-999.0,-999.0,-999.0,-999,1.0,-999,-999.0,51.21,52.08,49.4,-999.0,51.99,49.93,-11.68,na,-166.33,0.51,13.18,0.5,0.53,50.87,0.33,-999.0,-999.0,-999.0,-999.0,-999.0,-999.0,-999.0,I,Q,D,A,D,-999,D,242.05,3b_4b_4c,0.37,D,-999,-999,UNAMUCSD,32.356,-115.195,0.0,GROUND LEVEL,7.5,-999,-999,Holocene,fine,-999,-999,-999.0,-999.0,-999.0,-999.0,-999.0,-999.0,RSN196_AAD_A-DLT262.AT2,RSN196_AAD_A-DLT352.AT2,IMPVALL.A_A-DLTDWN.AT2,262.0,352.0,D,-999,PEA,A,1.0,2.5,2.0,0.8,23.0,30.0,1.25,2.5,1.0,2.5,0.091092,3.5013,0.29082
196,197.0,51.0,Imperial Valley-07,1979.0,1015.0,2319.0,El Centro Array #1,212.0,5056,5.01,Mw,0.09720000000000001,0.227,6.0,0.1,3.672823004980881e+23,319.9,90.0,180.0,0.0,0.0,4.9,0.0,274.9,32.7667,-115.4413,9.5,-999.0,0.0,M<6,0.0,7.261,3.6,4.2,15.3,-999.0,-999.0,-999.0,-999.0,-999.0,-999.0,-999.0,-999.0,-999,1.0,-999,-999.0,24.36,26.15,23.76,-999.0,26.14,24.84,22.59,na,71.95,0.49,68.02,0.18,0.53,67.19,0.21,-999.0,-999.0,-999.0,-999.0,-999.0,-999.0,-999.0,A,Q,D,A,D,D,D,237.33,0,0.1,D,"Qal, deep, Imperial V.",-999,USGS,32.96,-115.319,1.0,GROUND LEVEL,3.5,-999,-999,Holocene,Fine,Lacustrine,-999,-999.0,-999.0,-999.0,-999.0,-999.0,-999.0,RSN197_AAD_A-E01140.AT2,RSN197_AAD_A-E01230.AT2,IMPVALL.A_A-E01-UP.AT2,140.0,230.0,A,-999,PEA,A,1.0,2.5,0.6,0.6,33.0,40.0,1.25,0.75,0.75,0.75,0.055628,3.6494,0.39996
197,198.0,51.0,Imperial Valley-07,1979.0,1015.0,2319.0,El Centro Array #10,103.0,412,5.01,Mw,0.09720000000000001,0.227,6.0,0.1,3.672823004980881e+23,319.9,90.0,180.0,0.0,0.0,4.9,0.0,274.9,32.7667,-115.4413,9.5,-999.0,0.0,M<6,0.0,7.261,3.6,4.2,15.3,-999.0,-999.0,-999.0,-999.0,-999.0,-999.0,-999.0,-999.0,-999,1.0,-999,-999.0,11.96,15.28,10.73,-999.0,15.19,12.96,-8.08,na,-48.83,0.49,42.48,0.36,0.53,40.38,0.4,-999.0,-999.0,-999.0,-999.0,-999.0,-999.0,-999.0,A,Q,D,A,D,D,D,202.85,0,0.1,D,"Qal, deep, Imperial V.",-999,USGS,32.7806,-115.5681,1.0,GROUND LEVEL,4.9,-999,-999,Holocene,-999,Lacustrine,-999,-999.0,-999.0,-999.0,-999.0,-999.0,-999.0,RSN198_AAD_A-E10050.AT2,RSN198_AAD_A-E10320.AT2,IMPVALL.A_A-E10-UP.AT2,50.0,320.0,A,-999,PEA,A,1.0,2.5,0.5,0.5,30.0,30.0,1.25,0.625,0.625,0.625,0.052531,3.3531,0.31845
198,199.0,51.0,Imperial Valley-07,1979.0,1015.0,2319.0,El Centro Array #11,214.0,5058,5.01,Mw,0.09720000000000001,0.227,6.0,0.1,3.672823004980881e+23,319.9,90.0,180.0,0.0,0.0,4.9,0.0,274.9,32.7667,-115.4413,9.5,-999.0,0.0,M<6,0.0,7.261,3.6,4.2,15.3,-999.0,-999.0,-999.0,-999.0,-999.0,-999.0,-999.0,-999.0,-999,1.0,-999,-999.0,14.5,17.33,13.61,-999.0,17.29,15.42,-12.09,na,-62.7,0.49,56.51,0.27,0.53,51.84,0.33,-999.0,-999.0,-999.0,-999.0,-999.0,-999.0,-999.0,A,Q,D,A,D,D,D,196.25,0,0.1,D,"Qal, deep, Imperial V.",-999,USGS,32.7517,-115.5952,1.0,GROUND LEVEL,5.0,-999,-999,Holocene,Fine,Lacustrine,-999,-999.0,-999.0,-999.0,-999.0,-999.0,-999.0,RSN199_AAD_A-E11140.AT2,RSN199_AAD_A-E11230.AT2,IMPVALL.A_A-E11-UP.AT2,140.0,230.0,A,-999,PEA,A,1.0,2.5,0.43,0.7,30.0,30.0,1.25,0.5375,0.875,0.875,0.1873,10.216,1.1777
199,200.0,51.0,Imperial Valley-07,1979.0,1015.0,2319.0,El Centro Array #2,228.0,5115,5.01,Mw,0.09720000000000001,0.227,6.0,0.1,3.672823004980881e+23,319.9,90.0,180.0,0.0,0.0,4.9,0.0,274.9,32.7667,-115.4413,9.5,-999.0,0.0,M<6,0.0,7.261,3.6,4.2,15.3,-999.0,-999.0,-999.0,-999.0,-999.0,-999.0,-999.0,-999.0,-999,1.0,-999,-999.0,18.04,20.39,17.32,-999.0,20.37,18.78,16.08,na,68.2,0.49,63.0,0.22,0.53,59.42,0.27,-999.0,-999.0,-999.0,-999.0,-999.0,-999.0,-999.0,I,Q,D,A,D,D,D,188.78,0,0.1,D,"Qal, deep, Imperial V.",-999,USGS,32.916,-115.366,0.0,GROUND LEVEL,5.5,-999,-999,Holocene,Fine,Lacustrine,-999,-999.0,-999.0,-999.0,-999.0,-999.0,-999.0,RSN200_AAD_A-E02140.AT2,RSN200_AAD_A-E02230.AT2,IMPVALL.A_A-E02-UP.AT2,140.0,230.0,A,-999,PEA,A,1.0,2.5,0.5,0.8,30.0,40.0,1.25,0.625,1.0,1.0,0.12721,7.6929,0.88867
200,201.0,51.0,Imperial Valley-07,1979.0,1015.0,2319.0,El Centro Array #3,213.0,5057,5.01,Mw,0.09720000000000001,0.227,6.0,0.1,3.672823004980881e+23,319.9,90.0,180.0,0.0,0.0,4.9,0.0,274.9,32.7667,-115.4413,9.5,-999.0,0.0,M<6,0.0,7.261,3.6,4.2,15.3,-999.0,-999.0,-999.0,-999.0,-999.0,-999.0,-999.0,-999.0,-999,1.0,-999,-999.0,15.28,17.99,14.54,-999.0,17.96,16.25,13.5,na,68.21,0.49,62.07,0.23,0.53,54.87,0.3,-999.0,-999.0,-999.0,-999.0,-999.0,-999.0,-999.0,A,Q,D,A,E,D,E,162.94,0,0.05,D,"Qal, deep, Imperial V.",-999,USGS,32.894,-115.38,1.0,GROUND LEVEL,5.7,-999,-999,Holocene,Aggregate,Lacustrine,-999,-999.0,-999.0,-999.0,-999.0,-999.0,-999.0,RSN201_AAD_A-E03140.AT2,RSN201_AAD_A-E03230.AT2,IMPVALL.A_A-E03-UP.AT2,140.0,230.0,A,-999,PEA,A,1.0,2.5,0.4,0.43,30.0,30.0,1.25,0.5,0.5375,0.5375,0.12695,9.4702,0.92297
201,202.0,51.0,Imperial Valley-07,1979.0,1015.0,2319.0,El Centro Array #4,119.0,955,5.01,Mw,0.09720000000000001,0.227,6.0,0.1,3.672823004980881e+23,319.9,90.0,180.0,0.0,0.0,4.9,0.0,274.9,32.7667,-115.4413,9.5,-999.0,0.0,M<6,0.0,7.261,3.6,4.2,15.3,-999.0,-999.0,-999.0,-999.0,-999.0,-999.0,-999.0,-999.0,-999,1.0,-999,-999.0,10.86,14.43,9.69,-999.0,14.33,12.11,7.63,na,51.98,0.49,44.65,0.35,0.53,38.78,0.41,-999.0,-999.0,-999.0,-999.0,-999.0,-999.0,-999.0,I,Q,D,A,D,D,D,208.91,0,0.1,D,"Qal, deep, Imperial V.",-999,USGS,32.864,-115.432,0.0,GROUND LEVEL,5.6,-999,-999,Holocene,Aggregate,Lacustrine,-999,-999.0,-999.0,-999.0,-999.0,-999.0,-999.0,RSN202_AAD_A-E04140.AT2,RSN202_AAD_A-E04230.AT2,IMPVALL.A_A-E04-UP.AT2,140.0,230.0,A,-999,PEA,A,1.0,2.5,0.6,0.6,33.0,33.0,1.25,0.75,0.75,0.75,0.17185,10.161,0.8622
202,203.0,51.0,Imperial Valley-07,1979.0,1015.0,2319.0,El Centro Array #5,118.0,952,5.01,Mw,0.09720000000000001,0.227,6.0,0.1,3.672823004980881e+23,319.9,90.0,180.0,0.0,0.0,4.9,0.0,274.9,32.7667,-115.4413,9.5,-999.0,0.0,M<6,0.0,7.261,3.6,4.2,15.3,-999.0,-999.0,-999.0,-999.0,-999.0,-999.0,-999.0,-999.0,-999,1.0,-999,-999.0,10.09,13.86,8.56,-999.0,13.73,11.23,4.56,na,32.16,0.49,26.84,0.43,0.53,25.63,0.48,-999.0,-999.0,-999.0,-999.0,-999.0,-999.0,-999.0,I,Q,D,A,D,D,D,205.63,0,0.1,D,"Qal, deep, Imperial V.",-999,USGS,32.855,-115.466,0.0,GROUND LEVEL,5.7,-999,-999,Holocene,Fine,Lacustrine,-999,-999.0,-999.0,-999.0,-999.0,-999.0,-999.0,RSN203_AAD_A-E05140.AT2,RSN203_AAD_A-E05230.AT2,IMPVALL.A_A-E05-UP.AT2,140.0,230.0,A,-999,PEA,A,1.0,2.5,0.3,0.4,30.0,30.0,1.25,0.375,0.5,0.5,0.21893,12.914,1.2793
203,204.0,51.0,Imperial Valley-07,1979.0,1015.0,2319.0,El Centro Array #6,230.0,5158,5.01,Mw,0.09720000000000001,0.227,6.0,0.1,3.672823004980881e+23,319.9,90.0,180.0,0.0,0.0,4.9,0.0,274.9,32.7667,-115.4413,9.5,-999.0,0.0,M<6,0.0,7.261,3.6,4.2,15.3,-999.0,-999.0,-999.0,-999.0,-999.0,-999.0,-999.0,-999.0,-999,1.0,-999,-999.0,9.11,13.16,7.4,-999.0,13.01,10.37,1.91,na,14.94,0.49,12.09,0.48,0.53,11.36,0.52,-999.0,-999.0,-999.0,-999.0,-999.0,-999.0,-999.0,I,Q,D,A,D,D,D,203.22,0,0.1,D,"Qal, deep, Imperial V.",-999,CDMG,32.839,-115.487,0.0,GROUND LEVEL,5.6,-999,-999,Holocene,Fine,Lacustrine,-999,-999.0,-999.0,-999.0,-999.0,-999.0,-999.0,RSN204_AAD_A-E06140.AT2,RSN204_AAD_A-E06230.AT2,IMPVALL.A_A-E06-UP.AT2,140.0,230.0,A,-999,PEA,A,1.0,2.5,0.5,0.33,30.0,23.0,1.25,0.625,0.4125,0.625,0.23052,18.475,1.9956
204,205.0,51.0,Imperial Valley-07,1979.0,1015.0,2319.0,El Centro Array #7,200.0,5028,5.01,Mw,0.09720000000000001,0.227,6.0,0.1,3.672823004980881e+23,319.9,90.0,180.0,0.0,0.0,4.9,0.0,274.9,32.7667,-115.4413,9.5,-999.0,0.0,M<6,0.0,7.261,3.6,4.2,15.3,-999.0,-999.0,-999.0,-999.0,-999.0,-999.0,-999.0,-999.0,-999,1.0,-999,-999.0,9.08,13.14,7.32,-999.0,12.98,10.31,-0.02,na,-0.19,0.49,0.15,0.49,0.53,0.15,0.53,-999.0,-999.0,-999.0,-999.0,-999.0,-999.0,-999.0,A,Q,D,A,D,D,D,210.51,0,0.1,D,"Qal, deep, Imperial V.",-999,USGS,32.829,-115.504,1.0,GROUND LEVEL,5.4,-999,-999,Holocene,Aggregate,Lacustrine,-999,-999.0,-999.0,-999.0,-999.0,-999.0,-999.0,RSN205_AAD_A-E07140.AT2,RSN205_AAD_A-E07230.AT2,IMPVALL.A_A-E07-UP.AT2,140.0,230.0,A,-999,PEA,A,1.0,2.5,0.6,0.4,30.0,30.0,1.25,0.75,0.5,0.75,0.1803,10.707,1.0162
