,Record Sequence Number,EQID,Earthquake Name,YEAR,MODY,HRMN,Station Name,Station Sequence Number,Station ID  No.,Earthquake Magnitude,Magnitude Type,Magnitude Uncertainty: Kagan Model,Magnitude Uncertainty: Statistical,Magnitude Sample Size,Magnitude Uncertainty: Study Class,Mo (dyne.cm),Strike (deg),Dip (deg),Rake Angle (deg),Mechanism Based on Rake Angle,P-plunge (deg),P-trend (deg),T-plunge (deg),T-trend (deg),Hypocenter Latitude (deg),Hypocenter Longitude (deg),Hypocenter Depth (km),Coseismic Surface Rupture: 1=Yes; 0=No;    -999=Unknown,Coseismic Surface Rupture (Including Inferred),Basis for Inference of Surface Rupture,Finite Rupture Model: 1=Yes;  0=No,Depth to Top Of Fault Rupture Model,Fault Rupture Length for Calculation of Ry (km),Fault Rupture Width (km),Fault Rupture Area (km^2),Avg Fault Disp (cm),Rise Time (s),Avg Slip Velocity (cm/s),Static Stress Drop (bars),Preferred Rupture Velocity (km/s),Average Vr/Vs,Percent of Moment Release in the Top 5 Km of Crust,Existence of Shallow Asperity: 0=No; 1=Yes,Depth to Top of Shallowest Asperity (km),Earthquake in Extensional Regime: 1=Yes; 0=No,Fault Name,Slip Rate (mm/Yr),EpiD (km),HypD (km),Joyner-Boore Dist. (km),Campbell R Dist. (km),RmsD (km),ClstD (km),Rx,FW/HW Indicator,Source to Site Azimuth (deg),X,Theta.D (deg),SSGA (Strike Slip),Y,Phi.D (deg),SSGA (Dip Slip),s,d,ctildepr,D,Rfn.Hyp,Rfp.Hyp,T,GMX's C1,GMX's C2,GMX's C3,Campbell's GEOCODE,Bray and Rodriguez-Marek SGS,Depth,Preferred NEHRP Based on Vs30,Vs30 (m/s) selected for analysis,Measured/Inferred Class,Sigma of Vs30 (in natural log Units),NEHRP Classification from CGS's Site Condition Map,Geological Unit,Geology,Owner,Station Latitude,Station Longitude,STORIES,INSTLOC,Depth to Basement Rock,Site Visited,NGA Type,Age,Grain Size,Depositional History,Basin,h (m),hnorm (m),Rsbe (m),Rcebe (m),Rebe (m),Rsbe1 (m),File Name (Horizontal 1),File Name (Horizontal 2),File Name (Vertical),H1 azimth (degrees),H2 azimith (degrees),Type of Recording,Instrument Model,PEA Processing Flag,Type of Filter,npass,nroll,HP-H1 (Hz),HP-H2 (Hz),LP-H1 (Hz),LP-H2 (Hz),Factor,Lowest Usable Freq - H1 (Hz),Lowest Usable Freq - H2 (H2),Lowest Usable Freq - Ave. Component (Hz),PGA (g),PGV (cm/sec),PGD (cm)
162,163.0,50.0,Imperial Valley-06,1979.0,1015.0,2316.0,Calipatria Fire Station,217.0,5061,6.53,Mw,0.09720000000000001,0.063,10.0,0.1,6.998419960022747e+25,323.0,80.0,180.0,0.0,7.05,187.56,7.05,278.44,32.644,-115.307,9.96,1.0,1.0,-999,1.0,0.0,50.0,13.0,649.9,30.07948777690228,0.865,34.77397430855755,10.290419057971832,2.6975,0.8690680388793597,56.0,-999.0,-999,1.0,Imperial fault,20.0,57.14,58.0,23.17,-999.0,40.49,24.6,18.52,na,48.3,0.76,17.07,0.73,0.53,69.3,0.19,38.13,-999.0,2.5791,38.74,-0.7408,0.2931,18.522251,B,Q,D,A,D,D,D,205.78,1,0.25,D,"Qal, deep, Imperial V.",-999,USGS,33.1266,-115.516,2.0,GROUND LEVEL,5.1,-999,-999,Holocene,Fine,-999,-999,-999.0,-999.0,-999.0,-999.0,-999.0,-999.0,RSN163_IMPVALL.H_H-CAL225.AT2,RSN163_IMPVALL.H_H-CAL315.AT2,IMPVALL.H_H-CAL-UP.AT2,225.0,315.0,A,-999,PEA,A,1.0,2.5,0.05,0.07,40.0,40.0,1.25,0.0625,0.0875,0.0875,0.097772,14.29,10.133
163,164.0,50.0,Imperial Valley-06,1979.0,1015.0,2316.0,Cerro Prieto,240.0,6604,6.53,Mw,0.09720000000000001,0.063,10.0,0.1,6.998419960022747e+25,323.0,80.0,180.0,0.0,7.05,187.56,7.05,278.44,32.644,-115.307,9.96,1.0,1.0,-999,1.0,0.0,50.0,13.0,649.9,30.07948777690228,0.865,34.77397430855755,10.290419057971832,2.6975,0.8690680388793597,56.0,-999.0,-999,1.0,Imperial fault,20.0,24.82,26.74,15.19,-999.0,30.69,15.19,-12.73,na,-123.04,0.24,35.7,0.19,0.78,45.48,0.55,11.87,-999.0,1.9637,15.6,0.5152,0.1526,-12.734513,I,V,A,D,B, ,C,471.53,3b_4b_4c,0.37,B,-999,-999,UNAMUCSD,32.421,-115.301,1.0,GROUND LEVEL,0.0,-999,-999,Tertiary,-999,-999,-999,-999.0,-999.0,-999.0,-999.0,-999.0,-999.0,RSN164_IMPVALL.H_H-CPE147.AT2,RSN164_IMPVALL.H_H-CPE237.AT2,IMPVALL.H_H-CPEDWN.AT2,147.0,237.0,D,-999,PEA,A,1.0,2.5,0.09,0.08,30.0,30.0,1.25,0.1125,0.1,0.1125,0.17137,15.88,6.6028
164,165.0,50.0,Imperial Valley-06,1979.0,1015.0,2316.0,Chihuahua,247.0,6621,6.53,Mw,0.09720000000000001,0.063,10.0,0.1,6.998419960022747e+25,323.0,80.0,180.0,0.0,7.05,187.56,7.05,278.44,32.644,-115.307,9.96,1.0,1.0,-999,1.0,0.0,50.0,13.0,649.9,30.07948777690228,0.865,34.77397430855755,10.290419057971832,2.6975,0.8690680388793597,56.0,-999.0,-999,1.0,Imperial fault,20.0,18.88,21.35,7.29,-999.0,22.77,7.29,-3.94,na,-147.25,0.24,17.54,0.23,0.78,19.74,0.73,11.87,-999.0,2.8692,15.6,0.8015,0.0897,-3.9419028,I,Q,D,A,D,-999,D,242.05,3b_4b_4c,0.37,D,-999,-999,UNAMUCSD,32.484,-115.24,0.0,GROUND LEVEL,6.0,-999,-999,Holocene,Aggregate,-999,-999,-999.0,-999.0,-999.0,-999.0,-999.0,-999.0,RSN165_AAD_H-CHI012.AT2,RSN165_AAD_H-CHI282.AT2,IMPVALL.H_H-CHIDWN.AT2,12.0,282.0,D,-999,PEA,A,1.0,2.5,0.08,0.18,30.0,30.0,1.25,0.1,0.225,0.225,0.26506,28.705,7.7845
165,166.0,50.0,Imperial Valley-06,1979.0,1015.0,2316.0,Coachella Canal #4,219.0,5066,6.53,Mw,0.09720000000000001,0.063,10.0,0.1,6.998419960022747e+25,323.0,80.0,180.0,0.0,7.05,187.56,7.05,278.44,32.644,-115.307,9.96,1.0,1.0,-999,1.0,0.0,50.0,13.0,649.9,30.07948777690228,0.865,34.77397430855755,10.290419057971832,2.6975,0.8690680388793597,56.0,-999.0,-999,1.0,Imperial fault,20.0,83.94,84.53,49.1,-999.0,68.84,50.1,28.71,na,34.76,0.76,18.74,0.72,0.39,79.73,0.07,38.13,-999.0,2.8154,38.47,-0.6999,0.3322,28.710224,A,Q,D,A,D,D,D,336.49,2a_3a_4b_4c,0.25,D,"Qal, coarse",-999,USGS,33.36,-115.59,-999.0,-999,-999.0,-999,-999,-999,-999,-999,-999,-999.0,-999.0,-999.0,-999.0,-999.0,-999.0,RSN166_AAD_H-CC4045.AT2,RSN166_AAD_H-CC4135.AT2,IMPVALL.H_H-CC4-UP.AT2,45.0,135.0,A,-999,PEA,A,1.0,2.5,0.11,0.11,40.0,40.0,1.25,0.1375,0.1375,0.1375,0.12238,14.529,2.894
166,167.0,50.0,Imperial Valley-06,1979.0,1015.0,2316.0,Compuertas,248.0,6622,6.53,Mw,0.09720000000000001,0.063,10.0,0.1,6.998419960022747e+25,323.0,80.0,180.0,0.0,7.05,187.56,7.05,278.44,32.644,-115.307,9.96,1.0,1.0,-999,1.0,0.0,50.0,13.0,649.9,30.07948777690228,0.865,34.77397430855755,10.290419057971832,2.6975,0.8690680388793597,56.0,-999.0,-999,1.0,Imperial fault,20.0,22.43,24.55,13.52,-999.0,28.95,15.3,13.78,na,117.12,0.24,32.44,0.2,0.59,60.39,0.29,11.87,-999.0,1.6747,14.16,0.4152,-0.0115,13.783226,I,Q,D,A,D,-999,D,259.86,3b_4c,0.37,D,-999,-999,UNAMUCSD,32.573,-115.083,0.0,GROUND LEVEL,4.5,-999,-999,Holocene,Aggregate,-999,-999,-999.0,-999.0,-999.0,-999.0,-999.0,-999.0,RSN167_IMPVALL.H_H-CMP015.AT2,RSN167_IMPVALL.H_H-CMP285.AT2,IMPVALL.H_H-CMPDWN.AT2,15.0,285.0,D,-999,PEA,A,1.0,2.5,0.08,0.12,20.0,23.0,1.25,0.1,0.15,0.15,0.15012,10.556,3.1182
168,169.0,50.0,Imperial Valley-06,1979.0,1015.0,2316.0,Delta,241.0,6605,6.53,Mw,0.09720000000000001,0.063,10.0,0.1,6.998419960022747e+25,323.0,80.0,180.0,0.0,7.05,187.56,7.05,278.44,32.644,-115.307,9.96,1.0,1.0,-999,1.0,0.0,50.0,13.0,649.9,30.07948777690228,0.865,34.77397430855755,10.290419057971832,2.6975,0.8690680388793597,56.0,-999.0,-999,1.0,Imperial fault,20.0,33.73,35.17,22.03,-999.0,40.51,22.03,-9.13,na,-155.53,0.24,18.81,0.22,0.78,37.51,0.62,11.87,-999.0,2.4526,15.6,0.8203,0.0389,-9.1258564,I,Q,D,A,D,-999,D,242.05,3b_4b_4c,0.37,D,-999,-999,UNAMUCSD,32.356,-115.195,0.0,GROUND LEVEL,7.5,-999,-999,Holocene,fine,-999,-999,-999.0,-999.0,-999.0,-999.0,-999.0,-999.0,RSN169_IMPVALL.H_H-DLT262.AT2,RSN169_IMPVALL.H_H-DLT352.AT2,IMPVALL.H_H-DLTDWN.AT2,262.0,352.0,D,-999,PEA,A,1.0,2.5,0.07,0.07,30.0,30.0,1.25,0.0875,0.0875,0.0875,0.2618,26.95,17.164
169,170.0,50.0,Imperial Valley-06,1979.0,1015.0,2316.0,EC County Center FF,151.0,1136,6.53,Mw,0.09720000000000001,0.063,10.0,0.1,6.998419960022747e+25,323.0,80.0,180.0,0.0,7.05,187.56,7.05,278.44,32.644,-115.307,9.96,1.0,1.0,-999,1.0,0.0,50.0,13.0,649.9,30.07948777690228,0.865,34.77397430855755,10.290419057971832,2.6975,0.8690680388793597,56.0,-999.0,-999,1.0,Imperial fault,20.0,29.07,30.73,7.31,-999.0,15.58,7.31,-7.31,na,-90.0,0.55,18.15,0.52,0.78,32.28,0.66,27.62,-999.0,2.2036,29.41,-0.8264,0.0544,-7.3070104,I,Q,D,A,E,D,D,192.05,0,0.1,D,"Qal, deep, Imperial V.",-999,CDMG,32.793,-115.562,0.0,GROUND LEVEL,4.8,-999,-999,Holocene,Fine,Lacustrine,-999,-999.0,-999.0,-999.0,-999.0,-999.0,-999.0,RSN170_AAD_H-ECC002.AT2,RSN170_AAD_H-ECC092.AT2,IMPVALL.H_H-ECC-UP.AT2,2.0,92.0,A,-999,PEA,A,1.0,2.5,0.06,0.0,33.0,33.0,1.25,0.075,0.0,0.075,0.22388,52.42,37.434
170,171.0,50.0,Imperial Valley-06,1979.0,1015.0,2316.0,El Centro - Meloland Geot. Array,160.0,1336,6.53,Mw,0.09720000000000001,0.063,10.0,0.1,6.998419960022747e+25,323.0,80.0,180.0,0.0,7.05,187.56,7.05,278.44,32.644,-115.307,9.96,1.0,1.0,-999,1.0,0.0,50.0,13.0,649.9,30.07948777690228,0.865,34.77397430855755,10.290419057971832,2.6975,0.8690680388793597,56.0,-999.0,-999,1.0,Imperial fault,20.0,19.44,21.84,0.07,-999.0,6.19,0.07,-0.07,na,-90.0,0.39,5.37,0.39,0.78,0.34,0.78,19.35,-999.0,3.9539,21.84,-0.8811,0.0934,-0.06929427,I,H,D,A,D,D,D,264.57,0,0.1,D,"Qal, deep, Imperial V.",-999,CDMG,32.773,-115.447,1.0,BASE OF COLUMN,4.5,-999,-999,Holocene,Fine,Lacustrine,-999,-999.0,-999.0,-999.0,-999.0,-999.0,-999.0,RSN171_AAD_H-EMO000.AT2,RSN171_AAD_H-EMO270.AT2,IMPVALL.H_H-EMO-UP.AT2,0.0,270.0,A,-999,PEA,A,1.0,2.5,0.0,0.08,40.0,50.0,1.25,0.0,0.1,0.1,0.3125,83.519,34.713
171,172.0,50.0,Imperial Valley-06,1979.0,1015.0,2316.0,El Centro Array #1,212.0,5056,6.53,Mw,0.09720000000000001,0.063,10.0,0.1,6.998419960022747e+25,323.0,80.0,180.0,0.0,7.05,187.56,7.05,278.44,32.644,-115.307,9.96,1.0,1.0,-999,1.0,0.0,50.0,13.0,649.9,30.07948777690228,0.865,34.77397430855755,10.290419057971832,2.6975,0.8690680388793597,56.0,-999.0,-999,1.0,Imperial fault,20.0,35.18,36.56,19.76,-999.0,27.43,21.68,22.01,na,90.0,0.58,35.17,0.47,0.48,73.83,0.13,28.76,-999.0,1.3434,29.44,-0.3086,0.068,22.014629,A,Q,D,A,D,D,D,237.33,0,0.1,D,"Qal, deep, Imperial V.",-999,USGS,32.96,-115.319,1.0,GROUND LEVEL,3.5,-999,-999,Holocene,Fine,Lacustrine,-999,-999.0,-999.0,-999.0,-999.0,-999.0,-999.0,RSN172_IMPVALL.H_H-E01140.AT2,RSN172_IMPVALL.H_H-E01230.AT2,IMPVALL.H_H-E01-UP.AT2,140.0,230.0,A,-999,PEA,A,1.0,2.5,0.09,0.08,40.0,40.0,1.25,0.1125,0.1,0.1125,0.14458,13.333,8.4925
172,173.0,50.0,Imperial Valley-06,1979.0,1015.0,2316.0,El Centro Array #10,103.0,412,6.53,Mw,0.09720000000000001,0.063,10.0,0.1,6.998419960022747e+25,323.0,80.0,180.0,0.0,7.05,187.56,7.05,278.44,32.644,-115.307,9.96,1.0,1.0,-999,1.0,0.0,50.0,13.0,649.9,30.07948777690228,0.865,34.77397430855755,10.290419057971832,2.6975,0.8690680388793597,56.0,-999.0,-999,1.0,Imperial fault,20.0,28.79,30.46,8.6,-999.0,16.66,8.6,-8.6,na,-90.0,0.54,21.06,0.5,0.78,36.08,0.63,26.86,-999.0,2.0482,28.7,-0.7824,0.054,-8.5948463,A,Q,D,A,D,D,D,202.85,0,0.1,D,"Qal, deep, Imperial V.",-999,USGS,32.7806,-115.5681,1.0,GROUND LEVEL,4.9,-999,-999,Holocene,-999,Lacustrine,-999,-999.0,-999.0,-999.0,-999.0,-999.0,-999.0,RSN173_AAD_H-E10050.AT2,RSN173_AAD_H-E10320.AT2,IMPVALL.H_H-E10-UP.AT2,50.0,320.0,A,-999,PEA,A,1.0,2.5,0.06,0.033,40.0,40.0,1.25,0.075,0.04125,0.075,0.19857,50.431,31.422
173,174.0,50.0,Imperial Valley-06,1979.0,1015.0,2316.0,El Centro Array #11,214.0,5058,6.53,Mw,0.09720000000000001,0.063,10.0,0.1,6.998419960022747e+25,323.0,80.0,180.0,0.0,7.05,187.56,7.05,278.44,32.644,-115.307,9.96,1.0,1.0,-999,1.0,0.0,50.0,13.0,649.9,30.07948777690228,0.865,34.77397430855755,10.290419057971832,2.6975,0.8690680388793597,56.0,-999.0,-999,1.0,Imperial fault,20.0,29.53,31.16,12.56,-999.0,20.09,12.56,-12.56,na,-90.0,0.52,28.98,0.45,0.78,45.16,0.55,25.83,-999.0,1.7264,27.74,-0.6378,0.074,-12.553859,A,Q,D,A,D,D,D,196.25,0,0.1,D,"Qal, deep, Imperial V.",-999,USGS,32.7517,-115.5952,1.0,GROUND LEVEL,5.0,-999,-999,Holocene,Fine,Lacustrine,-999,-999.0,-999.0,-999.0,-999.0,-999.0,-999.0,RSN174_IMPVALL.H_H-E11140.AT2,RSN174_IMPVALL.H_H-E11230.AT2,IMPVALL.H_H-E11-UP.AT2,140.0,230.0,A,-999,PEA,A,1.0,2.5,0.05,0.08,40.0,40.0,1.25,0.0625,0.1,0.1,0.37492,40.773,21.518
174,175.0,50.0,Imperial Valley-06,1979.0,1015.0,2316.0,El Centro Array #12,115.0,931,6.53,Mw,0.09720000000000001,0.063,10.0,0.1,6.998419960022747e+25,323.0,80.0,180.0,0.0,7.05,187.56,7.05,278.44,32.644,-115.307,9.96,1.0,1.0,-999,1.0,0.0,50.0,13.0,649.9,30.07948777690228,0.865,34.77397430855755,10.290419057971832,2.6975,0.8690680388793597,56.0,-999.0,-999,1.0,Imperial fault,20.0,31.99,33.5,17.94,-999.0,24.82,17.94,-17.94,na,-90.0,0.5,37.99,0.4,0.78,53.17,0.47,25.21,-999.0,1.4768,27.16,-0.4408,0.1428,-17.94164,I,Q,D,A,D,D,D,196.88,0,0.1,D,"Qal, deep, Imperial V.",-999,USGS,32.718,-115.637,0.0,GROUND LEVEL,4.4,-999,-999,Holocene,Fine,Lacustrine,-999,-999.0,-999.0,-999.0,-999.0,-999.0,-999.0,RSN175_IMPVALL.H_H-E12140.AT2,RSN175_IMPVALL.H_H-E12230.AT2,IMPVALL.H_H-E12-UP.AT2,140.0,230.0,A,-999,PEA,A,1.0,2.5,0.05,0.07,40.0,40.0,1.25,0.0625,0.0875,0.0875,0.14074,22.27,14.568
175,176.0,50.0,Imperial Valley-06,1979.0,1015.0,2316.0,El Centro Array #13,215.0,5059,6.53,Mw,0.09720000000000001,0.063,10.0,0.1,6.998419960022747e+25,323.0,80.0,180.0,0.0,7.05,187.56,7.05,278.44,32.644,-115.307,9.96,1.0,1.0,-999,1.0,0.0,50.0,13.0,649.9,30.07948777690228,0.865,34.77397430855755,10.290419057971832,2.6975,0.8690680388793597,56.0,-999.0,-999,1.0,Imperial fault,20.0,35.95,37.31,21.98,-999.0,28.84,21.98,-21.98,na,-90.0,0.54,41.29,0.41,0.78,57.23,0.42,27.01,-999.0,1.3917,28.84,-0.3546,0.1719,-21.978029,I,Q,D,A,D,D,D,249.92,0,0.1,D,"Qal, deep, Imperial V.",-999,USGS,32.709,-115.683,0.0,GROUND LEVEL,3.4,-999,-999,Holocene,Aggregate,Lacustrine,-999,-999.0,-999.0,-999.0,-999.0,-999.0,-999.0,RSN176_IMPVALL.H_H-E13140.AT2,RSN176_IMPVALL.H_H-E13230.AT2,IMPVALL.H_H-E13-UP.AT2,140.0,230.0,A,-999,PEA,A,1.0,2.5,0.07,0.08,40.0,40.0,1.25,0.0875,0.1,0.1,0.11768,16.349,8.6482
177,178.0,50.0,Imperial Valley-06,1979.0,1015.0,2316.0,El Centro Array #3,213.0,5057,6.53,Mw,0.09720000000000001,0.063,10.0,0.1,6.998419960022747e+25,323.0,80.0,180.0,0.0,7.05,187.56,7.05,278.44,32.644,-115.307,9.96,1.0,1.0,-999,1.0,0.0,50.0,13.0,649.9,30.07948777690228,0.865,34.77397430855755,10.290419057971832,2.6975,0.8690680388793597,56.0,-999.0,-999,1.0,Imperial fault,20.0,28.65,30.33,10.79,-999.0,18.98,12.85,13.04,na,90.0,0.53,23.22,0.48,0.6,58.59,0.31,26.32,-999.0,1.6298,27.47,-0.6063,0.1554,13.043655,A,Q,D,A,E,D,E,162.94,0,0.05,D,"Qal, deep, Imperial V.",-999,USGS,32.894,-115.38,1.0,GROUND LEVEL,5.7,-999,-999,Holocene,Aggregate,Lacustrine,-999,-999.0,-999.0,-999.0,-999.0,-999.0,-999.0,RSN178_AAD_H-E03140.AT2,RSN178_AAD_H-E03230.AT2,IMPVALL.H_H-E03-UP.AT2,140.0,230.0,A,-999,PEA,A,1.0,2.5,0.05,0.04,40.0,40.0,1.25,0.0625,0.05,0.0625,0.26473,45.329,23.867
178,179.0,50.0,Imperial Valley-06,1979.0,1015.0,2316.0,El Centro Array #4,119.0,955,6.53,Mw,0.09720000000000001,0.063,10.0,0.1,6.998419960022747e+25,323.0,80.0,180.0,0.0,7.05,187.56,7.05,278.44,32.644,-115.307,9.96,1.0,1.0,-999,1.0,0.0,50.0,13.0,649.9,30.07948777690228,0.865,34.77397430855755,10.290419057971832,2.6975,0.8690680388793597,56.0,-999.0,-999,1.0,Imperial fault,20.0,27.13,28.9,4.9,-999.0,14.01,7.05,7.15,na,90.0,0.53,11.49,0.52,0.68,38.49,0.53,26.59,-999.0,2.1268,28.03,-0.8213,0.1724,7.1538893,I,Q,D,A,D,D,D,208.91,0,0.1,D,"Qal, deep, Imperial V.",-999,USGS,32.864,-115.432,0.0,GROUND LEVEL,5.6,-999,-999,Holocene,Aggregate,Lacustrine,-999,-999.0,-999.0,-999.0,-999.0,-999.0,-999.0,RSN179_AAD_H-E04140.AT2,RSN179_AAD_H-E04230.AT2,IMPVALL.H_H-E04-UP.AT2,140.0,230.0,A,-999,PEA,A,1.0,2.5,0.05,0.04,40.0,40.0,1.25,0.0625,0.05,0.0625,0.38078,79.11,55.113
179,180.0,50.0,Imperial Valley-06,1979.0,1015.0,2316.0,El Centro Array #5,118.0,952,6.53,Mw,0.09720000000000001,0.063,10.0,0.1,6.998419960022747e+25,323.0,80.0,180.0,0.0,7.05,187.56,7.05,278.44,32.644,-115.307,9.96,1.0,1.0,-999,1.0,0.0,50.0,13.0,649.9,30.07948777690228,0.865,34.77397430855755,10.290419057971832,2.6975,0.8690680388793597,56.0,-999.0,-999,1.0,Imperial fault,20.0,27.8,29.53,1.76,-999.0,11.44,3.95,4.01,na,90.0,0.55,4.68,0.55,0.72,22.82,0.67,27.71,-999.0,2.6596,29.26,-0.9002,0.1568,4.0145244,I,Q,D,A,D,D,D,205.63,0,0.1,D,"Qal, deep, Imperial V.",-999,USGS,32.855,-115.466,0.0,GROUND LEVEL,5.7,-999,-999,Holocene,Fine,Lacustrine,-999,-999.0,-999.0,-999.0,-999.0,-999.0,-999.0,RSN180_AAD_H-E05140.AT2,RSN180_AAD_H-E05230.AT2,IMPVALL.H_H-E05-UP.AT2,140.0,230.0,A,-999,PEA,A,1.0,2.5,0.04,0.02,40.0,40.0,1.25,0.05,0.025,0.05,0.41145,78.294,62.493
180,181.0,50.0,Imperial Valley-06,1979.0,1015.0,2316.0,El Centro Array #6,230.0,5158,6.53,Mw,0.09720000000000001,0.063,10.0,0.1,6.998419960022747e+25,323.0,80.0,180.0,0.0,7.05,187.56,7.05,278.44,32.644,-115.307,9.96,1.0,1.0,-999,1.0,0.0,50.0,13.0,649.9,30.07948777690228,0.865,34.77397430855755,10.290419057971832,2.6975,0.8690680388793597,56.0,-999.0,-999,1.0,Imperial fault,20.0,27.47,29.22,0.0,-999.0,8.81,1.35,1.37,na,90.0,0.55,0.78,0.55,0.76,7.85,0.75,27.47,-999.0,3.3864,29.19,-0.9281,0.1293,1.3747803,I,Q,D,A,D,D,D,203.22,0,0.1,D,"Qal, deep, Imperial V.",-999,CDMG,32.839,-115.487,0.0,GROUND LEVEL,5.6,-999,-999,Holocene,Fine,Lacustrine,-999,-999.0,-999.0,-999.0,-999.0,-999.0,-999.0,RSN181_AAD_H-E06140.AT2,RSN181_AAD_H-E06230.AT2,IMPVALL.H_H-E06-UP.AT2,140.0,230.0,A,-999,PEA,A,1.0,2.5,0.05,0.013,40.0,40.0,1.25,0.0625,0.01625,0.0625,0.44817,87.818,58.414
181,182.0,50.0,Imperial Valley-06,1979.0,1015.0,2316.0,El Centro Array #7,200.0,5028,6.53,Mw,0.09720000000000001,0.063,10.0,0.1,6.998419960022747e+25,323.0,80.0,180.0,0.0,7.05,187.56,7.05,278.44,32.644,-115.307,9.96,1.0,1.0,-999,1.0,0.0,50.0,13.0,649.9,30.07948777690228,0.865,34.77397430855755,10.290419057971832,2.6975,0.8690680388793597,56.0,-999.0,-999,1.0,Imperial fault,20.0,27.64,29.38,0.56,-999.0,8.0,0.56,-0.56,na,-90.0,0.55,4.8,0.55,0.78,3.07,0.78,27.54,-999.0,3.7327,29.34,-0.9307,0.1081,-0.56420276,A,Q,D,A,D,D,D,210.51,0,0.1,D,"Qal, deep, Imperial V.",-999,USGS,32.829,-115.504,1.0,GROUND LEVEL,5.4,-999,-999,Holocene,Aggregate,Lacustrine,-999,-999.0,-999.0,-999.0,-999.0,-999.0,-999.0,RSN182_AAD_H-E07140.AT2,RSN182_AAD_H-E07230.AT2,IMPVALL.H_H-E07-UP.AT2,140.0,230.0,A,-999,PEA,A,1.0,2.5,0.024,0.06,40.0,40.0,1.25,0.03,0.075,0.075,0.43676,82.682,46.01
182,183.0,50.0,Imperial Valley-06,1979.0,1015.0,2316.0,El Centro Array #8,120.0,958,6.53,Mw,0.09720000000000001,0.063,10.0,0.1,6.998419960022747e+25,323.0,80.0,180.0,0.0,7.05,187.56,7.05,278.44,32.644,-115.307,9.96,1.0,1.0,-999,1.0,0.0,50.0,13.0,649.9,30.07948777690228,0.865,34.77397430855755,10.290419057971832,2.6975,0.8690680388793597,56.0,-999.0,-999,1.0,Imperial fault,20.0,28.09,29.8,3.86,-999.0,12.23,3.86,-3.86,na,-90.0,0.55,11.52,0.54,0.78,19.39,0.73,27.52,-999.0,2.7376,29.32,-0.8989,0.0755,-3.8608175,I,Q,D,A,D,D,D,206.08,0,0.1,D,"Qal, deep, Imperial V.",-999,USGS,32.811,-115.532,0.0,GROUND LEVEL,5.1,-999,-999,Holocene,Fine,Lacustrine,-999,-999.0,-999.0,-999.0,-999.0,-999.0,-999.0,RSN183_AAD_H-E08140.AT2,RSN183_AAD_H-E08230.AT2,IMPVALL.H_H-E08-UP.AT2,140.0,230.0,A,-999,PEA,A,1.0,2.5,0.0,0.03,40.0,40.0,1.25,0.0,0.0375,0.0375,0.52691,52.408,41.436
183,184.0,50.0,Imperial Valley-06,1979.0,1015.0,2316.0,El Centro Differential Array,232.0,5165,6.53,Mw,0.09720000000000001,0.063,10.0,0.1,6.998419960022747e+25,323.0,80.0,180.0,0.0,7.05,187.56,7.05,278.44,32.644,-115.307,9.96,1.0,1.0,-999,1.0,0.0,50.0,13.0,649.9,30.07948777690228,0.865,34.77397430855755,10.290419057971832,2.6975,0.8690680388793597,56.0,-999.0,-999,1.0,Imperial fault,20.0,27.23,29.0,5.09,-999.0,13.34,5.09,-5.09,na,-90.0,0.53,14.55,0.51,0.78,24.48,0.71,26.36,-999.0,2.4797,28.23,-0.8678,0.0671,-5.0918847,I,Q,D,A,D,D,D,202.26,0,0.1,D,"Qal, deep, Imperial V.",-999,USGS,32.796,-115.535,0.0,GROUND LEVEL,5.0,-999,-999,Holocene,Aggregate,Lacustrine,-999,-999.0,-999.0,-999.0,-999.0,-999.0,-999.0,RSN184_AAD_H-EDA270.AT2,RSN184_AAD_H-EDA360.AT2,IMPVALL.H_H-EDA-UP.AT2,270.0,0.0,A,-999,PEA,A,1.0,2.5,0.0,0.023,40.0,40.0,1.25,0.0,0.02875,0.02875,0.43726,57.838,42.257
