,Record Sequence Number,EQID,Earthquake Name,YEAR,MODY,HRMN,Station Name,Station Sequence Number,Station ID  No.,Earthquake Magnitude,Magnitude Type,Magnitude Uncertainty: Kagan Model,Magnitude Uncertainty: Statistical,Magnitude Sample Size,Magnitude Uncertainty: Study Class,Mo (dyne.cm),Strike (deg),Dip (deg),Rake Angle (deg),Mechanism Based on Rake Angle,P-plunge (deg),P-trend (deg),T-plunge (deg),T-trend (deg),Hypocenter Latitude (deg),Hypocenter Longitude (deg),Hypocenter Depth (km),Coseismic Surface Rupture: 1=Yes; 0=No;    -999=Unknown,Coseismic Surface Rupture (Including Inferred),Basis for Inference of Surface Rupture,Finite Rupture Model: 1=Yes;  0=No,Depth to Top Of Fault Rupture Model,Fault Rupture Length for Calculation of Ry (km),Fault Rupture Width (km),Fault Rupture Area (km^2),Avg Fault Disp (cm),Rise Time (s),Avg Slip Velocity (cm/s),Static Stress Drop (bars),Preferred Rupture Velocity (km/s),Average Vr/Vs,Percent of Moment Release in the Top 5 Km of Crust,Existence of Shallow Asperity: 0=No; 1=Yes,Depth to Top of Shallowest Asperity (km),Earthquake in Extensional Regime: 1=Yes; 0=No,Fault Name,Slip Rate (mm/Yr),EpiD (km),HypD (km),Joyner-Boore Dist. (km),Campbell R Dist. (km),RmsD (km),ClstD (km),Rx,FW/HW Indicator,Source to Site Azimuth (deg),X,Theta.D (deg),SSGA (Strike Slip),Y,Phi.D (deg),SSGA (Dip Slip),s,d,ctildepr,D,Rfn.Hyp,Rfp.Hyp,T,GMX's C1,GMX's C2,GMX's C3,Campbell's GEOCODE,Bray and Rodriguez-Marek SGS,Depth,Preferred NEHRP Based on Vs30,Vs30 (m/s) selected for analysis,Measured/Inferred Class,Sigma of Vs30 (in natural log Units),NEHRP Classification from CGS's Site Condition Map,Geological Unit,Geology,Owner,Station Latitude,Station Longitude,STORIES,INSTLOC,Depth to Basement Rock,Site Visited,NGA Type,Age,Grain Size,Depositional History,Basin,h (m),hnorm (m),Rsbe (m),Rcebe (m),Rebe (m),Rsbe1 (m),File Name (Horizontal 1),File Name (Horizontal 2),File Name (Vertical),H1 azimth (degrees),H2 azimith (degrees),Type of Recording,Instrument Model,PEA Processing Flag,Type of Filter,npass,nroll,HP-H1 (Hz),HP-H2 (Hz),LP-H1 (Hz),LP-H2 (Hz),Factor,Lowest Usable Freq - H1 (Hz),Lowest Usable Freq - H2 (H2),Lowest Usable Freq - Ave. Component (Hz),PGA (g),PGV (cm/sec),PGD (cm)
66,67.0,30.0,San Fernando,1971.0,209.0,1400.0,Isabella Dam (Aux Abut),137.0,1035,6.61,Mw,0.22199999999999998,0.112,15.0,0.2,9.225714271547769e+25,288.0,50.0,83.0,2.0,4.77,21.96,82.82,153.42,34.44,-118.41,13.0,1.0,1.0,-999,1.0,0.0,20.0,27.4,438.4,58.76887479247924,1.0166666666666666,57.805450615553355,24.476452295850915,2.525,0.7777777777777777,49.0,1.0,2.5,0.0,Sierra Madre-San Fernando,2.0,134.1,134.73,130.0,-999.0,140.4,130.98,131.22,nu,70.85,0.36,70.1,0.12,0.14,59.99,0.07,5.7,-999.0,1.4307,6.81,-0.5825,0.188,136.14376,H,G,A,D,B,S,C,591.0,2a_3a_4b_4c,0.3,B,Kgr,-999,ACOE,35.644,-118.474,-999.0,-999,-999.0,-999,-999,-999,-999,-999,-999,-999.0,-999.0,-999.0,-999.0,-999.0,-999.0,RSN67_AAD_ISD014.AT2,RSN67_AAD_ISD284.AT2,SFERN_ISDDWN.AT2,14.0,284.0,A,-999,PEA,A,1.0,2.5,0.1,0.1,13.0,13.0,1.25,0.125,0.125,0.125,0.008756,2.2987,3.6363
68,69.0,30.0,San Fernando,1971.0,209.0,1400.0,LB - Terminal Island,81.0,130,6.61,Mw,0.22199999999999998,0.112,15.0,0.2,9.225714271547769e+25,288.0,50.0,83.0,2.0,4.77,21.96,82.82,153.42,34.44,-118.41,13.0,1.0,1.0,-999,1.0,0.0,20.0,27.4,438.4,58.76887479247924,1.0166666666666666,57.805450615553355,24.476452295850915,2.525,0.7777777777777777,49.0,1.0,2.5,0.0,Sierra Madre-San Fernando,2.0,76.38,77.48,58.99,-999.0,70.21,58.99,-54.07,nu,-113.56,0.64,59.41,0.33,0.86,40.29,0.66,10.3,-999.0,2.2018,15.3,0.3467,-0.3264,-55.418584,C,Q,D,A,D,D,D,217.92,1,0.25,D,"Qal, fine",-999,USGS,33.77,-118.23,1.0,BASEMENT,-999.0,-999,-999,-999,-999,-999, LA,2.44,0.063383,59.283,38.4961,24.7678,38.4469,RSN69_AAD_TLI249.AT2,RSN69_AAD_TLI339.AT2,SFERN_TLI-UP.AT2,249.0,339.0,A,-999,PEA,A,1.0,2.5,0.1,0.1,20.0,20.0,1.25,0.125,0.125,0.125,0.028429,8.6517,10.01
70,71.0,30.0,San Fernando,1971.0,209.0,1400.0,Lake Hughes #12,80.0,128,6.61,Mw,0.22199999999999998,0.112,15.0,0.2,9.225714271547769e+25,288.0,50.0,83.0,2.0,4.77,21.96,82.82,153.42,34.44,-118.41,13.0,1.0,1.0,-999,1.0,0.0,20.0,27.4,438.4,58.76887479247924,1.0166666666666666,57.805450615553355,24.476452295850915,2.525,0.7777777777777777,49.0,1.0,2.5,0.0,Sierra Madre-San Fernando,2.0,20.04,23.89,13.99,-999.0,26.41,19.3,16.3,nu,53.18,0.36,34.55,0.29,0.19,70.72,0.06,5.7,-999.0,1.6792,5.7,-0.6497,-0.0246,19.375439,A,Q,B,E,C,S,C,602.1,0,0.2,C,Tss,-999,USGS,34.571,-118.56,1.0,GROUND LEVEL,2.7,-999,-999,-999,-999,-999,-999,-999.0,-999.0,-999.0,-999.0,-999.0,-999.0,RSN71_AAD_L12021.AT2,RSN71_AAD_L12291.AT2,SFERN_L12DWN.AT2,21.0,291.0,A,-999,PEA,A,1.0,2.5,0.2,0.2,35.0,35.0,1.25,0.25,0.25,0.25,0.32124,14.67,2.2213
71,72.0,30.0,San Fernando,1971.0,209.0,1400.0,Lake Hughes #4,77.0,126,6.61,Mw,0.22199999999999998,0.112,15.0,0.2,9.225714271547769e+25,288.0,50.0,83.0,2.0,4.77,21.96,82.82,153.42,34.44,-118.41,13.0,1.0,1.0,-999,1.0,0.0,20.0,27.4,438.4,58.76887479247924,1.0166666666666666,57.805450615553355,24.476452295850915,2.525,0.7777777777777777,49.0,1.0,2.5,0.0,Sierra Madre-San Fernando,2.0,24.18,27.46,19.45,-999.0,31.32,25.07,27.13,hw,73.29,0.36,59.12,0.18,0.04,87.25,0.0,5.7,-999.0,1.1916,5.81,-0.8494,-0.1479,30.159126,I,G,A,D,B,S,C,600.06,2a_3a_4b_4c,0.4,B,pCg,Wthrd granite,CDMG,34.65,-118.478,0.0,GROUND LEVEL,0.0,yes,4,Mesozoic,-999,-999,-999,-999.0,-999.0,-999.0,-999.0,-999.0,-999.0,RSN72_AAD_L04111.AT2,RSN72_AAD_L04201.AT2,SFERN_L04DWN.AT2,111.0,201.0,A,-999,PEA,A,1.0,2.5,0.2,0.1,35.0,35.0,1.25,0.25,0.125,0.25,0.17861,7.5501,1.6879
72,73.0,30.0,San Fernando,1971.0,209.0,1400.0,Lake Hughes #9,79.0,127,6.61,Mw,0.22199999999999998,0.112,15.0,0.2,9.225714271547769e+25,288.0,50.0,83.0,2.0,4.77,21.96,82.82,153.42,34.44,-118.41,13.0,1.0,1.0,-999,1.0,0.0,20.0,27.4,438.4,58.76887479247924,1.0166666666666666,57.805450615553355,24.476452295850915,2.525,0.7777777777777777,49.0,1.0,2.5,0.0,Sierra Madre-San Fernando,2.0,23.1,26.51,17.22,-999.0,29.66,22.57,20.24,nu,56.42,0.36,40.45,0.27,0.11,80.87,0.02,5.7,-999.0,1.5751,6.4,-0.5451,-0.3689,23.433954,I,Q,B,E,B,S,C,670.84,0,0.2,C,pCg,Sawtooth gneiss,USGS,34.608,-118.558,0.0,GROUND LEVEL,0.003,-999,1a,Holocene,Coarse,-999,-999,-999.0,-999.0,-999.0,-999.0,-999.0,-999.0,RSN73_AAD_L09021.AT2,RSN73_AAD_L09291.AT2,SFERN_L09DWN.AT2,21.0,291.0,A,-999,PEA,A,1.0,2.5,0.5,0.2,35.0,35.0,1.25,0.625,0.25,0.625,0.15347,5.0014,1.3901
73,74.0,30.0,San Fernando,1971.0,209.0,1400.0,Maricopa Array #1,138.0,1041,6.61,Mw,0.22199999999999998,0.112,15.0,0.2,9.225714271547769e+25,288.0,50.0,83.0,2.0,4.77,21.96,82.82,153.42,34.44,-118.41,13.0,1.0,1.0,-999,1.0,0.0,20.0,27.4,438.4,58.76887479247924,1.0166666666666666,57.805450615553355,24.476452295850915,2.525,0.7777777777777777,49.0,1.0,2.5,0.0,Sierra Madre-San Fernando,2.0,198.97,199.39,193.25,-999.0,204.97,193.91,137.48,nu,43.52,0.36,43.84,0.26,0.14,59.7,0.07,5.7,-999.0,2.2454,6.81,-0.5512,0.0352,146.67459,I,H,B,B,C,D,D,303.79,2a_3a_4b_4c,0.25,C,"Qal, deep (incl LA)",-999,CDWR,35.997,-119.486,0.0,GROUND LEVEL,-999.0,-999,-999,-999,-999,-999,-999,-999.0,-999.0,-999.0,-999.0,-999.0,-999.0,RSN74_AAD_MA1130.AT2,RSN74_AAD_MA1220.AT2,SFERN_MA1DWN.AT2,130.0,220.0,A,-999,PEA,A,1.0,2.5,0.1,0.1,13.0,20.0,1.25,0.125,0.125,0.125,0.0097817,3.1406,5.3534
74,75.0,30.0,San Fernando,1971.0,209.0,1400.0,Maricopa Array #2,139.0,1042,6.61,Mw,0.22199999999999998,0.112,15.0,0.2,9.225714271547769e+25,288.0,50.0,83.0,2.0,4.77,21.96,82.82,153.42,34.44,-118.41,13.0,1.0,1.0,-999,1.0,0.0,20.0,27.4,438.4,58.76887479247924,1.0166666666666666,57.805450615553355,24.476452295850915,2.525,0.7777777777777777,49.0,1.0,2.5,0.0,Sierra Madre-San Fernando,2.0,114.63,115.37,108.56,-999.0,119.38,109.73,38.73,nu,20.33,0.36,19.88,0.34,0.14,76.47,0.03,5.7,-999.0,2.9697,5.7,-0.3369,-0.0205,46.334875,I,Q,B,B,C,S,C,443.85,2a_3a_4b_4c,0.4,C,QT,-999,CDWR,35.04,-119.429,0.0,GROUND LEVEL,-999.0,-999,-999,-999,-999,-999,-999,-999.0,-999.0,-999.0,-999.0,-999.0,-999.0,RSN75_AAD_MA2130.AT2,RSN75_AAD_MA2220.AT2,SFERN_MA2DWN.AT2,130.0,220.0,A,-999,PEA,A,1.0,2.5,0.1,0.2,20.0,15.0,1.25,0.125,0.25,0.25,0.010852,6.8215,9.5022
75,76.0,30.0,San Fernando,1971.0,209.0,1400.0,Maricopa Array #3,140.0,1043,6.61,Mw,0.22199999999999998,0.112,15.0,0.2,9.225714271547769e+25,288.0,50.0,83.0,2.0,4.77,21.96,82.82,153.42,34.44,-118.41,13.0,1.0,1.0,-999,1.0,0.0,20.0,27.4,438.4,58.76887479247924,1.0166666666666666,57.805450615553355,24.476452295850915,2.525,0.7777777777777777,49.0,1.0,2.5,0.0,Sierra Madre-San Fernando,2.0,115.1,115.83,109.01,-999.0,120.02,110.18,43.57,nu,22.82,0.36,22.25,0.33,0.14,73.72,0.04,5.7,-999.0,2.8212,5.7,-0.3668,0.0076,51.110745,I,Q,B,B,C,S,C,441.25,2a_3a_4b_4c,0.4,C,QT,-999,CDWR,35.078,-119.401,0.0,GROUND LEVEL,-999.0,-999,-999,-999,-999,-999,-999,-999.0,-999.0,-999.0,-999.0,-999.0,-999.0,RSN76_AAD_MA3130.AT2,RSN76_AAD_MA3220.AT2,SFERN_MA3DWN.AT2,130.0,220.0,A,-999,PEA,A,1.0,2.5,0.2,0.1,20.0,20.0,1.25,0.25,0.125,0.25,0.0089858,2.2535,2.2029
76,77.0,30.0,San Fernando,1971.0,209.0,1400.0,Pacoima Dam (upper left abut),88.0,279,6.61,Mw,0.22199999999999998,0.112,15.0,0.2,9.225714271547769e+25,288.0,50.0,83.0,2.0,4.77,21.96,82.82,153.42,34.44,-118.41,13.0,1.0,1.0,-999,1.0,0.0,20.0,27.4,438.4,58.76887479247924,1.0166666666666666,57.805450615553355,24.476452295850915,2.525,0.7777777777777777,49.0,1.0,2.5,0.0,Sierra Madre-San Fernando,2.0,11.87,17.6,0.0,-999.0,6.72,1.81,2.56,hw,90.0,0.25,63.43,0.11,0.8,7.53,0.79,5.24,-999.0,3.6345,13.44,0.9037,0.0601,0.1567226,H,G,A,E,B,S,A,2016.13,1,0.4,C,Kgr,Diorite gneiss,CDMG,34.334,-118.396,0.0,UPPER LEFT ABUTMENT,-999.0,-999,3,Mesozoic,-999,-999,-999,-999.0,-999.0,-999.0,-999.0,-999.0,-999.0,RSN77_AAD_PUL164.AT2,RSN77_AAD_PUL254.AT2,SFERN_PULDWN.AT2,164.0,254.0,A,-999,PEA,A,1.0,2.5,0.07,0.07,35.0,35.0,1.25,0.0875,0.0875,0.0875,1.2217,90.301,27.96
77,78.0,30.0,San Fernando,1971.0,209.0,1400.0,Palmdale Fire Station,82.0,262,6.61,Mw,0.22199999999999998,0.112,15.0,0.2,9.225714271547769e+25,288.0,50.0,83.0,2.0,4.77,21.96,82.82,153.42,34.44,-118.41,13.0,1.0,1.0,-999,1.0,0.0,20.0,27.4,438.4,58.76887479247924,1.0166666666666666,57.805450615553355,24.476452295850915,2.525,0.7777777777777777,49.0,1.0,2.5,0.0,Sierra Madre-San Fernando,2.0,31.61,34.18,24.16,-999.0,35.08,28.99,31.37,hw,107.99,0.64,51.3,0.4,0.13,82.37,0.02,10.3,-999.0,1.2903,10.92,-0.7343,0.2047,33.355915,A,Q,D,A,D,D,C,452.86,0,0.2,D,"Qal, coarse",-999,USGS,34.5781,-118.114,1.0,GROUND LEVEL,-999.0,-999,-999,-999,-999,-999,-999,-999.0,-999.0,-999.0,-999.0,-999.0,-999.0,RSN78_AAD_PDL120.AT2,RSN78_AAD_PDL210.AT2,SFERN_PDLXXX.AT2,120.0,210.0,A,-999,PEA,A,1.0,2.5,0.15,0.13,35.0,35.0,1.25,0.1875,0.1625,0.1875,0.12156,11.582,4.0613
78,79.0,30.0,San Fernando,1971.0,209.0,1400.0,Pasadena - CIT Athenaeum,499.0,80053,6.61,Mw,0.22199999999999998,0.112,15.0,0.2,9.225714271547769e+25,288.0,50.0,83.0,2.0,4.77,21.96,82.82,153.42,34.44,-118.41,13.0,1.0,1.0,-999,1.0,0.0,20.0,27.4,438.4,58.76887479247924,1.0166666666666666,57.805450615553355,24.476452295850915,2.525,0.7777777777777777,49.0,1.0,2.5,0.0,Sierra Madre-San Fernando,2.0,42.75,44.69,25.47,-999.0,37.25,25.47,-11.81,nu,-152.39,0.64,31.29,0.55,0.86,23.42,0.79,10.3,-999.0,2.7946,16.1,0.428,-0.1143,-13.203413,C,Q,D,B,D,D,C,415.13,1,0.3,C,Qoa,-999,CIT,34.139,-118.121,2.0,BASEMENT,0.23,-999,-999,Holocene,Coarse,-999,-999,-999.0,-999.0,-999.0,-999.0,-999.0,-999.0,RSN79_AAD_PAS000.AT2,RSN79_AAD_PAS090.AT2,SFERN_PASDWN.AT2,0.0,90.0,A,-999,PEA,A,1.0,2.5,0.23,0.3,35.0,35.0,1.25,0.2875,0.375,0.375,0.10575,9.8125,2.3639
79,80.0,30.0,San Fernando,1971.0,209.0,1400.0,Pasadena - Old Seismo Lab,83.0,266,6.61,Mw,0.22199999999999998,0.112,15.0,0.2,9.225714271547769e+25,288.0,50.0,83.0,2.0,4.77,21.96,82.82,153.42,34.44,-118.41,13.0,1.0,1.0,-999,1.0,0.0,20.0,27.4,438.4,58.76887479247924,1.0166666666666666,57.805450615553355,24.476452295850915,2.525,0.7777777777777777,49.0,1.0,2.5,0.0,Sierra Madre-San Fernando,2.0,39.17,41.27,21.5,-999.0,33.39,21.5,-11.98,nu,-146.13,0.64,35.59,0.52,0.86,23.84,0.79,10.3,-999.0,2.8883,16.1,0.4675,-0.1395,-13.498382,C,G,A,D,B,S,B,969.07,1,0.3,B,Kgr,-999,USGS,34.1486,-118.171,2.0,BASEMENT,0.0,-999,-999,Mesozoic,-999,-999,-999,-999.0,-999.0,-999.0,-999.0,-999.0,-999.0,RSN80_AAD_PSL180.AT2,RSN80_AAD_PSL270.AT2,SFERN_PSLDWN.AT2,180.0,270.0,A,-999,PEA,A,1.0,2.5,0.5,0.5,35.0,35.0,1.25,0.625,0.625,0.625,0.14498,9.857,1.0524
80,81.0,30.0,San Fernando,1971.0,209.0,1400.0,Pearblossom Pump,84.0,269,6.61,Mw,0.22199999999999998,0.112,15.0,0.2,9.225714271547769e+25,288.0,50.0,83.0,2.0,4.77,21.96,82.82,153.42,34.44,-118.41,13.0,1.0,1.0,-999,1.0,0.0,20.0,27.4,438.4,58.76887479247924,1.0166666666666666,57.805450615553355,24.476452295850915,2.525,0.7777777777777777,49.0,1.0,2.5,0.0,Sierra Madre-San Fernando,2.0,45.41,47.23,35.54,-999.0,46.2,38.97,29.84,nu,134.29,0.64,30.81,0.55,0.1,83.97,0.01,10.3,-999.0,2.1055,10.66,-0.5129,0.1793,31.185215,A,H,B,E,C,S,C,529.09,1,0.3,C,Qoa,-999,CDWR,34.5083,-117.922,0.0,GROUND LEVEL,0.007,-999,-999,Pleistocene/Mesozoic ?,-999,-999,-999,-999.0,-999.0,-999.0,-999.0,-999.0,-999.0,RSN81_AAD_PPP000.AT2,RSN81_AAD_PPP270.AT2,SFERN_PPPDWN.AT2,0.0,270.0,A,-999,PEA,A,1.0,2.5,0.2,0.2,35.0,35.0,1.25,0.25,0.25,0.25,0.13125,4.8808,1.0875
83,84.0,30.0,San Fernando,1971.0,209.0,1400.0,San Diego Gas & Electric,100.0,314,6.61,Mw,0.22199999999999998,0.112,15.0,0.2,9.225714271547769e+25,288.0,50.0,83.0,2.0,4.77,21.96,82.82,153.42,34.44,-118.41,13.0,1.0,1.0,-999,1.0,0.0,20.0,27.4,438.4,58.76887479247924,1.0166666666666666,57.805450615553355,24.476452295850915,2.525,0.7777777777777777,49.0,1.0,2.5,0.0,Sierra Madre-San Fernando,2.0,223.7,224.08,205.77,-999.0,217.88,205.77,-140.48,nu,-136.95,0.64,40.68,0.49,0.86,45.55,0.61,10.3,-999.0,2.5548,15.3,0.3475,-0.3393,-136.39456,B,Q,D,B,D,S,D,354.06,2a_3a_4b_4c,0.25,C,Qoa,-999,USGS,32.719,-117.163,4.0,GROUND LEVEL,-999.0,-999,-999,Pleistocene,-999,Marine,-999,-999.0,-999.0,-999.0,-999.0,-999.0,-999.0,RSN84_AAD_SDC000.AT2,RSN84_AAD_SDC090.AT2,SFERN_SDCDWN.AT2,0.0,90.0,A,-999,PEA,A,1.0,2.5,0.1,0.1,30.0,30.0,1.25,0.125,0.125,0.125,0.0051356,1.4191,1.4236
84,85.0,30.0,San Fernando,1971.0,209.0,1400.0,San Juan Capistrano,104.0,465,6.61,Mw,0.22199999999999998,0.112,15.0,0.2,9.225714271547769e+25,288.0,50.0,83.0,2.0,4.77,21.96,82.82,153.42,34.44,-118.41,13.0,1.0,1.0,-999,1.0,0.0,20.0,27.4,438.4,58.76887479247924,1.0166666666666666,57.805450615553355,24.476452295850915,2.525,0.7777777777777777,49.0,1.0,2.5,0.0,Sierra Madre-San Fernando,2.0,125.86,126.53,108.01,-999.0,120.11,108.01,-70.57,nu,-139.2,0.64,38.76,0.5,0.86,41.9,0.64,10.3,-999.0,2.6219,15.3,0.3734,-0.2893,-69.543981,A,H,A,A,D,S,C,459.37,2a_3a_4b_4c,0.25,D,"Qal, thin",-999,USGS,33.4894,-117.671,1.0,GROUND LEVEL,-999.0,-999,-999,Holocene/Miocene ?,-999,-999,-999,-999.0,-999.0,-999.0,-999.0,-999.0,-999.0,RSN85_AAD_SJC033.AT2,RSN85_AAD_SJC303.AT2,SFERN_SJCDWN.AT2,33.0,303.0,A,-999,PEA,A,1.0,2.5,0.2,0.13,35.0,35.0,1.25,0.25,0.1625,0.25,0.038196,3.9662,2.4533
85,86.0,30.0,San Fernando,1971.0,209.0,1400.0,San Onofre - So Cal Edison,90.0,280,6.61,Mw,0.22199999999999998,0.112,15.0,0.2,9.225714271547769e+25,288.0,50.0,83.0,2.0,4.77,21.96,82.82,153.42,34.44,-118.41,13.0,1.0,1.0,-999,1.0,0.0,20.0,27.4,438.4,58.76887479247924,1.0166666666666666,57.805450615553355,24.476452295850915,2.525,0.7777777777777777,49.0,1.0,2.5,0.0,Sierra Madre-San Fernando,2.0,142.62,143.21,124.79,-999.0,136.89,124.79,-80.63,nu,-139.75,0.64,38.23,0.51,0.86,42.74,0.63,10.3,-999.0,2.6098,15.3,0.3667,-0.294,-79.019872,A,Q,B,C,C,S,C,442.88,0,0.2,C,Qoa,-999,SCE,33.37,-117.56,1.0,GROUND LEVEL,-999.0,-999,-999,Tertiary,-999,-999,-999,-999.0,-999.0,-999.0,-999.0,-999.0,-999.0,RSN86_AAD_SON033.AT2,RSN86_AAD_SON303.AT2,SFERN_SONDWN.AT2,33.0,303.0,A,-999,PEA,A,1.0,2.5,0.1,0.2,20.0,20.0,1.25,0.125,0.25,0.25,0.014668,3.4505,5.9858
87,88.0,30.0,San Fernando,1971.0,209.0,1400.0,Santa Felita Dam (Outlet),93.0,285,6.61,Mw,0.22199999999999998,0.112,15.0,0.2,9.225714271547769e+25,288.0,50.0,83.0,2.0,4.77,21.96,82.82,153.42,34.44,-118.41,13.0,1.0,1.0,-999,1.0,0.0,20.0,27.4,438.4,58.76887479247924,1.0166666666666666,57.805450615553355,24.476452295850915,2.525,0.7777777777777777,49.0,1.0,2.5,0.0,Sierra Madre-San Fernando,2.0,31.55,34.13,24.69,-999.0,34.15,24.87,-1.33,nu,-3.08,0.36,11.2,0.35,0.67,23.93,0.61,5.7,-999.0,1.7518,13.63,0.5103,-0.2345,2.7587494,H,M,A,C,B,S,C,389.0,0,0.2,C,Tsh,M-Late Miocene shale (Monterey),CDMG,34.46,-118.753,-999.0,-999,-999.0,-999,3,-999,-999,-999,-999,-999.0,-999.0,-999.0,-999.0,-999.0,-999.0,RSN88_AAD_FSD172.AT2,RSN88_AAD_FSD262.AT2,SFERN_FSD-UP.AT2,172.0,262.0,A,-999,PEA,A,1.0,2.5,0.1,0.1,20.0,13.0,1.25,0.125,0.125,0.125,0.15486,8.8971,6.8376
88,89.0,30.0,San Fernando,1971.0,209.0,1400.0,Tehachapi Pump,134.0,1027,6.61,Mw,0.22199999999999998,0.112,15.0,0.2,9.225714271547769e+25,288.0,50.0,83.0,2.0,4.77,21.96,82.82,153.42,34.44,-118.41,13.0,1.0,1.0,-999,1.0,0.0,20.0,27.4,438.4,58.76887479247924,1.0166666666666666,57.805450615553355,24.476452295850915,2.525,0.7777777777777777,49.0,1.0,2.5,0.0,Sierra Madre-San Fernando,2.0,67.62,68.86,61.75,-999.0,73.59,63.79,46.82,nu,43.6,0.36,39.72,0.27,0.14,72.21,0.04,5.7,-999.0,1.9751,6.81,-0.5561,-0.1391,51.874279,I,G,A,E,B,S,C,669.48,0,0.2,C,Tv,-999,CDWR,34.9417,-118.827,0.0,GROUND LEVEL,-999.0,-999,-999,Holocene/Oligocene/Mesozoic ?,-999,-999,-999,-999.0,-999.0,-999.0,-999.0,-999.0,-999.0,RSN89_AAD_TEH090.AT2,RSN89_AAD_TEH180.AT2,SFERN_TEHDWN.AT2,90.0,180.0,A,-999,PEA,A,1.0,2.5,0.2,0.2,35.0,35.0,1.25,0.25,0.25,0.25,0.039338,1.662,0.38331
89,90.0,30.0,San Fernando,1971.0,209.0,1400.0,UCSB - Fluid Mech Lab,91.0,282,6.61,Mw,0.22199999999999998,0.112,15.0,0.2,9.225714271547769e+25,288.0,50.0,83.0,2.0,4.77,21.96,82.82,153.42,34.44,-118.41,13.0,1.0,1.0,-999,1.0,0.0,20.0,27.4,438.4,58.76887479247924,1.0166666666666666,57.805450615553355,24.476452295850915,2.525,0.7777777777777777,49.0,1.0,2.5,0.0,Sierra Madre-San Fernando,2.0,132.23,132.86,124.38,-999.0,133.6,124.41,-40.17,nu,-18.84,0.36,17.67,0.34,0.86,34.98,0.71,5.7,-999.0,1.5872,13.63,0.4146,0.0868,-31.600965,C,Q,D,C,D,S,D,322.42,2a_3a_4b_4c,0.25,C,Qoa,-999,USGS,34.41,-119.85,2.0,BASEMENT,-999.0,-999,-999,-999,-999,-999,-999,-999.0,-999.0,-999.0,-999.0,-999.0,-999.0,RSN90_AAD_SBF042.AT2,RSN90_AAD_SBF132.AT2,SFERN_SBF-UP.AT2,42.0,132.0,A,-999,PEA,A,1.0,2.5,0.2,0.2,30.0,30.0,1.25,0.25,0.25,0.25,0.018272,5.2087,10.002
90,91.0,30.0,San Fernando,1971.0,209.0,1400.0,Upland - San Antonio Dam,95.0,287,6.61,Mw,0.22199999999999998,0.112,15.0,0.2,9.225714271547769e+25,288.0,50.0,83.0,2.0,4.77,21.96,82.82,153.42,34.44,-118.41,13.0,1.0,1.0,-999,1.0,0.0,20.0,27.4,438.4,58.76887479247924,1.0166666666666666,57.805450615553355,24.476452295850915,2.525,0.7777777777777777,49.0,1.0,2.5,0.0,Sierra Madre-San Fernando,2.0,74.64,75.76,61.72,-999.0,71.23,61.73,0.74,nu,179.31,0.64,5.36,0.64,0.85,7.34,0.84,10.3,-999.0,1.9779,14.91,0.0158,0.0224,0.80416808,I,H,A,A,B,D,C,487.23,2a_3a_4b_4c,0.25,D,"Qal, coarse",Holocene coarse alluvium ,ACOE,34.155,-117.675,0.0,DOWNSTREAM,-999.0,-999,5,Holocene/Mesozoic ?,-999,-999,-999,-999.0,-999.0,-999.0,-999.0,-999.0,-999.0,RSN91_AAD_SOD015.AT2,RSN91_AAD_SOD285.AT2,SFERN_SODDWN.AT2,15.0,285.0,A,-999,PEA,A,1.0,2.5,0.3,0.23,35.0,35.0,1.25,0.375,0.2875,0.375,0.064655,3.3346,0.46403
