,Record Sequence Number,EQID,Earthquake Name,YEAR,MODY,HRMN,Station Name,Station Sequence Number,Station ID  No.,Earthquake Magnitude,Magnitude Type,Magnitude Uncertainty: Kagan Model,Magnitude Uncertainty: Statistical,Magnitude Sample Size,Magnitude Uncertainty: Study Class,Mo (dyne.cm),Strike (deg),Dip (deg),Rake Angle (deg),Mechanism Based on Rake Angle,P-plunge (deg),P-trend (deg),T-plunge (deg),T-trend (deg),Hypocenter Latitude (deg),Hypocenter Longitude (deg),Hypocenter Depth (km),Coseismic Surface Rupture: 1=Yes; 0=No;    -999=Unknown,Coseismic Surface Rupture (Including Inferred),Basis for Inference of Surface Rupture,Finite Rupture Model: 1=Yes;  0=No,Depth to Top Of Fault Rupture Model,Fault Rupture Length for Calculation of Ry (km),Fault Rupture Width (km),Fault Rupture Area (km^2),Avg Fault Disp (cm),Rise Time (s),Avg Slip Velocity (cm/s),Static Stress Drop (bars),Preferred Rupture Velocity (km/s),Average Vr/Vs,Percent of Moment Release in the Top 5 Km of Crust,Existence of Shallow Asperity: 0=No; 1=Yes,Depth to Top of Shallowest Asperity (km),Earthquake in Extensional Regime: 1=Yes; 0=No,Fault Name,Slip Rate (mm/Yr),EpiD (km),HypD (km),Joyner-Boore Dist. (km),Campbell R Dist. (km),RmsD (km),ClstD (km),Rx,FW/HW Indicator,Source to Site Azimuth (deg),X,Theta.D (deg),SSGA (Strike Slip),Y,Phi.D (deg),SSGA (Dip Slip),s,d,ctildepr,D,Rfn.Hyp,Rfp.Hyp,T,GMX's C1,GMX's C2,GMX's C3,Campbell's GEOCODE,Bray and Rodriguez-Marek SGS,Depth,Preferred NEHRP Based on Vs30,Vs30 (m/s) selected for analysis,Measured/Inferred Class,Sigma of Vs30 (in natural log Units),NEHRP Classification from CGS's Site Condition Map,Geological Unit,Geology,Owner,Station Latitude,Station Longitude,STORIES,INSTLOC,Depth to Basement Rock,Site Visited,NGA Type,Age,Grain Size,Depositional History,Basin,h (m),hnorm (m),Rsbe (m),Rcebe (m),Rebe (m),Rsbe1 (m),File Name (Horizontal 1),File Name (Horizontal 2),File Name (Vertical),H1 azimth (degrees),H2 azimith (degrees),Type of Recording,Instrument Model,PEA Processing Flag,Type of Filter,npass,nroll,HP-H1 (Hz),HP-H2 (Hz),LP-H1 (Hz),LP-H2 (Hz),Factor,Lowest Usable Freq - H1 (Hz),Lowest Usable Freq - H2 (H2),Lowest Usable Freq - Ave. Component (Hz),PGA (g),PGV (cm/sec),PGD (cm)
32,33.0,25.0,Parkfield,1966.0,628.0,426.0,Temblor pre-1969,162.0,1438,6.19,Mw,0.3,0.265,12.0,0.2,2.1627185237270347e+25,140.0,90.0,180.0,0.0,0.0,188.0,0.0,98.0,35.955,-120.4983,10.0,1.0,1.0,-999,1.0,0.0,25.0,12.0,300.0,20.204391955746665,0.5666666666666667,35.654809333670585,10.190513857953183,2.6,0.747811725846408,-999.0,-999.0,-999,0.0,"San Andreas fault, Parkfield section",34.0,40.25,41.48,15.96,-999.0,24.75,15.96,-6.84,na,-25.39,1.0,10.43,0.98,0.83,34.39,0.69,24.94,-999.0,3.3287,26.87,-0.9133,-0.0781,-5.35637,I,J,A,E,C,S,C,527.92,1,0.3,C,serpentine,-999,CDMG,35.71,-120.17,0.0,GROUND LEVEL,2.8,-999,-999,Pleistocene,-999,-999,-999,-999.0,-999.0,-999.0,-999.0,-999.0,-999.0,RSN33_AAD_TMB205.AT2,RSN33_AAD_TMB295.AT2,PARKF_TMBDWN.AT2,205.0,295.0,A,-999,PEA,A,1.0,2.5,0.1,0.15,14.7,15.1,1.25,0.125,0.1875,0.1875,0.28726,16.521,4.7792
33,34.0,26.0,Northern Calif-05,1967.0,1210.0,1206.0,Ferndale City Hall,133.0,1023,5.6,Mw,0.2844,-999.0,-999.0,0.3,2.818382931264456e+24,312.0,90.0,180.0,0.0,0.0,357.0,0.0,267.0,40.5,-124.6,10.0,-999.0,0.0,M<6,0.0,8.763,8.3,8.6,72.1,-999.0,-999.0,-999.0,-999.0,-999.0,-999.0,-999.0,-999.0,-999,0.0,-999,-999.0,29.73,31.36,27.36,-999.0,32.03,28.73,25.38,na,111.93,0.63,58.64,0.33,0.14,68.5,0.05,-999.0,-999.0,-999.0,-999.0,-999.0,-999.0,-999.0,B,Q,D,A,D,S,D,219.31,0,0.1,D,"Qal, thin",-999,USGS,40.576,-124.263,2.0,GROUND LEVEL,-999.0,-999,-999,Pleistocene,-999,Alluvial Valley,-999,-999.0,-999.0,-999.0,-999.0,-999.0,-999.0,RSN34_AAD_C-FRN224.AT2,RSN34_AAD_C-FRN314.AT2,NCALIF.AG_C-FRN-UP.AT2,224.0,314.0,A,-999,PEA,A,1.0,2.5,0.14,0.07,20.0,13.0,1.25,0.175,0.0875,0.175,0.18406,11.517,1.7695
34,35.0,27.0,Northern Calif-06,1967.0,1218.0,1725.0,Hollister City Hall,135.0,1028,5.2,U,0.2844,-999.0,-999.0,0.3,7.079457843841426e+23,70.7,90.0,0.0,0.0,0.0,25.7,0.0,295.7,37.01,-121.788,7.4,-999.0,0.0,M<6,0.0,6.624,3.0,2.9,8.7,-999.0,-999.0,-999.0,-999.0,-999.0,-999.0,-999.0,-999.0,-999,0.0,-999,-999.0,38.83,39.53,37.11,-999.0,38.94,37.69,28.18,na,49.41,0.87,46.52,0.6,0.26,75.29,0.07,-999.0,-999.0,-999.0,-999.0,-999.0,-999.0,-999.0,C,H,D,A,D,D,D,198.77,0,0.1,D,Qoa,-999,USGS,36.85,-121.4,1.0,BASEMENT,1.7,-999,-999,Holocene,Aggregate,-999,-999,-999.0,-999.0,-999.0,-999.0,-999.0,-999.0,RSN35_AAD_E-HCH181.AT2,RSN35_AAD_E-HCH271.AT2,NCALIF.AG_E-HCH-UP.AT2,181.0,271.0,A,-999,PEA,A,1.0,2.5,0.3,0.3,13.0,15.0,1.25,0.375,0.375,0.375,0.015276,1.3829,0.26224
35,36.0,28.0,Borrego Mtn,1968.0,409.0,230.0,El Centro Array #9,75.0,117,6.63,Mw,0.2688,0.125,4.0,0.3,9.885530946569461e+25,317.0,78.0,-178.0,0.0,9.85,181.17,7.06,272.4,33.189,-116.143,8.0,1.0,1.0,-999,1.0,0.0,30.0,12.0,360.1,76.68207424202046,-999.0,-999.0,35.242619770067414,-999.0,-999.0,-999.0,-999.0,-999,0.0,"San Jacinto fault, Borrego section",4.0,70.75,71.2,45.12,-999.0,58.68,45.66,12.44,na,164.22,0.86,8.75,0.85,0.47,65.39,0.19,25.92,-999.0,3.4887,26.51,0.8862,0.2993,12.439088,E,Q,D,A,D,D,D,213.44,0,0.1,D,"Qal, deep, Imperial V.",-999,USGS,32.794,-115.549,2.0,BASEMENT,5.0,-999,-999,Holocene,Aggregate,Lacustrine,-999,-999.0,-999.0,-999.0,-999.0,-999.0,-999.0,RSN36_AAD_A-ELC180.AT2,RSN36_AAD_A-ELC270.AT2,BORREGO_A-ELC-UP.AT2,180.0,270.0,A,-999,PEA,A,1.0,2.5,0.04,0.08,12.5,12.8,1.25,0.05,0.1,0.1,0.094018,19.007,12.589
36,37.0,28.0,Borrego Mtn,1968.0,409.0,230.0,LA - Hollywood Stor FF,326.0,24303,6.63,Mw,0.2688,0.125,4.0,0.3,9.885530946569461e+25,317.0,78.0,-178.0,0.0,9.85,181.17,7.06,272.4,33.189,-116.143,8.0,1.0,1.0,-999,1.0,0.0,30.0,12.0,360.1,76.68207424202046,-999.0,-999.0,35.242619770067414,-999.0,-999.0,-999.0,-999.0,-999,0.0,"San Jacinto fault, Borrego section",4.0,226.84,226.98,222.42,-999.0,236.66,222.42,-76.49,na,-20.11,0.14,20.16,0.13,0.68,72.16,0.21,4.08,-999.0,1.33,9.14,-0.7781,-0.0657,-76.487887,I,H,D,A,D,S,D,316.46,0,0.1,D,"Qal, thin, west LA",Holocene fine alluvium,CDMG,34.09,-118.339,0.0,GROUND LEVEL,2.5,-999,2,Holocene,Coarse,Alluvial Valley,-999,-999.0,-999.0,-999.0,-999.0,-999.0,-999.0,RSN37_AAD_A-PEL090.AT2,RSN37_AAD_A-PEL180.AT2,BORREGO_A-PEL-UP.AT2,90.0,180.0,A,-999,PEA,A,1.0,2.5,0.08,0.13,13.0,13.0,1.25,0.1,0.1625,0.1625,0.012584,2.8846,1.278
37,38.0,28.0,Borrego Mtn,1968.0,409.0,230.0,LB - Terminal Island,81.0,130,6.63,Mw,0.2688,0.125,4.0,0.3,9.885530946569461e+25,317.0,78.0,-178.0,0.0,9.85,181.17,7.06,272.4,33.189,-116.143,8.0,1.0,1.0,-999,1.0,0.0,30.0,12.0,360.1,76.68207424202046,-999.0,-999.0,35.242619770067414,-999.0,-999.0,-999.0,-999.0,-999,0.0,"San Jacinto fault, Borrego section",4.0,204.23,204.39,199.84,-999.0,213.47,199.84,-94.1,na,-28.09,0.14,27.97,0.12,0.68,73.23,0.2,4.08,-999.0,1.3293,9.14,-0.5868,-0.0847,-94.103812,C,Q,D,A,D,D,D,217.92,1,0.25,D,"Qal, fine",-999,USGS,33.77,-118.23,1.0,BASEMENT,-999.0,-999,-999,-999,-999,-999,-999,-999.0,-999.0,-999.0,-999.0,-999.0,-999.0,RSN38_AAD_A-TLI249.AT2,RSN38_AAD_A-TLI339.AT2,BORREGO_A-TLI-UP.AT2,249.0,339.0,A,-999,PEA,A,1.0,2.5,0.1,0.2,15.0,15.0,1.25,0.125,0.25,0.25,0.0090144,2.4991,1.448
39,40.0,28.0,Borrego Mtn,1968.0,409.0,230.0,San Onofre - So Cal Edison,90.0,280,6.63,Mw,0.2688,0.125,4.0,0.3,9.885530946569461e+25,317.0,78.0,-178.0,0.0,9.85,181.17,7.06,272.4,33.189,-116.143,8.0,1.0,1.0,-999,1.0,0.0,30.0,12.0,360.1,76.68207424202046,-999.0,-999.0,35.242619770067414,-999.0,-999.0,-999.0,-999.0,-999,0.0,"San Jacinto fault, Borrego section",4.0,133.36,133.6,129.11,-999.0,141.6,129.11,-80.29,na,-38.45,0.14,37.92,0.11,0.68,72.43,0.21,4.08,-999.0,1.3171,9.14,-0.3244,0.0022,-80.29258,A,Q,B,C,C,S,C,442.88,0,0.2,C,Qoa,-999,SCE,33.37,-117.56,1.0,GROUND LEVEL,-999.0,-999,-999,Tertiary,-999,-999,-999,-999.0,-999.0,-999.0,-999.0,-999.0,-999.0,RSN40_AAD_A-SON033.AT2,RSN40_AAD_A-SON303.AT2,BORREGO_A-SON-UP.AT2,33.0,303.0,A,-999,PEA,A,1.0,2.5,0.1,0.13,20.0,20.0,1.25,0.125,0.1625,0.1625,0.042004,3.4995,1.7459
44,45.0,29.0,Lytle Creek,1970.0,912.0,1430.0,Devil's Canyon,106.0,620,5.33,Mw,0.23759999999999998,0.096,4.0,0.3,1.1091748152624142e+24,325.0,48.0,59.0,3.0,1.3,256.36,67.45,163.23,34.2698,-117.54,8.0,-999.0,0.0,M<6,0.0,5.627,4.5,3.8,17.2,-999.0,-999.0,-999.0,-999.0,-999.0,-999.0,-999.0,-999.0,-999,0.0,-999,-999.0,20.43,21.94,18.39,-999.0,22.08,20.24,14.16,nu,135.18,0.5,36.06,-999.0,0.16,81.63,-999.0,-999.0,-999.0,-999.0,-999.0,-999.0,-999.0,-999.0,A,G,A,D,B,S,C,667.13,2a_3a_4b_4c,0.4,B,Kgr,-999,CDWR,34.21,-117.33,-999.0,-999,-999.0,-999,-999,-999,-999,-999,-999,-999.0,-999.0,-999.0,-999.0,-999.0,-999.0,RSN45_AAD_DCF090.AT2,RSN45_AAD_DCF180.AT2,LYTLECR_DCFDWN.AT2,90.0,180.0,A,-999,PEA,A,1.0,2.5,0.3,0.13,23.0,20.0,1.25,0.375,0.1625,0.375,0.16689,5.0801,0.75826
49,50.0,29.0,Lytle Creek,1970.0,912.0,1430.0,Wrightwood - 6074 Park Dr,99.0,290,5.33,Mw,0.23759999999999998,0.096,4.0,0.3,1.1091748152624142e+24,325.0,48.0,59.0,3.0,1.3,256.36,67.45,163.23,34.2698,-117.54,8.0,-999.0,0.0,M<6,0.0,5.627,4.5,3.8,17.2,-999.0,-999.0,-999.0,-999.0,-999.0,-999.0,-999.0,-999.0,-999,0.0,-999,-999.0,13.01,15.27,10.7,-999.0,14.65,12.14,1.12,nu,5.99,0.5,4.47,-999.0,0.84,34.77,-999.0,-999.0,-999.0,-999.0,-999.0,-999.0,-999.0,-999.0,B,H,A,B,C,S,C,486.0,0,0.2,C,"Qal, coarse",Holocene coarse alluvium ,USGS,34.36,-117.63,2.0,GROUND LEVEL,0.068,-999,1a,Holocene/Mesozoic ?,-999,-999,-999,-999.0,-999.0,-999.0,-999.0,-999.0,-999.0,RSN50_AAD_WTW115.AT2,RSN50_AAD_WTW205.AT2,LYTLECR_WTWDWN.AT2,115.0,205.0,A,-999,PEA,A,1.0,2.5,0.2,0.18,20.0,23.0,1.25,0.25,0.225,0.25,0.16854,9.0257,0.94268
50,51.0,30.0,San Fernando,1971.0,209.0,1400.0,2516 Via Tejon PV,3.0,411,6.61,Mw,0.22199999999999998,0.112,15.0,0.2,9.225714271547769e+25,288.0,50.0,83.0,2.0,4.77,21.96,82.82,153.42,34.44,-118.41,13.0,1.0,1.0,-999,1.0,0.0,20.0,27.4,438.4,58.76887479247924,1.0166666666666666,57.805450615553355,24.476452295850915,2.525,0.7777777777777777,49.0,1.0,2.5,0.0,Sierra Madre-San Fernando,2.0,71.14,72.32,55.2,-999.0,65.1,55.2,-54.51,nu,-99.03,0.64,70.72,0.21,0.86,40.47,0.66,10.3,-999.0,1.8248,16.1,0.1544,-0.3669,-56.424075,B,Q,C,C,D,S,D,280.56,1,0.25,C,Tsh,-999,USGS,33.801,-118.387,-999.0,-999,-999.0,-999,-999,-999,-999,-999,-999,-999.0,-999.0,-999.0,-999.0,-999.0,-999.0,RSN51_AAD_PVE065.AT2,RSN51_AAD_PVE155.AT2,SFERN_PVEDWN.AT2,65.0,155.0,A,-999,PEA,A,1.0,2.5,0.2,0.2,20.0,20.0,1.25,0.25,0.25,0.25,0.031274,5.5043,8.7349
51,52.0,30.0,San Fernando,1971.0,209.0,1400.0,Anza Post Office,67.0,103,6.61,Mw,0.22199999999999998,0.112,15.0,0.2,9.225714271547769e+25,288.0,50.0,83.0,2.0,4.77,21.96,82.82,153.42,34.44,-118.41,13.0,1.0,1.0,-999,1.0,0.0,20.0,27.4,438.4,58.76887479247924,1.0166666666666666,57.805450615553355,24.476452295850915,2.525,0.7777777777777777,49.0,1.0,2.5,0.0,Sierra Madre-San Fernando,2.0,187.99,188.44,173.16,-999.0,183.86,173.16,-38.46,nu,-167.17,0.64,12.93,0.63,0.86,34.71,0.71,10.3,-999.0,2.1702,15.3,0.1496,-0.0795,-33.752127,A,H,C,A,D,S,C,360.45,2a_3a_4b_4c,0.25,D,"Qal, thin",-999,CIT,33.5556,-116.674,1.0,GROUND LEVEL,-999.0,-999,-999,Holocene/Mesozoic ?,-999,-999,-999,-999.0,-999.0,-999.0,-999.0,-999.0,-999.0,RSN52_AAD_AZP045.AT2,RSN52_AAD_AZP315.AT2,SFERN_AZPDWN.AT2,45.0,315.0,A,-999,PEA,A,1.0,2.5,0.5,0.5,35.0,35.0,1.25,0.625,0.625,0.625,0.034383,1.7452,0.17188
52,53.0,30.0,San Fernando,1971.0,209.0,1400.0,Bakersfield - Harvey Aud,124.0,1004,6.61,Mw,0.22199999999999998,0.112,15.0,0.2,9.225714271547769e+25,288.0,50.0,83.0,2.0,4.77,21.96,82.82,153.42,34.44,-118.41,13.0,1.0,1.0,-999,1.0,0.0,20.0,27.4,438.4,58.76887479247924,1.0166666666666666,57.805450615553355,24.476452295850915,2.525,0.7777777777777777,49.0,1.0,2.5,0.0,Sierra Madre-San Fernando,2.0,117.55,118.27,111.88,-999.0,123.64,113.02,85.74,nu,46.33,0.36,45.09,0.25,0.14,63.41,0.06,5.7,-999.0,2.0847,6.81,-0.5849,0.0002,92.242191,C,H,D,A,D,D,D,241.41,2a_3a_4b_4c,0.25,D,"Qal, deep (incl LA)",-999,USGS,35.37,-119.021,1.0,BASEMENT,-999.0,-999,-999,-999,-999,-999,-999,-999.0,-999.0,-999.0,-999.0,-999.0,-999.0,RSN53_AAD_BFA180.AT2,RSN53_AAD_BFA270.AT2,SFERN_BFA-UP.AT2,180.0,270.0,A,-999,PEA,A,1.0,2.5,0.1,0.1,13.0,20.0,1.25,0.125,0.125,0.125,0.0069465,1.4375,1.3177
53,54.0,30.0,San Fernando,1971.0,209.0,1400.0,Borrego Springs Fire Sta,69.0,105,6.61,Mw,0.22199999999999998,0.112,15.0,0.2,9.225714271547769e+25,288.0,50.0,83.0,2.0,4.77,21.96,82.82,153.42,34.44,-118.41,13.0,1.0,1.0,-999,1.0,0.0,20.0,27.4,438.4,58.76887479247924,1.0166666666666666,57.805450615553355,24.476452295850915,2.525,0.7777777777777777,49.0,1.0,2.5,0.0,Sierra Madre-San Fernando,2.0,229.77,230.14,214.32,-999.0,225.37,214.32,-62.28,nu,-163.11,0.64,16.29,0.62,0.86,39.88,0.66,10.3,-999.0,2.2649,15.3,0.1971,-0.1118,-55.965527,A,H,C,A,D,D,D,338.54,2a_3a_4b_4c,0.25,D,"Qal, deep (incl LA)",-999,USGS,33.26,-116.37,1.0,GROUND LEVEL,-999.0,-999,-999,Holocene,-999,Alluvium,-999,-999.0,-999.0,-999.0,-999.0,-999.0,-999.0,RSN54_AAD_BSF135.AT2,RSN54_AAD_BSF225.AT2,SFERN_BSFDWN.AT2,135.0,225.0,A,-999,PEA,A,1.0,2.5,0.1,0.1,23.0,30.0,1.25,0.125,0.125,0.125,0.0090232,1.5046,1.4775
54,55.0,30.0,San Fernando,1971.0,209.0,1400.0,Buena Vista - Taft,2.0,1,6.61,Mw,0.22199999999999998,0.112,15.0,0.2,9.225714271547769e+25,288.0,50.0,83.0,2.0,4.77,21.96,82.82,153.42,34.44,-118.41,13.0,1.0,1.0,-999,1.0,0.0,20.0,27.4,438.4,58.76887479247924,1.0166666666666666,57.805450615553355,24.476452295850915,2.525,0.7777777777777777,49.0,1.0,2.5,0.0,Sierra Madre-San Fernando,2.0,117.46,118.18,111.37,-999.0,122.68,112.52,53.72,nu,27.73,0.36,26.99,0.32,0.14,69.64,0.05,5.7,-999.0,2.5366,5.7,-0.4142,0.0676,61.172806,A,Q,D,C,D,S,C,385.69,2a_3a_4b_4c,0.4,C,QT,-999,USGS,35.16,-119.35,-999.0,-999,-999.0,-999,-999,-999,-999,-999,-999,-999.0,-999.0,-999.0,-999.0,-999.0,-999.0,RSN55_AAD_BVP090.AT2,RSN55_AAD_BVP180.AT2,SFERN_BVPDWN.AT2,90.0,180.0,A,-999,PEA,A,1.0,2.5,0.1,0.1,13.0,15.0,1.25,0.125,0.125,0.125,0.011999,1.3641,1.2985
55,56.0,30.0,San Fernando,1971.0,209.0,1400.0,Carbon Canyon Dam,71.0,108,6.61,Mw,0.22199999999999998,0.112,15.0,0.2,9.225714271547769e+25,288.0,50.0,83.0,2.0,4.77,21.96,82.82,153.42,34.44,-118.41,13.0,1.0,1.0,-999,1.0,0.0,20.0,27.4,438.4,58.76887479247924,1.0166666666666666,57.805450615553355,24.476452295850915,2.525,0.7777777777777777,49.0,1.0,2.5,0.0,Sierra Madre-San Fernando,2.0,78.89,79.95,61.79,-999.0,73.62,61.79,-29.31,nu,-151.69,0.64,28.99,0.56,0.86,33.82,0.72,10.3,-999.0,2.6358,15.3,0.354,-0.1459,-29.490033,H,P,A,C,C,S,D,235.0,0,0.1,C,Tss,-999,ACOE,33.9121,-117.838,0.0,LEFT ABUTMENT,5.0,-999,-999,Holocene,Coarse,Alluvial Fan,-999,-999.0,-999.0,-999.0,-999.0,-999.0,-999.0,RSN56_AAD_CND130.AT2,RSN56_AAD_CND220.AT2,SFERN_CNDDWN.AT2,130.0,220.0,A,-999,PEA,A,1.0,2.5,0.5,0.33,20.0,20.0,1.25,0.625,0.4125,0.625,0.071213,4.783,4.0855
59,60.0,30.0,San Fernando,1971.0,209.0,1400.0,Cholame - Shandon Array #2,125.0,1013,6.61,Mw,0.22199999999999998,0.112,15.0,0.2,9.225714271547769e+25,288.0,50.0,83.0,2.0,4.77,21.96,82.82,153.42,34.44,-118.41,13.0,1.0,1.0,-999,1.0,0.0,20.0,27.4,438.4,58.76887479247924,1.0166666666666666,57.805450615553355,24.476452295850915,2.525,0.7777777777777777,49.0,1.0,2.5,0.0,Sierra Madre-San Fernando,2.0,223.64,224.01,217.54,-999.0,228.62,218.13,85.95,nu,22.88,0.36,23.83,0.33,0.14,63.39,0.06,5.7,-999.0,2.7814,5.7,-0.3633,0.0526,97.829838,I,H,D,A,D,S,D,184.75,0,0.1,D,-999,-999,CDMG,35.733,-120.29,0.0,GROUND LEVEL,3.0,-999,-999,Holocene,Fine,Non-marine,-999,-999.0,-999.0,-999.0,-999.0,-999.0,-999.0,RSN60_AAD_C02051.AT2,RSN60_AAD_C02321.AT2,SFERN_C02DWN.AT2,51.0,321.0,A,-999,PEA,A,1.0,2.5,0.1,0.1,20.0,30.0,1.25,0.125,0.125,0.125,0.0043448,1.3238,1.4185
60,61.0,30.0,San Fernando,1971.0,209.0,1400.0,Cholame - Shandon Array #8,129.0,1015,6.61,Mw,0.22199999999999998,0.112,15.0,0.2,9.225714271547769e+25,288.0,50.0,83.0,2.0,4.77,21.96,82.82,153.42,34.44,-118.41,13.0,1.0,1.0,-999,1.0,0.0,20.0,27.4,438.4,58.76887479247924,1.0166666666666666,57.805450615553355,24.476452295850915,2.525,0.7777777777777777,49.0,1.0,2.5,0.0,Sierra Madre-San Fernando,2.0,224.26,224.63,218.17,-999.0,229.09,218.75,77.4,nu,20.47,0.36,21.51,0.33,0.14,64.51,0.06,5.7,-999.0,2.9277,5.7,-0.3371,0.0245,89.463595,A,H,D,A,C,S,D,256.82,1,0.25,D,-999,-999,CDMG,35.671,-120.359,1.0,GROUND LEVEL,1.9,-999,-999,Holocene,Fine,Alluvium,-999,-999.0,-999.0,-999.0,-999.0,-999.0,-999.0,RSN61_AAD_C08051.AT2,RSN61_AAD_C08321.AT2,SFERN_C08XXX.AT2,51.0,321.0,A,-999,PEA,A,1.0,2.5,0.1,0.1,23.0,23.0,1.25,0.125,0.125,0.125,0.0056647,1.3762,1.8926
62,63.0,30.0,San Fernando,1971.0,209.0,1400.0,Fairmont Dam,76.0,121,6.61,Mw,0.22199999999999998,0.112,15.0,0.2,9.225714271547769e+25,288.0,50.0,83.0,2.0,4.77,21.96,82.82,153.42,34.44,-118.41,13.0,1.0,1.0,-999,1.0,0.0,20.0,27.4,438.4,58.76887479247924,1.0166666666666666,57.805450615553355,24.476452295850915,2.525,0.7777777777777777,49.0,1.0,2.5,0.0,Sierra Madre-San Fernando,2.0,29.41,32.16,25.58,-999.0,36.41,30.19,34.4,hw,80.55,0.36,69.91,0.12,0.14,79.62,0.02,5.7,-999.0,1.0406,6.81,-0.8994,0.0013,37.430047,H,G,A,E,B,S,C,634.33,2a_3a_4b_4c,0.4,C,Kgr,-999,CDMG,34.704,-118.426,0.0,ABUTMENT,0.006,-999,-999,Mesozoic/Pleistocene ?,-999,-999,-999,-999.0,-999.0,-999.0,-999.0,-999.0,-999.0,RSN63_AAD_FTR056.AT2,RSN63_AAD_FTR326.AT2,SFERN_FTR-UP.AT2,56.0,326.0,A,-999,PEA,A,1.0,2.5,0.15,0.12,35.0,35.0,1.25,0.1875,0.15,0.1875,0.093858,7.1308,2.5772
63,64.0,30.0,San Fernando,1971.0,209.0,1400.0,Fort Tejon,122.0,998,6.61,Mw,0.22199999999999998,0.112,15.0,0.2,9.225714271547769e+25,288.0,50.0,83.0,2.0,4.77,21.96,82.82,153.42,34.44,-118.41,13.0,1.0,1.0,-999,1.0,0.0,20.0,27.4,438.4,58.76887479247924,1.0166666666666666,57.805450615553355,24.476452295850915,2.525,0.7777777777777777,49.0,1.0,2.5,0.0,Sierra Madre-San Fernando,2.0,65.58,66.86,59.52,-999.0,71.15,61.64,37.06,nu,35.1,0.36,31.37,0.3,0.14,77.59,0.03,5.7,-999.0,2.2072,5.7,-0.4813,0.0845,42.288552,A,Q,B,D,C,S,C,394.18,0,0.2,B,Kgr,-999,USGS,34.87,-118.9,1.0,GROUND LEVEL,0.0,-999,-999,Mesozoic/Holocene ?,-999,-999,-999,-999.0,-999.0,-999.0,-999.0,-999.0,-999.0,RSN64_AAD_FTJ000.AT2,RSN64_AAD_FTJ090.AT2,SFERN_FTJ-UP.AT2,0.0,90.0,A,-999,PEA,A,1.0,2.5,0.1,0.1,20.0,20.0,1.25,0.125,0.125,0.125,0.023993,1.2021,0.30679
64,65.0,30.0,San Fernando,1971.0,209.0,1400.0,Gormon - Oso Pump Plant,121.0,994,6.61,Mw,0.22199999999999998,0.112,15.0,0.2,9.225714271547769e+25,288.0,50.0,83.0,2.0,4.77,21.96,82.82,153.42,34.44,-118.41,13.0,1.0,1.0,-999,1.0,0.0,20.0,27.4,438.4,58.76887479247924,1.0166666666666666,57.805450615553355,24.476452295850915,2.525,0.7777777777777777,49.0,1.0,2.5,0.0,Sierra Madre-San Fernando,2.0,49.83,51.49,43.95,-999.0,55.89,46.78,36.13,nu,45.96,0.36,39.78,0.27,0.14,78.27,0.03,5.7,-999.0,1.7925,6.81,-0.567,-0.1996,40.508976,I,H,C,A,D,S,D,308.35,1,0.25,D,Qoa,-999,CDWR,34.808,-118.72,0.0,GROUND LEVEL,3.0,-999,-999,Holocene,Coarse,-999,-999,-999.0,-999.0,-999.0,-999.0,-999.0,-999.0,RSN65_AAD_OPP000.AT2,RSN65_AAD_OPP270.AT2,SFERN_OPP-UP.AT2,0.0,270.0,A,-999,PEA,A,1.0,2.5,0.1,0.1,23.0,30.0,1.25,0.125,0.125,0.125,0.083392,7.4167,1.5397
65,66.0,30.0,San Fernando,1971.0,209.0,1400.0,Hemet Fire Station,272.0,12331,6.61,Mw,0.22199999999999998,0.112,15.0,0.2,9.225714271547769e+25,288.0,50.0,83.0,2.0,4.77,21.96,82.82,153.42,34.44,-118.41,13.0,1.0,1.0,-999,1.0,0.0,20.0,27.4,438.4,58.76887479247924,1.0166666666666666,57.805450615553355,24.476452295850915,2.525,0.7777777777777777,49.0,1.0,2.5,0.0,Sierra Madre-San Fernando,2.0,153.8,154.35,139.14,-999.0,149.75,139.14,-27.63,nu,-168.54,0.64,12.2,0.63,0.86,30.76,0.74,10.3,-999.0,2.1495,15.3,0.1385,-0.0645,-24.340055,A,Q,D,A,D,S,D,328.09,2a_3a_4b_4c,0.3,D,"Qal, thin",-999,CDMG,33.729,-116.979,1.0,GROUND LEVEL,-999.0,-999,-999,Holocene,-999,-999,-999,-999.0,-999.0,-999.0,-999.0,-999.0,-999.0,RSN66_AAD_H05135.AT2,RSN66_AAD_H05225.AT2,SFERN_H05DWN.AT2,135.0,225.0,A,-999,PEA,A,1.0,2.5,0.4,0.4,35.0,35.0,1.25,0.5,0.5,0.5,0.036698,2.1911,0.36751
